"STATION","DATE","REPORT_TYPE","SOURCE","AWND","BackupDirection","BackupDistance","BackupDistanceUnit","BackupElements","BackupElevation","BackupElevationUnit","BackupEquipment","BackupLatitude","BackupLongitude","BackupName","CDSD","CLDD","DSNW","DailyAverageDewPointTemperature","DailyAverageDryBulbTemperature","DailyAverageRelativeHumidity","DailyAverageSeaLevelPressure","DailyAverageStationPressure","DailyAverageWetBulbTemperature","DailyAverageWindSpeed","DailyCoolingDegreeDays","DailyDepartureFromNormalAverageTemperature","DailyHeatingDegreeDays","DailyMaximumDryBulbTemperature","DailyMinimumDryBulbTemperature","DailyPeakWindDirection","DailyPeakWindSpeed","DailyPrecipitation","DailySnowDepth","DailySnowfall","DailySustainedWindDirection","DailySustainedWindSpeed","DailyWeather","HDSD","HTDD","HeavyFog","HourlyAltimeterSetting","HourlyDewPointTemperature","HourlyDryBulbTemperature","HourlyPrecipitation","HourlyPresentWeatherType","HourlyPressureChange","HourlyPressureTendency","HourlyRelativeHumidity","HourlySeaLevelPressure","HourlySkyConditions","HourlyStationPressure","HourlyVisibility","HourlyWetBulbTemperature","HourlyWindDirection","HourlyWindGustSpeed","HourlyWindSpeed","MonthlyAverageRH","MonthlyDaysWithGT001Precip","MonthlyDaysWithGT010Precip","MonthlyDaysWithGT32Temp","MonthlyDaysWithGT90Temp","MonthlyDaysWithLT0Temp","MonthlyDaysWithLT32Temp","MonthlyDepartureFromNormalAverageTemperature","MonthlyDepartureFromNormalCoolingDegreeDays","MonthlyDepartureFromNormalHeatingDegreeDays","MonthlyDepartureFromNormalMaximumTemperature","MonthlyDepartureFromNormalMinimumTemperature","MonthlyDepartureFromNormalPrecipitation","MonthlyDewpointTemperature","MonthlyGreatestPrecip","MonthlyGreatestPrecipDate","MonthlyGreatestSnowDepth","MonthlyGreatestSnowDepthDate","MonthlyGreatestSnowfall","MonthlyGreatestSnowfallDate","MonthlyMaxSeaLevelPressureValue","MonthlyMaxSeaLevelPressureValueDate","MonthlyMaxSeaLevelPressureValueTime","MonthlyMaximumTemperature","MonthlyMeanTemperature","MonthlyMinSeaLevelPressureValue","MonthlyMinSeaLevelPressureValueDate","MonthlyMinSeaLevelPressureValueTime","MonthlyMinimumTemperature","MonthlySeaLevelPressure","MonthlyStationPressure","MonthlyTotalLiquidPrecipitation","MonthlyTotalSnowfall","MonthlyWetBulb","NormalsCoolingDegreeDay","NormalsHeatingDegreeDay","REM","REPORT_TYPE","SOURCE","ShortDurationEndDate005","ShortDurationEndDate010","ShortDurationEndDate015","ShortDurationEndDate020","ShortDurationEndDate030","ShortDurationEndDate045","ShortDurationEndDate060","ShortDurationEndDate080","ShortDurationEndDate100","ShortDurationEndDate120","ShortDurationEndDate150","ShortDurationEndDate180","ShortDurationPrecipitationValue005","ShortDurationPrecipitationValue010","ShortDurationPrecipitationValue015","ShortDurationPrecipitationValue020","ShortDurationPrecipitationValue030","ShortDurationPrecipitationValue045","ShortDurationPrecipitationValue060","ShortDurationPrecipitationValue080","ShortDurationPrecipitationValue100","ShortDurationPrecipitationValue120","ShortDurationPrecipitationValue150","ShortDurationPrecipitationValue180","Sunrise","Sunset","TStorms","WindEquipmentChangeDate"
"74486094789","2020-05-10T00:51:00","FM-15","7",,"ESE","1.5","mi","TEMP, PRECIP, SNOW",,,"PSY, SRG, SNOWBOARD",,,"FAA CWO",,,,,,,,,,,,,,,,,,,,,,,,,,,"30.11","24","41","0.00",,"-0.03","0","51","30.10","CLR:00","30.09","10.00","35","270","28","18",,,,,,,,,,,,,,,,,,,,,,,,,,,,,,,,,,,,,"MET12305/10/20 00:51:02 METAR KJFK 100551Z 27016G24KT 10SM CLR 05/M04 A3011 RMK AO2 SLP194 60000 T00501044 10061 20050 50009 (DM)","FM-15","7",,,,,,,,,,,,,,,,,,,,,,,,,,,,"2009-05-01"
"74486094789","2020-05-10T01:00:00","FM-12","4",,"ESE","1.5","mi","TEMP, PRECIP, SNOW",,,"PSY, SRG, SNOWBOARD",,,"FAA CWO",,,,,,,,,,,,,,,,,,,,,,,,,,,,"24","41",,,"0.03","9","51","30.10",,"30.08","9.94","35","270",,"18",,,,,,,,,,,,,,,,,,,,,,,,,,,,,,,,,,,,,"SYN09274486 12966 02716 10050 21044 30185 40194 50009 69901 90551 333 10061 20011 91024 555 91006=","FM-12","4",,,,,,,,,,,,,,,,,,,,,,,,,,,,"2009-05-01"
"74486094789","2020-05-10T01:51:00","FM-15","7",,"ESE","1.5","mi","TEMP, PRECIP, SNOW",,,"PSY, SRG, SNOWBOARD",,,"FAA CWO",,,,,,,,,,,,,,,,,,,,,,,,,,,"30.09","24","41","0.00",,,,"51","30.09","FEW:02 70","30.06","10.00","35","260",,"18",,,,,,,,,,,,,,,,,,,,,,,,,,,,,,,,,,,,,"MET09905/10/20 01:51:02 METAR KJFK 100651Z 26016KT 10SM FEW070 05/M04 A3009 RMK AO2 SLP189 T00501044 (DM)","FM-15","7",,,,,,,,,,,,,,,,,,,,,,,,,,,,"2009-05-01"
"74486094789","2020-05-10T02:51:00","FM-15","7",,"ESE","1.5","mi","TEMP, PRECIP, SNOW",,,"PSY, SRG, SNOWBOARD",,,"FAA CWO",,,,,,,,,,,,,,,,,,,,,,,,,,,"30.08","25","40","0.00",,,,"55","30.08","FEW:02 70","30.06","10.00","34","260",,"20",,,,,,,,,,,,,,,,,,,,,,,,,,,,,,,,,,,,,"MET09905/10/20 02:51:02 METAR KJFK 100751Z 26017KT 10SM FEW070 04/M04 A3008 RMK AO2 SLP186 T00441039 (DM)","FM-15","7",,,,,,,,,,,,,,,,,,,,,,,,,,,,"2009-05-01"
"74486094789","2020-05-10T03:51:00","FM-15","7",,"ESE","1.5","mi","TEMP, PRECIP, SNOW",,,"PSY, SRG, SNOWBOARD",,,"FAA CWO",,,,,,,,,,,,,,,,,,,,,,,,,,,"30.07","24","40","0.00",,"+0.03","6","53","30.07","CLR:00","30.04","10.00","34","260",,"21",,,,,,,,,,,,,,,,,,,,,,,,,,,,,,,,,,,,,"MET10205/10/20 03:51:02 METAR KJFK 100851Z 26018KT 10SM CLR 04/M04 A3007 RMK AO2 SLP183 T00441044 56011 (DM)","FM-15","7",,,,,,,,,,,,,,,,,,,,,,,,,,,,"2009-05-01"
"74486094789","2020-05-10T04:00:00","FM-12","4",,"ESE","1.5","mi","TEMP, PRECIP, SNOW",,,"PSY, SRG, SNOWBOARD",,,"FAA CWO",,,,,,,,,,,,,,,,,,,,,,,,,,,,"24","40",,,"+0.03","6","53","30.07",,"30.04","9.94","34","260",,"21",,,,,,,,,,,,,,,,,,,,,,,,,,,,,,,,,,,,,"SYN06474486 32966 02618 10044 21044 30172 40183 56011 90851 555 91009=","FM-12","4",,,,,,,,,,,,,,,,,,,,,,,,,,,,"2009-05-01"
"74486094789","2020-05-10T04:51:00","FM-15","7",,"ESE","1.5","mi","TEMP, PRECIP, SNOW",,,"PSY, SRG, SNOWBOARD",,,"FAA CWO",,,,,,,,,,,,,,,,,,,,,,,,,,,"30.09","26","40","0.00",,,,"58","30.09","CLR:00","30.06","10.00","35","250",,"18",,,,,,,,,,,,,,,,,,,,,,,,,,,,,,,,,,,,,"MET09605/10/20 04:51:02 METAR KJFK 100951Z 25016KT 10SM CLR 04/M03 A3009 RMK AO2 SLP190 T00441033 (DM)","FM-15","7",,,,,,,,,,,,,,,,,,,,,,,,,,,,"2009-05-01"
"74486094789","2020-05-10T05:51:00","FM-15","7",,"ESE","1.5","mi","TEMP, PRECIP, SNOW",,,"PSY, SRG, SNOWBOARD",,,"FAA CWO",,,,,,,,,,,,,,,,,,,,,,,,,,,"30.12","28","41","0.00",,,,"60","30.11","FEW:02 250","30.09","10.00","36","250","31","24",,,,,,,,,,,,,,,,,,,,,,,,,,,,,,,,,,,,,"MET12005/10/20 05:51:02 METAR KJFK 101051Z 25021G27KT 10SM FEW250 05/M02 A3012 RMK AO2 PK WND 24027/1043 SLP198 T00501022 (ML)","FM-15","7",,,,,,,,,,,,,,,,,,,,,,,,,,,,"2009-05-01"
"74486094789","2020-05-10T06:51:00","FM-15","7",,"ESE","1.5","mi","TEMP, PRECIP, SNOW",,,"PSY, SRG, SNOWBOARD",,,"FAA CWO",,,,,,,,,,,,,,,,,,,,,,,,,,,"30.13","28","44","0.00",,"-0.06","1","53","30.13","FEW:02 250","30.11","10.00","38","250","29","21",,,,,,,,,,,,,,,,,,,,,,,,,,,,,,,,,,,,,"MET12005/10/20 06:51:02 METAR KJFK 101151Z 25018G25KT 10SM FEW250 07/M02 A3013 RMK AO2 SLP202 T00671022 10067 20039 51019 (ML)","FM-15","7",,,,,,,,,,,,,,,,,,,,,,,,,,,,"2009-05-01"
"74486094789","2020-05-10T07:00:00","FM-12","4",,"ESE","1.5","mi","TEMP, PRECIP, SNOW",,,"PSY, SRG, SNOWBOARD",,,"FAA CWO",,,,,,,,,,,,,,,,,,,,,,,,,,,,"28","44",,,"-0.06","1","53","30.13",,"30.10","9.94","38","250",,"21",,,,,,,,,,,,,,,,,,,,,,,,,,,,,,,,,,,,,"SYN08674486 32966 22518 10067 21022 30192 40202 51019 91151 333 10094 20039 91025 555 91012=","FM-12","4",,,,,,,,,,,,,,,,,,,,,,,,,,,,"2009-05-01"
"74486094789","2020-05-10T07:51:00","FM-15","7",,"ESE","1.5","mi","TEMP, PRECIP, SNOW",,,"PSY, SRG, SNOWBOARD",,,"FAA CWO",,,,,,,,,,,,,,,,,,,,,,,,,,,"30.14","27","48","0.00",,,,"44","30.13","SCT:04 250","30.11","10.00","39","270","28","17",,,,,,,,,,,,,,,,,,,,,,,,,,,,,,,,,,,,,"MET10205/10/20 07:51:02 METAR KJFK 101251Z 27015G24KT 10SM SCT250 09/M03 A3014 RMK AO2 SLP204 T00891028 (ML)","FM-15","7",,,,,,,,,,,,,,,,,,,,,,,,,,,,"2009-05-01"
"74486094789","2020-05-10T08:51:00","FM-15","7",,"ESE","1.5","mi","TEMP, PRECIP, SNOW",,,"PSY, SRG, SNOWBOARD",,,"FAA CWO",,,,,,,,,,,,,,,,,,,,,,,,,,,"30.13","29","51","0.00",,,,"43","30.13","BKN:07 250","30.11","10.00","42","240",,"25",,,,,,,,,,,,,,,,,,,,,,,,,,,,,,,,,,,,,"MET11705/10/20 08:51:02 METAR KJFK 101351Z 24022KT 10SM BKN250 11/M02 A3013 RMK AO2 PK WND 24026/1351 SLP202 T01061017 (ML)","FM-15","7",,,,,,,,,,,,,,,,,,,,,,,,,,,,"2009-05-01"
"74486094789","2020-05-10T09:51:00","FM-15","7",,"ESE","1.5","mi","TEMP, PRECIP, SNOW",,,"PSY, SRG, SNOWBOARD",,,"FAA CWO",,,,,,,,,,,,,,,,,,,,,,,,,,,"30.11","29","54","0.00",,"+0.02","8","38","30.11","BKN:07 250","30.09","10.00","43","250",,"23",,,,,,,,,,,,,,,,,,,,,,,,,,,,,,,,,,,,,"MET12305/10/20 09:51:02 METAR KJFK 101451Z 25020KT 10SM BKN250 12/M02 A3011 RMK AO2 PK WND 25028/1407 SLP196 T01221017 58006 (ML)","FM-15","7",,,,,,,,,,,,,,,,,,,,,,,,,,,,"2009-05-01"
"74486094789","2020-05-10T10:00:00","FM-12","4",,"ESE","1.5","mi","TEMP, PRECIP, SNOW",,,"PSY, SRG, SNOWBOARD",,,"FAA CWO",,,,,,,,,,,,,,,,,,,,,,,,,,,,"29","54",,,"+0.02","8","38","30.11",,"30.08","9.94","43","250",,"23",,,,,,,,,,,,,,,,,,,,,,,,,,,,,,,,,,,,,"SYN06474486 32966 62520 10122 21017 30185 40196 58006 91451 555 91015=","FM-12","4",,,,,,,,,,,,,,,,,,,,,,,,,,,,"2009-05-01"
"74486094789","2020-05-10T10:51:00","FM-15","7",,"ESE","1.5","mi","TEMP, PRECIP, SNOW",,,"PSY, SRG, SNOWBOARD",,,"FAA CWO",,,,,,,,,,,,,,,,,,,,,,,,,,,"30.09","32","56","0.00",,,,"40","30.09","FEW:02 50 BKN:07 250","30.06","10.00","45","230",,"21",,,,,,,,,,,,,,,,,,,,,,,,,,,,,,,,,,,,,"MET10505/10/20 10:51:02 METAR KJFK 101551Z 23018KT 10SM FEW050 BKN250 13/00 A3009 RMK AO2 SLP188 T01330000 (ML)","FM-15","7",,,,,,,,,,,,,,,,,,,,,,,,,,,,"2009-05-01"
"74486094789","2020-05-10T11:51:00","FM-15","7",,"ESE","1.5","mi","TEMP, PRECIP, SNOW",,,"PSY, SRG, SNOWBOARD",,,"FAA CWO",,,,,,,,,,,,,,,,,,,,,,,,,,,"30.07","28","59","0.00",,,,"31","30.06","FEW:02 50 SCT:04 250","30.04","10.00","45","270","31","20",,,,,,,,,,,,,,,,,,,,,,,,,,,,,,,,,,,,,"MET12705/10/20 11:51:02 METAR KJFK 101651Z 27017G27KT 10SM FEW050 SCT250 15/M02 A3007 RMK AO2 PK WND 27031/1620 SLP181 T01501022 (ML)","FM-15","7",,,,,,,,,,,,,,,,,,,,,,,,,,,,"2009-05-01"
"74486094789","2020-05-10T12:51:00","FM-15","7",,"ESE","1.5","mi","TEMP, PRECIP, SNOW",,,"PSY, SRG, SNOWBOARD",,,"FAA CWO",,,,,,,,,,,,,,,,,,,,,,,,,,,"30.05","29","61","0.00",,"+0.06","6","30","30.05","FEW:02 65 SCT:04 250","30.03","10.00","47","250","31","25",,,,,,,,,,,,,,,,,,,,,,,,,,,,,,,,,,,,,"MET14505/10/20 12:51:02 METAR KJFK 101751Z 25022G27KT 10SM FEW065 SCT250 16/M02 A3005 RMK AO2 PK WND 25027/1750 SLP176 T01611017 10167 20067 56020 (ML)","FM-15","7",,,,,,,,,,,,,,,,,,,,,,,,,,,,"2009-05-01"
"74486094789","2020-05-10T13:00:00","FM-12","4",,"ESE","1.5","mi","TEMP, PRECIP, SNOW",,,"PSY, SRG, SNOWBOARD",,,"FAA CWO",,,,,,,,,,,,,,,,,,,,,,,,,,,,"29","61",,,"+0.06","6","30","30.05","57","30.02","9.94","47","250",,"25",,,,,,,,,,,,,,,,,,,,,,,,,,,,,,,,,,,,,"SYN08674486 32766 42522 10161 21017 30165 40176 56020 91751 333 10167 20050 91027 555 91018=","FM-12","4",,,,,,,,,,,,,,,,,,,,,,,,,,,,"2009-05-01"
"74486094789","2020-05-10T13:51:00","FM-15","7",,"ESE","1.5","mi","TEMP, PRECIP, SNOW",,,"PSY, SRG, SNOWBOARD",,,"FAA CWO",,,,,,,,,,,,,,,,,,,,,,,,,,,"30.03","31","62","0.00",,,,"31","30.02","FEW:02 65 FEW:02 250","30.01","10.00","48","240","25","21",,,,,,,,,,,,,,,,,,,,,,,,,,,,,,,,,,,,,"MET12705/10/20 13:51:02 METAR KJFK 101851Z 24018G22KT 10SM FEW065 FEW250 17/M01 A3003 RMK AO2 PK WND 23028/1816 SLP167 T01671006 (RG)","FM-15","7",,,,,,,,,,,,,,,,,,,,,,,,,,,,"2009-05-01"
"74486094789","2020-05-10T14:51:00","FM-15","7",,"ESE","1.5","mi","TEMP, PRECIP, SNOW",,,"PSY, SRG, SNOWBOARD",,,"FAA CWO",,,,,,,,,,,,,,,,,,,,,,,,,,,"30.00","32","62","0.00",,,,"32","30.00","FEW:02 60 FEW:02 250","29.98","10.00","48","230",,"23",,,,,,,,,,,,,,,,,,,,,,,,,,,,,,,,,,,,,"MET12305/10/20 14:51:02 METAR KJFK 101951Z 23020KT 10SM FEW060 FEW250 17/00 A3000 RMK AO2 PK WND 23029/1920 SLP159 T01670000 (RG)","FM-15","7",,,,,,,,,,,,,,,,,,,,,,,,,,,,"2009-05-01"
"74486094789","2020-05-10T15:51:00","FM-15","7",,"ESE","1.5","mi","TEMP, PRECIP, SNOW",,,"PSY, SRG, SNOWBOARD",,,"FAA CWO",,,,,,,,,,,,,,,,,,,,,,,,,,,"29.99","34","62","0.00",,"+0.06","6","35","29.99","FEW:02 60 FEW:02 150 SCT:04 250","29.96","10.00","49","230",,"22",,,,,,,,,,,,,,,,,,,,,,,,,,,,,,,,,,,,,"MET13605/10/20 15:51:02 METAR KJFK 102051Z 23019KT 10SM FEW060 FEW150 SCT250 17/01 A2999 RMK AO2 PK WND 23027/2009 SLP155 T01670011 56022 (RG)","FM-15","7",,,,,,,,,,,,,,,,,,,,,,,,,,,,"2009-05-01"
"74486094789","2020-05-10T16:00:00","FM-12","4",,"ESE","1.5","mi","TEMP, PRECIP, SNOW",,,"PSY, SRG, SNOWBOARD",,,"FAA CWO",,,,,,,,,,,,,,,,,,,,,,,,,,,,"34","62",,,"+0.06","6","35","29.99","57","29.96","9.94","49","230",,"22",,,,,,,,,,,,,,,,,,,,,,,,,,,,,,,,,,,,,"SYN06474486 32766 42319 10167 20011 30144 40155 56022 92051 555 91021=","FM-12","4",,,,,,,,,,,,,,,,,,,,,,,,,,,,"2009-05-01"
"74486094789","2020-05-10T16:51:00","FM-15","7",,"ESE","1.5","mi","TEMP, PRECIP, SNOW",,,"PSY, SRG, SNOWBOARD",,,"FAA CWO",,,,,,,,,,,,,,,,,,,,,,,,,,,"29.98","33","62","0.00",,,,"34","29.98","FEW:02 150 FEW:02 250","29.96","10.00","48","230",,"17",,,,,,,,,,,,,,,,,,,,,,,,,,,,,,,,,,,,,"MET10505/10/20 16:51:02 METAR KJFK 102151Z 23015KT 10SM FEW150 FEW250 17/01 A2998 RMK AO2 SLP153 T01670006 (RG)","FM-15","7",,,,,,,,,,,,,,,,,,,,,,,,,,,,"2009-05-01"
"74486094789","2020-05-10T17:51:00","FM-15","7",,"ESE","1.5","mi","TEMP, PRECIP, SNOW",,,"PSY, SRG, SNOWBOARD",,,"FAA CWO",,,,,,,,,,,,,,,,,,,,,,,,,,,"29.97","35","61","0.00",,,,"38","29.97","FEW:02 200 SCT:04 250","29.95","10.00","49","240",,"16",,,,,,,,,,,,,,,,,,,,,,,,,,,,,,,,,,,,,"MET10505/10/20 17:51:02 METAR KJFK 102251Z 24014KT 10SM FEW200 SCT250 16/02 A2997 RMK AO2 SLP150 T01610017 (RG)","FM-15","7",,,,,,,,,,,,,,,,,,,,,,,,,,,,"2009-05-01"
"74486094789","2020-05-10T18:51:00","FM-15","7",,"ESE","1.5","mi","TEMP, PRECIP, SNOW",,,"PSY, SRG, SNOWBOARD",,,"FAA CWO",,,,,,,,,,,,,,,,,,,,,,,,,,,"29.98","38","56","0.00",,"+0.01","5","51","29.98","SCT:04 180 SCT:04 250","29.96","10.00","47","220",,"11",,,,,,,,,,,,,,,,,,,,,,,,,,,,,,,,,,,,,"MET12305/10/20 18:51:02 METAR KJFK 102351Z 22010KT 10SM SCT180 SCT250 13/03 A2998 RMK AO2 SLP153 T01330033 10178 20133 55002 (RG)","FM-15","7",,,,,,,,,,,,,,,,,,,,,,,,,,,,"2009-05-01"
"74486094789","2020-05-10T19:00:00","FM-12","4",,"ESE","1.5","mi","TEMP, PRECIP, SNOW",,,"PSY, SRG, SNOWBOARD",,,"FAA CWO",,,,,,,,,,,,,,,,,,,,,,,,,,,,"38","56",,,"+0.01","5","51","29.98",,"29.95","9.94","47","220",,"11",,,,,,,,,,,,,,,,,,,,,,,,,,,,,,,,,,,,,"SYN08074486 32966 42210 10133 20033 30141 40153 55002 92351 333 10178 20039 555 91100=","FM-12","4",,,,,,,,,,,,,,,,,,,,,,,,,,,,"2009-05-01"
"74486094789","2020-05-10T19:51:00","FM-15","7",,"ESE","1.5","mi","TEMP, PRECIP, SNOW",,,"PSY, SRG, SNOWBOARD",,,"FAA CWO",,,,,,,,,,,,,,,,,,,,,,,,,,,"29.99","38","55","0.00",,,,"53","29.98","SCT:04 180 SCT:04 250","29.96","10.00","47","220",,"15",,,,,,,,,,,,,,,,,,,,,,,,,,,,,,,,,,,,,"MET10005/10/20 19:51:01 METAR KJFK 110051Z 22013KT 10SM SCT180 SCT250 13/03 A2999 RMK AO2 SLP154 T01280033","FM-15","7",,,,,,,,,,,,,,,,,,,,,,,,,,,,"2009-05-01"
"74486094789","2020-05-10T20:51:00","FM-15","7",,"ESE","1.5","mi","TEMP, PRECIP, SNOW",,,"PSY, SRG, SNOWBOARD",,,"FAA CWO",,,,,,,,,,,,,,,,,,,,,,,,,,,"30.00","44","52","0.00",,,,"75","30.00","BKN:07 160 BKN:07 250","29.98","10.00","48","180",,"13",,,,,,,,,,,,,,,,,,,,,,,,,,,,,,,,,,,,,"MET10005/10/20 20:51:01 METAR KJFK 110151Z 18011KT 10SM BKN160 BKN250 11/07 A3000 RMK AO2 SLP159 T01110067","FM-15","7",,,,,,,,,,,,,,,,,,,,,,,,,,,,"2009-05-01"
"74486094789","2020-05-10T21:51:00","FM-15","7",,"ESE","1.5","mi","TEMP, PRECIP, SNOW",,,"PSY, SRG, SNOWBOARD",,,"FAA CWO",,,,,,,,,,,,,,,,,,,,,,,,,,,"30.00","46","51","0.00",,"-0.01","0","83","30.00","SCT:04 160 BKN:07 250","29.98","10.00","49","200",,"14",,,,,,,,,,,,,,,,,,,,,,,,,,,,,,,,,,,,,"MET10605/10/20 21:51:01 METAR KJFK 110251Z 20012KT 10SM SCT160 BKN250 11/08 A3000 RMK AO2 SLP158 T01060078 50005","FM-15","7",,,,,,,,,,,,,,,,,,,,,,,,,,,,"2009-05-01"
"74486094789","2020-05-10T22:00:00","FM-12","4",,"ESE","1.5","mi","TEMP, PRECIP, SNOW",,,"PSY, SRG, SNOWBOARD",,,"FAA CWO",,,,,,,,,,,,,,,,,,,,,,,,,,,,"46","51",,,"0.01","9","83","30.00",,"29.97","9.94","49","200",,"14",,,,,,,,,,,,,,,,,,,,,,,,,,,,,,,,,,,,,"SYN06474486 32966 62012 10106 20078 30148 40158 50005 90251 555 91103=","FM-12","4",,,,,,,,,,,,,,,,,,,,,,,,,,,,"2009-05-01"
"74486094789","2020-05-10T22:51:00","FM-15","7",,"ESE","1.5","mi","TEMP, PRECIP, SNOW",,,"PSY, SRG, SNOWBOARD",,,"FAA CWO",,,,,,,,,,,,,,,,,,,,,,,,,,,"29.99","43","51","0.00",,,,"74","29.99","SCT:04 160 BKN:07 250","29.96","10.00","47","210",,"13",,,,,,,,,,,,,,,,,,,,,,,,,,,,,,,,,,,,,"MET10005/10/20 22:51:02 METAR KJFK 110351Z 21011KT 10SM SCT160 BKN250 11/06 A2999 RMK AO2 SLP155 T01060061","FM-15","7",,,,,,,,,,,,,,,,,,,,,,,,,,,,"2009-05-01"
"74486094789","2020-05-10T23:51:00","FM-15","7",,"ESE","1.5","mi","TEMP, PRECIP, SNOW",,,"PSY, SRG, SNOWBOARD",,,"FAA CWO",,,,,,,,,,,,,,,,,,,,,,,,,,,"29.99","42","51","0.00",,,,"71","29.98","FEW:02 160 SCT:04 250","29.96","10.00","47","220",,"13",,,,,,,,,,,,,,,,,,,,,,,,,,,,,,,,,,,,,"MET11005/10/20 23:51:02 METAR KJFK 110451Z 22011KT 10SM FEW160 SCT250 11/06 A2999 RMK AO2 SLP154 T01060056 401780039","FM-15","7",,,,,,,,,,,,,,,,,,,,,,,,,,,,"2009-05-01"
"74486094789","2020-05-10T23:59:00","SOD  ","6",,"ESE","1.5","mi","TEMP, PRECIP, SNOW",,,"PSY, SRG, SNOWBOARD",,,"FAA CWO",,,,"32","52","49","30.05","30.04","43","18.7","0","-6.8","13","64","39","270","35","0.00","0","0.0","230","28",,,,,,,,,,,,,,,,,,,,,,,,,,,,,,,,,,,,,,,,,,,,,,,,,,,,,,,,,"SOD73924 HR PRECIPITATION (IN): 0.00 SNOW DEPTH (IN):0     24 HR SNOWFALL (IN):0.0  24 HR MAX TEMP (F): 6424 HR MIN TEMP (F): 39AVERAGE STATION PRESSURE:30.040 MINIMUM SEA LEVEL PRESSURE:29.97 TIME OF OCCURRENCE:1805 PEAK WIND SPEED (MPH): 35 PEAK WIND DIR (DEG):270 PEAK WIND TIME (LST):      FASTEST 2MIN SPEED (MPH): 28FASTEST 2MIN DIR (DEG):230 FASTEST 2MIN TIME (LST):     AVERAGE WIND SPEED (MPH):18.7 24 HR AVG TEMP (F): 52DEPART FROM NORMAL: -7  HEATING DEGREE DAYS: 13 COOLING DEGREE DAYS:  0 LATEST DAY MAX TEMP (0700-1900 LST):64  LATEST NIGHT MIN TEMP(1900-0800 LST):39 HOURLY INCREMENTAL PRECIPITATION VALUES (IN):.00 0.00 0.00 0.00 0.00 0.00 0.00 0.00 0.00 0.00 0.00 0.00 0.00 0.00 0.00 0.00 0.00 0.00 0.00 0.00 0.00 0.00 0.00 0.00","SOD  ","6",,,,,,,,,,,,,,,,,,,,,,,,,"0442","1901",,"2009-05-01"
"74486094789","2020-05-11T00:51:00","FM-15","7",,"ESE","1.5","mi","TEMP, PRECIP, SNOW",,,"PSY, SRG, SNOWBOARD",,,"FAA CWO",,,,,,,,,,,,,,,,,,,,,,,,,,,"29.96","43","50","0.00",,"+0.04","8","77","29.96","BKN:07 140 BKN:07 250","29.93","10.00","47","220",,"11",,,,,,,,,,,,,,,,,,,,,,,,,,,,,,,,,,,,,"MET12305/11/20 00:51:02 METAR KJFK 110551Z 22010KT 10SM BKN140 BKN250 10/06 A2996 RMK AO2 SLP146 T01000061 10133 20100 58012 (JC)","FM-15","7",,,,,,,,,,,,,,,,,,,,,,,,,,,,"2009-05-01"
"74486094789","2020-05-11T01:00:00","FM-12","4",,"ESE","1.5","mi","TEMP, PRECIP, SNOW",,,"PSY, SRG, SNOWBOARD",,,"FAA CWO",,,,,,,,,,,,,,,,,,,,,,,,,,,,"43","50",,,"+0.04","8","77","29.96",,"29.93","9.94","47","220",,"11",,,,,,,,,,,,,,,,,,,,,,,,,,,,,,,,,,,,,"SYN08074486 32966 62210 10100 20061 30134 40146 58012 90551 333 10133 20039 555 91106=","FM-12","4",,,,,,,,,,,,,,,,,,,,,,,,,,,,"2009-05-01"
"74486094789","2020-05-11T01:51:00","FM-15","7",,"ESE","1.5","mi","TEMP, PRECIP, SNOW",,,"PSY, SRG, SNOWBOARD",,,"FAA CWO",,,,,,,,,,,,,,,,,,,,,,,,,,,"29.93","42","48","0.00",,,,"80","29.93","SCT:04 120 SCT:04 250","29.91","10.00","45","200",,"9",,,,,,,,,,,,,,,,,,,,,,,,,,,,,,,,,,,,,"MET10505/11/20 01:51:02 METAR KJFK 110651Z 20008KT 10SM SCT120 SCT250 09/06 A2993 RMK AO2 SLP136 T00890056 (JC)","FM-15","7",,,,,,,,,,,,,,,,,,,,,,,,,,,,"2009-05-01"
"74486094789","2020-05-11T02:51:00","FM-15","7",,"ESE","1.5","mi","TEMP, PRECIP, SNOW",,,"PSY, SRG, SNOWBOARD",,,"FAA CWO",,,,,,,,,,,,,,,,,,,,,,,,,,,"29.91","43","46","0.00",,,,"89","29.91","FEW:02 120 FEW:02 250","29.88","10.00","45","190",,"8",,,,,,,,,,,,,,,,,,,,,,,,,,,,,,,,,,,,,"MET10505/11/20 02:51:02 METAR KJFK 110751Z 19007KT 10SM FEW120 FEW250 08/06 A2991 RMK AO2 SLP129 T00780061 (JC)","FM-15","7",,,,,,,,,,,,,,,,,,,,,,,,,,,,"2009-05-01"
"74486094789","2020-05-11T03:51:00","FM-15","7",,"ESE","1.5","mi","TEMP, PRECIP, SNOW",,,"PSY, SRG, SNOWBOARD",,,"FAA CWO",,,,,,,,,,,,,,,,,,,,,,,,,,,"29.89","43","45","0.00",,"+0.07","6","93","29.89","FEW:02 130 FEW:02 250","29.87","10.00","44","180",,"5",,,,,,,,,,,,,,,,,,,,,,,,,,,,,,,,,,,,,"MET11105/11/20 03:51:02 METAR KJFK 110851Z 18004KT 10SM FEW130 FEW250 07/06 A2989 RMK AO2 SLP122 T00720061 56024 (JC)","FM-15","7",,,,,,,,,,,,,,,,,,,,,,,,,,,,"2009-05-01"
"74486094789","2020-05-11T04:00:00","FM-12","4",,"ESE","1.5","mi","TEMP, PRECIP, SNOW",,,"PSY, SRG, SNOWBOARD",,,"FAA CWO",,,,,,,,,,,,,,,,,,,,,,,,,,,,"43","45",,,"+0.07","6","93","29.89",,"29.86","9.94","44","180",,"5",,,,,,,,,,,,,,,,,,,,,,,,,,,,,,,,,,,,,"SYN06474486 32966 21804 10072 20061 30111 40122 56024 90851 555 91109=","FM-12","4",,,,,,,,,,,,,,,,,,,,,,,,,,,,"2009-05-01"
"74486094789","2020-05-11T04:51:00","FM-15","7",,"ESE","1.5","mi","TEMP, PRECIP, SNOW",,,"PSY, SRG, SNOWBOARD",,,"FAA CWO",,,,,,,,,,,,,,,,,,,,,,,,,,,"29.89","47","48","0.00",,,,"96","29.88","BKN:07 100 BKN:07 250","29.87","10.00","48","170",,"3",,,,,,,,,,,,,,,,,,,,,,,,,,,,,,,,,,,,,"MET10505/11/20 04:51:02 METAR KJFK 110951Z 17003KT 10SM BKN100 BKN250 09/08 A2989 RMK AO2 SLP120 T00890083 (JC)","FM-15","7",,,,,,,,,,,,,,,,,,,,,,,,,,,,"2009-05-01"
"74486094789","2020-05-11T05:51:00","FM-15","7",,"ESE","1.5","mi","TEMP, PRECIP, SNOW",,,"PSY, SRG, SNOWBOARD",,,"FAA CWO",,,,,,,,,,,,,,,,,,,,,,,,,,,"29.88","47","49","T",,,,"93","29.88","FEW:02 17 FEW:02 33 BKN:07 100","29.85","10.00","48","160",,"6",,,,,,,,,,,,,,,,,,,,,,,,,,,,,,,,,,,,,"MET13605/11/20 05:51:02 METAR KJFK 111051Z 16005KT 10SM FEW017 FEW033 BKN100 09/08 A2988 RMK AO2 RAB18E30 SLP117 VCSH E-S P0000 T00940083 (JC)","FM-15","7",,,,,,,,,,,,,,,,,,,,,,,,,,,,"2009-05-01"
"74486094789","2020-05-11T06:51:00","FM-15","7",,"ESE","1.5","mi","TEMP, PRECIP, SNOW",,,"PSY, SRG, SNOWBOARD",,,"FAA CWO",,,,,,,,,,,,,,,,,,,,,,,,,,,"29.90","49","52","0.00",,"-0.00","3","89","29.89","FEW:02 65 BKN:07 120 BKN:07 250","29.88","10.00","50","180",,"9",,,,,,,,,,,,,,,,,,,,,,,,,,,,,,,,,,,,,"MET13605/11/20 06:51:02 METAR KJFK 111151Z 18008KT 10SM FEW065 BKN120 BKN250 11/09 A2990 RMK AO2 SLP123 60000 T01110094 10111 20072 53001 (BH)","FM-15","7",,,,,,,,,,,,,,,,,,,,,,,,,,,,"2009-05-01"
"74486094789","2020-05-11T07:00:00","FM-12","4",,"ESE","1.5","mi","TEMP, PRECIP, SNOW",,,"PSY, SRG, SNOWBOARD",,,"FAA CWO",,,,,,,,,,,,,,,,,,,,,,,,,,,,"49","52",,,"-0.00","3","89","29.89","57","29.87","9.94","50","180",,"9",,,,,,,,,,,,,,,,,,,,,,,,,,,,,,,,,,,,,"SYN08674486 12766 61808 10111 20094 30114 40123 53001 69901 91151 333 10178 20072 555 91112=","FM-12","4",,,,,,,,,,,,,,,,,,,,,,,,,,,,"2009-05-01"
"74486094789","2020-05-11T07:51:00","FM-15","7",,"ESE","1.5","mi","TEMP, PRECIP, SNOW",,,"PSY, SRG, SNOWBOARD",,,"FAA CWO",,,,,,,,,,,,,,,,,,,,,,,,,,,"29.88","47","54","0.00",,,,"77","29.88","FEW:02 47 SCT:04 75 BKN:07 100","29.85","10.00","50","240",,"10",,,,,,,,,,,,,,,,,,,,,,,,,,,,,,,,,,,,,"MET12705/11/20 07:51:02 METAR KJFK 111251Z 24009KT 10SM FEW047 SCT075 BKN100 12/08 A2988 RMK AO2 PRESRR SLP119 VCSH SW T01220083 (BH)","FM-15","7",,,,,,,,,,,,,,,,,,,,,,,,,,,,"2009-05-01"
"74486094789","2020-05-11T08:51:00","FM-15","7",,"ESE","1.5","mi","TEMP, PRECIP, SNOW",,,"PSY, SRG, SNOWBOARD",,,"FAA CWO",,,,,,,,,,,,,,,,,,,,,,,,,,,"29.88","49","54","T","-RA:02 |RA |RA",,,"83","29.88","BKN:07 60 BKN:07 110 BKN:07 250","29.85","10.00","51","290",,"14",,,,,,,,,,,,,,,,,,,,,,,,,,,,,,,,,,,,,"MET12805/11/20 08:51:02 METAR KJFK 111351Z 29012KT 10SM -RA BKN060 BKN110 BKN250 12/09 A2988 RMK AO2 RAB24 SLP117 P0000 T01220094 (BH)","FM-15","7",,,,,,,,,,,,,,,,,,,,,,,,,,,,"2009-05-01"
"74486094789","2020-05-11T09:51:00","FM-15","7",,"ESE","1.5","mi","TEMP, PRECIP, SNOW",,,"PSY, SRG, SNOWBOARD",,,"FAA CWO",,,,,,,,,,,,,,,,,,,,,,,,,,,"29.87","45","56","T",,"+0.03","6","67","29.86","FEW:02 45 SCT:04 80 BKN:07 120","29.85","10.00","50","260",,"13",,,,,,,,,,,,,,,,,,,,,,,,,,,,,,,,,,,,,"MET13605/11/20 09:51:02 METAR KJFK 111451Z 26011KT 10SM FEW045 SCT080 BKN120 13/07 A2987 RMK AO2 RAE00 SLP113 P0000 60000 T01330072 56009 (BH)","FM-15","7",,,,,,,,,,,,,,,,,,,,,,,,,,,,"2009-05-01"
"74486094789","2020-05-11T10:00:00","FM-12","4",,"ESE","1.5","mi","TEMP, PRECIP, SNOW",,,"PSY, SRG, SNOWBOARD",,,"FAA CWO",,,,,,,,,,,,,,,,,,,,,,,,,,,,"45","56",,,"+0.03","6","67","29.86","41","29.84","9.94","50","260",,"13",,,,,,,,,,,,,,,,,,,,,,,,,,,,,,,,,,,,,"SYN07074486 12666 82611 10133 20072 30104 40113 56009 69907 91451 555 91115=","FM-12","4",,,,,,,,,,,,,,,,,,,,,,,,,,,,"2009-05-01"
"74486094789","2020-05-11T10:51:00","FM-15","7",,"ESE","1.5","mi","TEMP, PRECIP, SNOW",,,"PSY, SRG, SNOWBOARD",,,"FAA CWO",,,,,,,,,,,,,,,,,,,,,,,,,,,"29.85","44","56","0.00",,,,"65","29.85","FEW:02 45 BKN:07 75 BKN:07 260","29.83","10.00","50","250",,"7",,,,,,,,,,,,,,,,,,,,,,,,,,,,,,,,,,,,,"MET11205/11/20 10:51:02 METAR KJFK 111551Z 25006KT 10SM FEW045 BKN075 BKN260 13/07 A2985 RMK AO2 SLP107 T01330067 (BH)","FM-15","7",,,,,,,,,,,,,,,,,,,,,,,,,,,,"2009-05-01"
"74486094789","2020-05-11T11:51:00","FM-15","7",,"ESE","1.5","mi","TEMP, PRECIP, SNOW",,,"PSY, SRG, SNOWBOARD",,,"FAA CWO",,,,,,,,,,,,,,,,,,,,,,,,,,,"29.83","46","56","0.00",,,,"70","29.83","FEW:02 45 BKN:07 80 BKN:07 110","29.80","10.00","51","250",,"15",,,,,,,,,,,,,,,,,,,,,,,,,,,,,,,,,,,,,"MET13405/11/20 11:51:02 METAR KJFK 111651Z 25013KT 10SM FEW045 BKN080 BKN110 13/08 A2983 RMK AO2 SLP100 TCU DSNT SW VCSH SW-N T01330078 (BH)","FM-15","7",,,,,,,,,,,,,,,,,,,,,,,,,,,,"2009-05-01"
"74486094789","2020-05-11T12:51:00","FM-15","7",,"ESE","1.5","mi","TEMP, PRECIP, SNOW",,,"PSY, SRG, SNOWBOARD",,,"FAA CWO",,,,,,,,,,,,,,,,,,,,,,,,,,,"29.81","47","53","0.03","-RA:02 |RA |RA","+0.05","6","80","29.81","SCT:04 41 BKN:07 55 BKN:07 75","29.78","8.00","50","210",,"8",,,,,,,,,,,,,,,,,,,,,,,,,,,,,,,,,,,,,"MET15105/11/20 12:51:02 METAR KJFK 111751Z 21007KT 8SM -RA SCT041 BKN055 BKN075 12/08 A2981 RMK AO2 RAB06 SLP095 P0003 60003 T01170083 10144 20106 56018 (BH)","FM-15","7",,,,,,,,,,,,,,,,,,,,,,,,,,,,"2009-05-01"
"74486094789","2020-05-11T13:00:00","FM-12","4",,"ESE","1.5","mi","TEMP, PRECIP, SNOW",,,"PSY, SRG, SNOWBOARD",,,"FAA CWO",,,,,,,,,,,,,,,,,,,,,,,,,,,,"47","53",,"||RA","+0.05","6","80","29.81","41","29.78","7.46","50","210",,"8",,,,,,,,,,,,,,,,,,,,,,,,,,,,,,,,,,,,,"SYN09274486 11662 62107 10117 20083 30084 40095 56018 69981 761// 91751 333 10144 20106 555 91118=","FM-12","4",,,,,,,,,,,,,,,,,,,,,,,,,,,,"2009-05-01"
"74486094789","2020-05-11T13:51:00","FM-15","7",,"ESE","1.5","mi","TEMP, PRECIP, SNOW",,,"PSY, SRG, SNOWBOARD",,,"FAA CWO",,,,,,,,,,,,,,,,,,,,,,,,,,,"29.81","47","52","0.00",,,,"83","29.80","FEW:02 41 SCT:04 60 BKN:07 80","29.78","10.00","49","170",,"14",,,,,,,,,,,,,,,,,,,,,,,,,,,,,,,,,,,,,"MET13305/11/20 13:51:02 METAR KJFK 111851Z 17012KT 10SM FEW041 SCT060 BKN080 11/08 A2981 RMK AO2 RAE1758 SLP093 VCSH E P0000 T01110083 (RR)","FM-15","7",,,,,,,,,,,,,,,,,,,,,,,,,,,,"2009-05-01"
"74486094789","2020-05-11T14:51:00","FM-15","7",,"ESE","1.5","mi","TEMP, PRECIP, SNOW",,,"PSY, SRG, SNOWBOARD",,,"FAA CWO",,,,,,,,,,,,,,,,,,,,,,,,,,,"29.79","46","53","T","-RA:02 |RA |RA",,,"77","29.79","FEW:02 34 SCT:04 75 BKN:07 90","29.77","10.00","49","190",,"17",,,,,,,,,,,,,,,,,,,,,,,,,,,,,,,,,,,,,"MET12805/11/20 14:51:02 METAR KJFK 111951Z 19015KT 10SM -RA FEW034 SCT075 BKN090 12/08 A2979 RMK AO2 RAB47 SLP087 P0000 T01170078 (RR)","FM-15","7",,,,,,,,,,,,,,,,,,,,,,,,,,,,"2009-05-01"
"74486094789","2020-05-11T15:13:00","FM-16","7",,"ESE","1.5","mi","TEMP, PRECIP, SNOW",,,"PSY, SRG, SNOWBOARD",,,"FAA CWO",,,,,,,,,,,,,,,,,,,,,,,,,,,"29.79","43","58","T",,,,"58",,"FEW:02 50 SCT:04 75 BKN:07 90","29.77","10.00","50","280","26","21",,,,,,,,,,,,,,,,,,,,,,,,,,,,,,,,,,,,,"MET13905/11/20 15:13:02 SPECI KJFK 112013Z 28018G23KT 10SM FEW050 SCT075 BKN090 14/06 A2979 RMK AO2 WSHFT 1953 RAE06 VCSH NE P0000 T01440061 (RR)","FM-16","7",,,,,,,,,,,,,,,,,,,,,,,,,,,,"2009-05-01"
"74486094789","2020-05-11T15:51:00","FM-15","7",,"ESE","1.5","mi","TEMP, PRECIP, SNOW",,,"PSY, SRG, SNOWBOARD",,,"FAA CWO",,,,,,,,,,,,,,,,,,,,,,,,,,,"29.79","39","60","T",,"+0.02","5","46","29.79","FEW:02 33 SCT:04 50 SCT:04 95","29.77","10.00","50","270","24","16",,,,,,,,,,,,,,,,,,,,,,,,,,,,,,,,,,,,,"MET16005/11/20 15:51:02 METAR KJFK 112051Z 27014G21KT 10SM FEW033 SCT050 SCT095 16/04 A2979 RMK AO2 WSHFT 1953 RAE06 SLP088 VCSH SW-W P0000 60000 T01560039 55007 (RR)","FM-15","7",,,,,,,,,,,,,,,,,,,,,,,,,,,,"2009-05-01"
"74486094789","2020-05-11T16:00:00","FM-12","4",,"ESE","1.5","mi","TEMP, PRECIP, SNOW",,,"PSY, SRG, SNOWBOARD",,,"FAA CWO",,,,,,,,,,,,,,,,,,,,,,,,,,,,"39","60",,,"+0.02","5","46","29.79","26","29.76","9.94","50","270",,"16",,,,,,,,,,,,,,,,,,,,,,,,,,,,,,,,,,,,,"SYN08074486 12566 42714 10156 20039 30077 40088 55007 69907 92051 333 91021 555 91121=","FM-12","4",,,,,,,,,,,,,,,,,,,,,,,,,,,,"2009-05-01"
"74486094789","2020-05-11T16:51:00","FM-15","7",,"ESE","1.5","mi","TEMP, PRECIP, SNOW",,,"PSY, SRG, SNOWBOARD",,,"FAA CWO",,,,,,,,,,,,,,,,,,,,,,,,,,,"29.82","44","52","T",,,,"75","29.81","SCT:04 50 BKN:07 80 BKN:07 250","29.80","10.00","48","300","24","13",,,,,,,,,,,,,,,,,,,,,,,,,,,,,,,,,,,,,"MET15905/11/20 16:51:02 METAR KJFK 112151Z 30011G21KT 10SM SCT050 BKN080 BKN250 11/07 A2982 RMK AO2 PK WND 26046/2112 RAB16E38 SLP096 VCSH NW-NE P0000 T01110067 (RR)","FM-15","7",,,,,,,,,,,,,,,,,,,,,,,,,,,,"2009-05-01"
"74486094789","2020-05-11T17:51:00","FM-15","7",,"ESE","1.5","mi","TEMP, PRECIP, SNOW",,,"PSY, SRG, SNOWBOARD",,,"FAA CWO",,,,,,,,,,,,,,,,,,,,,,,,,,,"29.82","42","55","0.00",,,,"62","29.82","SCT:04 50 BKN:07 70 BKN:07 90","29.80","10.00","49","270",,"18",,,,,,,,,,,,,,,,,,,,,,,,,,,,,,,,,,,,,"MET12605/11/20 17:51:02 METAR KJFK 112251Z 27016KT 10SM SCT050 BKN070 BKN090 13/06 A2982 RMK AO2 SLP099 VCSH S AND NW T01280056 (RR)","FM-15","7",,,,,,,,,,,,,,,,,,,,,,,,,,,,"2009-05-01"
"74486094789","2020-05-11T18:51:00","FM-15","7",,"ESE","1.5","mi","TEMP, PRECIP, SNOW",,,"PSY, SRG, SNOWBOARD",,,"FAA CWO",,,,,,,,,,,,,,,,,,,,,,,,,,,"29.85","41","52","0.00",,"-0.06","3","66","29.85","SCT:04 47 BKN:07 60 BKN:07 85","29.83","10.00","47","310",,"20",,,,,,,,,,,,,,,,,,,,,,,,,,,,,,,,,,,,,"MET15405/11/20 18:51:02 METAR KJFK 112351Z 31017KT 10SM SCT047 BKN060 BKN085 11/05 A2985 RMK AO2 PK WND 27026/2326 SLP108 60000 T01110050 10161 20106 53020 (RR)","FM-15","7",,,,,,,,,,,,,,,,,,,,,,,,,,,,"2009-05-01"
"74486094789","2020-05-11T19:00:00","FM-12","4",,"ESE","1.5","mi","TEMP, PRECIP, SNOW",,,"PSY, SRG, SNOWBOARD",,,"FAA CWO",,,,,,,,,,,,,,,,,,,,,,,,,,,,"41","52",,,"-0.06","3","66","29.85","41","29.82","9.94","47","310",,"20",,,,,,,,,,,,,,,,,,,,,,,,,,,,,,,,,,,,,"SYN08674486 12666 63117 10111 20050 30097 40108 53020 69901 92351 333 10161 20072 555 91200=","FM-12","4",,,,,,,,,,,,,,,,,,,,,,,,,,,,"2009-05-01"
"74486094789","2020-05-11T19:51:00","FM-15","7",,"ESE","1.5","mi","TEMP, PRECIP, SNOW",,,"PSY, SRG, SNOWBOARD",,,"FAA CWO",,,,,,,,,,,,,,,,,,,,,,,,,,,"29.88","39","52","0.00",,,,"61","29.88","SCT:04 55 BKN:07 80","29.85","10.00","46","290",,"16",,,,,,,,,,,,,,,,,,,,,,,,,,,,,,,,,,,,,"MET10005/11/20 19:51:01 METAR KJFK 120051Z 29014KT 10SM SCT055 BKN080 11/04 A2988 RMK AO2 SLP117 T01110039","FM-15","7",,,,,,,,,,,,,,,,,,,,,,,,,,,,"2009-05-01"
"74486094789","2020-05-11T20:51:00","FM-15","7",,"ESE","1.5","mi","TEMP, PRECIP, SNOW",,,"PSY, SRG, SNOWBOARD",,,"FAA CWO",,,,,,,,,,,,,,,,,,,,,,,,,,,"29.91","37","50","0.00",,,,"61","29.91","FEW:02 39 BKN:07 60","29.88","10.00","44","300","33","23",,,,,,,,,,,,,,,,,,,,,,,,,,,,,,,,,,,,,"MET12105/11/20 20:51:01 METAR KJFK 120151Z 30020G29KT 10SM FEW039 BKN060 10/03 A2991 RMK AO2 PK WND 29029/0135 SLP130 T01000028","FM-15","7",,,,,,,,,,,,,,,,,,,,,,,,,,,,"2009-05-01"
"74486094789","2020-05-11T21:51:00","FM-15","7",,"ESE","1.5","mi","TEMP, PRECIP, SNOW",,,"PSY, SRG, SNOWBOARD",,,"FAA CWO",,,,,,,,,,,,,,,,,,,,,,,,,,,"29.93","36","47","0.00",,"-0.08","1","66","29.93","FEW:02 39 FEW:02 70","29.91","10.00","42","300","25","16",,,,,,,,,,,,,,,,,,,,,,,,,,,,,,,,,,,,,"MET12705/11/20 21:51:01 METAR KJFK 120251Z 30014G22KT 10SM FEW039 FEW070 08/02 A2993 RMK AO2 PK WND 31030/0156 SLP135 T00830022 51027","FM-15","7",,,,,,,,,,,,,,,,,,,,,,,,,,,,"2009-05-01"
"74486094789","2020-05-11T22:00:00","FM-12","4",,"ESE","1.5","mi","TEMP, PRECIP, SNOW",,,"PSY, SRG, SNOWBOARD",,,"FAA CWO",,,,,,,,,,,,,,,,,,,,,,,,,,,,"36","47",,,"-0.08","1","66","29.93","41","29.90","9.94","42","300",,"16",,,,,,,,,,,,,,,,,,,,,,,,,,,,,,,,,,,,,"SYN07474486 32666 23014 10083 20022 30124 40135 51027 90251 333 91022 555 91203=","FM-12","4",,,,,,,,,,,,,,,,,,,,,,,,,,,,"2009-05-01"
"74486094789","2020-05-11T22:51:00","FM-15","7",,"ESE","1.5","mi","TEMP, PRECIP, SNOW",,,"PSY, SRG, SNOWBOARD",,,"FAA CWO",,,,,,,,,,,,,,,,,,,,,,,,,,,"29.95","31","46","0.00",,,,"56","29.94","FEW:02 45","29.93","10.00","40","310","30","23",,,,,,,,,,,,,,,,,,,,,,,,,,,,,,,,,,,,,"MET11505/11/20 22:51:02 METAR KJFK 120351Z 31020G26KT 10SM FEW045 08/M01 A2995 RMK AO2 PK WND 33032/0312 SLP140 T00781006","FM-15","7",,,,,,,,,,,,,,,,,,,,,,,,,,,,"2009-05-01"
"74486094789","2020-05-11T23:51:00","FM-15","7",,"ESE","1.5","mi","TEMP, PRECIP, SNOW",,,"PSY, SRG, SNOWBOARD",,,"FAA CWO",,,,,,,,,,,,,,,,,,,,,,,,,,,"29.96","32","45","0.00",,,,"61","29.96","FEW:02 45","29.93","10.00","40","310",,"17",,,,,,,,,,,,,,,,,,,,,,,,,,,,,,,,,,,,,"MET10305/11/20 23:51:02 METAR KJFK 120451Z 31015KT 10SM FEW045 07/00 A2996 RMK AO2 SLP146 T00720000 401610072","FM-15","7",,,,,,,,,,,,,,,,,,,,,,,,,,,,"2009-05-01"
"74486094789","2020-05-11T23:59:00","SOD  ","6",,"ESE","1.5","mi","TEMP, PRECIP, SNOW",,,"PSY, SRG, SNOWBOARD",,,"FAA CWO",,,,"43","53","74","29.87","29.85","47","13.0","0","-6.1","12","61","45","260","53","0.03","0","0.0","270","36","RA",,,,,,,,,,,,,,,,,,,,,,,,,,,,,,,,,,,,,,,,,,,,,,,,,,,,,,,,"SOD73924 HR PRECIPITATION (IN): 0.03 SNOW DEPTH (IN):0     24 HR SNOWFALL (IN):0.0  24 HR MAX TEMP (F): 6124 HR MIN TEMP (F): 45AVERAGE STATION PRESSURE:29.850 MINIMUM SEA LEVEL PRESSURE:29.78 TIME OF OCCURRENCE:1510 PEAK WIND SPEED (MPH): 52 PEAK WIND DIR (DEG):260 PEAK WIND TIME (LST):      FASTEST 2MIN SPEED (MPH): 36FASTEST 2MIN DIR (DEG):270 FASTEST 2MIN TIME (LST):     AVERAGE WIND SPEED (MPH):13.0 24 HR AVG TEMP (F): 53DEPART FROM NORMAL: -6  HEATING DEGREE DAYS: 12 COOLING DEGREE DAYS:  0 LATEST DAY MAX TEMP (0700-1900 LST):61  LATEST NIGHT MIN TEMP(1900-0800 LST):45 HOURLY INCREMENTAL PRECIPITATION VALUES (IN):.00 0.00 0.00 0.00 0.00 T    0.00 0.00 T    T    0.00 0.00 0.03 0.00 T    T    T    0.00 0.00 0.00 0.00 0.00 0.00 0.00","SOD  ","6",,,,,,,,,,,,,,,,,,,,,,,,,"0441","1902",,"2009-05-01"
"74486094789","2020-05-12T00:51:00","FM-15","7",,"ESE","1.5","mi","TEMP, PRECIP, SNOW",,,"PSY, SRG, SNOWBOARD",,,"FAA CWO",,,,,,,,,,,,,,,,,,,,,,,,,,,"29.96","33","44","0.00",,"-0.03","0","65","29.96","FEW:02 45","29.93","10.00","39","300",,"14",,,,,,,,,,,,,,,,,,,,,,,,,,,,,,,,,,,,,"MET11605/12/20 00:51:02 METAR KJFK 120551Z 30012KT 10SM FEW045 07/01 A2996 RMK AO2 SLP146 T00670006 10111 20067 50011 (JC)","FM-15","7",,,,,,,,,,,,,,,,,,,,,,,,,,,,"2009-05-01"
"74486094789","2020-05-12T01:00:00","FM-12","4",,"ESE","1.5","mi","TEMP, PRECIP, SNOW",,,"PSY, SRG, SNOWBOARD",,,"FAA CWO",,,,,,,,,,,,,,,,,,,,,,,,,,,,"33","44",,,"0.03","9","65","29.96","41","29.93","9.94","39","300",,"14",,,,,,,,,,,,,,,,,,,,,,,,,,,,,,,,,,,,,"SYN08074486 32666 23012 10067 20006 30134 40146 50011 90551 333 10111 20067 555 91206=","FM-12","4",,,,,,,,,,,,,,,,,,,,,,,,,,,,"2009-05-01"
"74486094789","2020-05-12T01:51:00","FM-15","7",,"ESE","1.5","mi","TEMP, PRECIP, SNOW",,,"PSY, SRG, SNOWBOARD",,,"FAA CWO",,,,,,,,,,,,,,,,,,,,,,,,,,,"29.96","34","44","0.00",,,,"68","29.96","FEW:02 45","29.93","10.00","40","290",,"15",,,,,,,,,,,,,,,,,,,,,,,,,,,,,,,,,,,,,"MET09805/12/20 01:51:02 METAR KJFK 120651Z 29013KT 10SM FEW045 07/01 A2996 RMK AO2 SLP146 T00670011 (JC)","FM-15","7",,,,,,,,,,,,,,,,,,,,,,,,,,,,"2009-05-01"
"74486094789","2020-05-12T02:51:00","FM-15","7",,"ESE","1.5","mi","TEMP, PRECIP, SNOW",,,"PSY, SRG, SNOWBOARD",,,"FAA CWO",,,,,,,,,,,,,,,,,,,,,,,,,,,"29.97","34","44","0.00",,,,"68","29.96","SCT:04 37","29.95","10.00","40","300",,"15",,,,,,,,,,,,,,,,,,,,,,,,,,,,,,,,,,,,,"MET09805/12/20 02:51:02 METAR KJFK 120751Z 30013KT 10SM SCT037 07/01 A2997 RMK AO2 SLP147 T00670011 (JC)","FM-15","7",,,,,,,,,,,,,,,,,,,,,,,,,,,,"2009-05-01"
"74486094789","2020-05-12T03:51:00","FM-15","7",,"ESE","1.5","mi","TEMP, PRECIP, SNOW",,,"PSY, SRG, SNOWBOARD",,,"FAA CWO",,,,,,,,,,,,,,,,,,,,,,,,,,,"29.98","33","44","0.00",,"-0.01","3","65","29.98","FEW:02 45","29.96","10.00","39","300",,"15",,,,,,,,,,,,,,,,,,,,,,,,,,,,,,,,,,,,,"MET10405/12/20 03:51:02 METAR KJFK 120851Z 30013KT 10SM FEW045 07/01 A2998 RMK AO2 SLP152 T00670006 53005 (JC)","FM-15","7",,,,,,,,,,,,,,,,,,,,,,,,,,,,"2009-05-01"
"74486094789","2020-05-12T04:00:00","FM-12","4",,"ESE","1.5","mi","TEMP, PRECIP, SNOW",,,"PSY, SRG, SNOWBOARD",,,"FAA CWO",,,,,,,,,,,,,,,,,,,,,,,,,,,,"33","44",,,"-0.01","3","65","29.98","41","29.95","9.94","39","300",,"15",,,,,,,,,,,,,,,,,,,,,,,,,,,,,,,,,,,,,"SYN06474486 32666 23013 10067 20006 30141 40152 53005 90851 555 91209=","FM-12","4",,,,,,,,,,,,,,,,,,,,,,,,,,,,"2009-05-01"
"74486094789","2020-05-12T04:51:00","FM-15","7",,"ESE","1.5","mi","TEMP, PRECIP, SNOW",,,"PSY, SRG, SNOWBOARD",,,"FAA CWO",,,,,,,,,,,,,,,,,,,,,,,,,,,"30.00","34","44","0.00",,,,"68","29.99","FEW:02 45","29.98","10.00","40","290",,"11",,,,,,,,,,,,,,,,,,,,,,,,,,,,,,,,,,,,,"MET09805/12/20 04:51:02 METAR KJFK 120951Z 29010KT 10SM FEW045 07/01 A3000 RMK AO2 SLP157 T00670011 (JC)","FM-15","7",,,,,,,,,,,,,,,,,,,,,,,,,,,,"2009-05-01"
"74486094789","2020-05-12T05:51:00","FM-15","7",,"ESE","1.5","mi","TEMP, PRECIP, SNOW",,,"PSY, SRG, SNOWBOARD",,,"FAA CWO",,,,,,,,,,,,,,,,,,,,,,,,,,,"30.01","35","46","0.00",,,,"66","30.01","SCT:04 35 SCT:04 70","29.98","10.00","41","300","25","21",,,,,,,,,,,,,,,,,,,,,,,,,,,,,,,,,,,,,"MET10805/12/20 05:51:02 METAR KJFK 121051Z 30018G22KT 10SM SCT035 SCT070 08/02 A3001 RMK AO2 SLP163 T00780017 (DM)","FM-15","7",,,,,,,,,,,,,,,,,,,,,,,,,,,,"2009-05-01"
"74486094789","2020-05-12T06:51:00","FM-15","7",,"ESE","1.5","mi","TEMP, PRECIP, SNOW",,,"PSY, SRG, SNOWBOARD",,,"FAA CWO",,,,,,,,,,,,,,,,,,,,,,,,,,,"30.02","34","47","0.00",,"-0.04","1","61","30.02","SCT:04 37 SCT:04 90 SCT:04 120","30.00","10.00","41","290","23","17",,,,,,,,,,,,,,,,,,,,,,,,,,,,,,,,,,,,,"MET13905/12/20 06:51:02 METAR KJFK 121151Z 29015G20KT 10SM SCT037 SCT090 SCT120 08/01 A3002 RMK AO2 SLP166 70003 T00830011 10089 20061 51014 (DM)","FM-15","7",,,,,,,,,,,,,,,,,,,,,,,,,,,,"2009-05-01"
"74486094789","2020-05-12T07:00:00","FM-12","4",,"ESE","1.5","mi","TEMP, PRECIP, SNOW",,,"PSY, SRG, SNOWBOARD",,,"FAA CWO",,,,,,,,,,,,,,,,,,,,,,,,,,,,"34","47",,,"-0.04","1","61","30.02","41","29.99","9.94","41","290",,"17",,,,,,,,,,,,,,,,,,,,,,,,,,,,,,,,,,,,,"SYN09274486 32666 42915 10083 20011 30155 40166 51014 91151 333 10161 20061 70008 91020 555 91212=","FM-12","4",,,,,,,,,,,,,,,,,,,,,,,,,,,,"2009-05-01"
"74486094789","2020-05-12T07:51:00","FM-15","7",,"ESE","1.5","mi","TEMP, PRECIP, SNOW",,,"PSY, SRG, SNOWBOARD",,,"FAA CWO",,,,,,,,,,,,,,,,,,,,,,,,,,,"30.04","33","48","0.00",,,,"56","30.04","SCT:04 40","30.01","10.00","41","290",,"17",,,,,,,,,,,,,,,,,,,,,,,,,,,,,,,,,,,,,"MET09805/12/20 07:51:02 METAR KJFK 121251Z 29015KT 10SM SCT040 09/01 A3004 RMK AO2 SLP173 T00890006 (DM)","FM-15","7",,,,,,,,,,,,,,,,,,,,,,,,,,,,"2009-05-01"
"74486094789","2020-05-12T08:51:00","FM-15","7",,"ESE","1.5","mi","TEMP, PRECIP, SNOW",,,"PSY, SRG, SNOWBOARD",,,"FAA CWO",,,,,,,,,,,,,,,,,,,,,,,,,,,"30.05","24","50","0.00",,,,"36","30.05","FEW:02 55","30.03","10.00","40","290","32","23",,,,,,,,,,,,,,,,,,,,,,,,,,,,,,,,,,,,,"MET12005/12/20 08:51:02 METAR KJFK 121351Z 29020G28KT 10SM FEW055 10/M04 A3005 RMK AO2 PK WND 29028/1349 SLP175 T01001044 (DM)","FM-15","7",,,,,,,,,,,,,,,,,,,,,,,,,,,,"2009-05-01"
"74486094789","2020-05-12T09:51:00","FM-15","7",,"ESE","1.5","mi","TEMP, PRECIP, SNOW",,,"PSY, SRG, SNOWBOARD",,,"FAA CWO",,,,,,,,,,,,,,,,,,,,,,,,,,,"30.03","24","53","0.00",,"-0.01","0","32","30.03","FEW:02 60","30.01","10.00","41","300","28","22",,,,,,,,,,,,,,,,,,,,,,,,,,,,,,,,,,,,,"MET12605/12/20 09:51:02 METAR KJFK 121451Z 30019G24KT 10SM FEW060 12/M04 A3003 RMK AO2 PK WND 28027/1353 SLP170 T01171044 50004 (DM)","FM-15","7",,,,,,,,,,,,,,,,,,,,,,,,,,,,"2009-05-01"
"74486094789","2020-05-12T10:00:00","FM-12","4",,"ESE","1.5","mi","TEMP, PRECIP, SNOW",,,"PSY, SRG, SNOWBOARD",,,"FAA CWO",,,,,,,,,,,,,,,,,,,,,,,,,,,,"24","53",,,"0.01","9","32","30.03","57","30.00","9.94","41","300",,"22",,,,,,,,,,,,,,,,,,,,,,,,,,,,,,,,,,,,,"SYN07474486 32766 23019 10117 21044 30158 40170 50004 91451 333 91024 555 91215=","FM-12","4",,,,,,,,,,,,,,,,,,,,,,,,,,,,"2009-05-01"
"74486094789","2020-05-12T10:51:00","FM-15","7",,"ESE","1.5","mi","TEMP, PRECIP, SNOW",,,"PSY, SRG, SNOWBOARD",,,"FAA CWO",,,,,,,,,,,,,,,,,,,,,,,,,,,"30.02","26","54","0.00",,,,"34","30.02","FEW:02 65","30.00","10.00","42","320","26","20",,,,,,,,,,,,,,,,,,,,,,,,,,,,,,,,,,,,,"MET10205/12/20 10:51:02 METAR KJFK 121551Z 32017G23KT 10SM FEW065 12/M03 A3002 RMK AO2 SLP166 T01221033 (DM)","FM-15","7",,,,,,,,,,,,,,,,,,,,,,,,,,,,"2009-05-01"
"74486094789","2020-05-12T11:51:00","FM-15","7",,"ESE","1.5","mi","TEMP, PRECIP, SNOW",,,"PSY, SRG, SNOWBOARD",,,"FAA CWO",,,,,,,,,,,,,,,,,,,,,,,,,,,"30.01","27","56","0.00",,,,"33","30.01","FEW:02 65","29.98","10.00","44","280","26","18",,,,,,,,,,,,,,,,,,,,,,,,,,,,,,,,,,,,,"MET12005/12/20 11:51:02 METAR KJFK 121651Z 28016G23KT 10SM FEW065 13/M03 A3001 RMK AO2 PK WND 29029/1639 SLP161 T01331028 (DM)","FM-15","7",,,,,,,,,,,,,,,,,,,,,,,,,,,,"2009-05-01"
"74486094789","2020-05-12T12:51:00","FM-15","7",,"ESE","1.5","mi","TEMP, PRECIP, SNOW",,,"PSY, SRG, SNOWBOARD",,,"FAA CWO",,,,,,,,,,,,,,,,,,,,,,,,,,,"30.01","23","58","0.00",,"+0.03","6","26","30.00","FEW:02 80","29.98","10.00","43","270","31","22",,,,,,,,,,,,,,,,,,,,,,,,,,,,,,,,,,,,,"MET13805/12/20 12:51:02 METAR KJFK 121751Z 27019G27KT 10SM FEW080 14/M05 A3001 RMK AO2 PK WND 29030/1716 SLP160 T01441050 10144 20078 56009 (DM)","FM-15","7",,,,,,,,,,,,,,,,,,,,,,,,,,,,"2009-05-01"
"74486094789","2020-05-12T13:00:00","FM-12","4",,"ESE","1.5","mi","TEMP, PRECIP, SNOW",,,"PSY, SRG, SNOWBOARD",,,"FAA CWO",,,,,,,,,,,,,,,,,,,,,,,,,,,,"23","58",,,"+0.03","6","26","30.00","74","29.98","9.94","43","270",,"22",,,,,,,,,,,,,,,,,,,,,,,,,,,,,,,,,,,,,"SYN08674486 32866 22719 10144 21050 30151 40160 56009 91751 333 10144 20078 91027 555 91218=","FM-12","4",,,,,,,,,,,,,,,,,,,,,,,,,,,,"2009-05-01"
"74486094789","2020-05-12T13:51:00","FM-15","7",,"ESE","1.5","mi","TEMP, PRECIP, SNOW",,,"PSY, SRG, SNOWBOARD",,,"FAA CWO",,,,,,,,,,,,,,,,,,,,,,,,,,,"29.98","19","59","0.00",,,,"21","29.97","FEW:02 80","29.96","10.00","43","280","29","20",,,,,,,,,,,,,,,,,,,,,,,,,,,,,,,,,,,,,"MET12005/12/20 13:51:02 METAR KJFK 121851Z 28017G25KT 10SM FEW080 15/M07 A2998 RMK AO2 PK WND 29030/1805 SLP150 T01501072 (RR)","FM-15","7",,,,,,,,,,,,,,,,,,,,,,,,,,,,"2009-05-01"
"74486094789","2020-05-12T14:51:00","FM-15","7",,"ESE","1.5","mi","TEMP, PRECIP, SNOW",,,"PSY, SRG, SNOWBOARD",,,"FAA CWO",,,,,,,,,,,,,,,,,,,,,,,,,,,"29.98","15","60","0.00",,,,"17","29.98","FEW:02 85","29.96","10.00","43","290","33","21",,,,,,,,,,,,,,,,,,,,,,,,,,,,,,,,,,,,,"MET12005/12/20 14:51:02 METAR KJFK 121951Z 29018G29KT 10SM FEW085 16/M09 A2998 RMK AO2 PK WND 31029/1857 SLP151 T01561094 (RR)","FM-15","7",,,,,,,,,,,,,,,,,,,,,,,,,,,,"2009-05-01"
"74486094789","2020-05-12T15:51:00","FM-15","7",,"ESE","1.5","mi","TEMP, PRECIP, SNOW",,,"PSY, SRG, SNOWBOARD",,,"FAA CWO",,,,,,,,,,,,,,,,,,,,,,,,,,,"29.98","19","60","0.00",,"+0.02","5","20","29.98","FEW:02 85","29.96","10.00","43","310","26","18",,,,,,,,,,,,,,,,,,,,,,,,,,,,,,,,,,,,,"MET12605/12/20 15:51:02 METAR KJFK 122051Z 31016G23KT 10SM FEW085 16/M07 A2998 RMK AO2 PK WND 28026/2003 SLP153 T01561072 55007 (RR)","FM-15","7",,,,,,,,,,,,,,,,,,,,,,,,,,,,"2009-05-01"
"74486094789","2020-05-12T16:00:00","FM-12","4",,"ESE","1.5","mi","TEMP, PRECIP, SNOW",,,"PSY, SRG, SNOWBOARD",,,"FAA CWO",,,,,,,,,,,,,,,,,,,,,,,,,,,,"19","60",,,"+0.02","5","20","29.98",,"29.95","9.94","43","310",,"18",,,,,,,,,,,,,,,,,,,,,,,,,,,,,,,,,,,,,"SYN07474486 32966 23116 10156 21072 30141 40153 55007 92051 333 91023 555 91221=","FM-12","4",,,,,,,,,,,,,,,,,,,,,,,,,,,,"2009-05-01"
"74486094789","2020-05-12T16:51:00","FM-15","7",,"ESE","1.5","mi","TEMP, PRECIP, SNOW",,,"PSY, SRG, SNOWBOARD",,,"FAA CWO",,,,,,,,,,,,,,,,,,,,,,,,,,,"30.00","18","59","0.00",,,,"20","29.99","SCT:04 90","29.98","10.00","43","320","25","18",,,,,,,,,,,,,,,,,,,,,,,,,,,,,,,,,,,,,"MET12005/12/20 16:51:02 METAR KJFK 122151Z 32016G22KT 10SM SCT090 15/M08 A3000 RMK AO2 PK WND 33027/2133 SLP157 T01501078 (RR)","FM-15","7",,,,,,,,,,,,,,,,,,,,,,,,,,,,"2009-05-01"
"74486094789","2020-05-12T17:51:00","FM-15","7",,"ESE","1.5","mi","TEMP, PRECIP, SNOW",,,"PSY, SRG, SNOWBOARD",,,"FAA CWO",,,,,,,,,,,,,,,,,,,,,,,,,,,"30.02","18","57","0.00",,,,"22","30.02","BKN:07 100","30.00","10.00","42","310",,"20",,,,,,,,,,,,,,,,,,,,,,,,,,,,,,,,,,,,,"MET11705/12/20 17:51:02 METAR KJFK 122251Z 31017KT 10SM BKN100 14/M08 A3002 RMK AO2 PK WND 33027/2202 SLP166 T01391078 (RR)","FM-15","7",,,,,,,,,,,,,,,,,,,,,,,,,,,,"2009-05-01"
"74486094789","2020-05-12T18:51:00","FM-15","7",,"ESE","1.5","mi","TEMP, PRECIP, SNOW",,,"PSY, SRG, SNOWBOARD",,,"FAA CWO",,,,,,,,,,,,,,,,,,,,,,,,,,,"30.05","19","55","0.00",,"-0.07","3","24","30.05","BKN:07 110","30.03","10.00","41","320",,"15",,,,,,,,,,,,,,,,,,,,,,,,,,,,,,,,,,,,,"MET11705/12/20 18:51:02 METAR KJFK 122351Z 32013KT 10SM BKN110 13/M07 A3005 RMK AO2 SLP176 T01281072 10161 20128 53023 (RR)","FM-15","7",,,,,,,,,,,,,,,,,,,,,,,,,,,,"2009-05-01"
"74486094789","2020-05-12T19:00:00","FM-12","4",,"ESE","1.5","mi","TEMP, PRECIP, SNOW",,,"PSY, SRG, SNOWBOARD",,,"FAA CWO",,,,,,,,,,,,,,,,,,,,,,,,,,,,"19","55",,,"-0.07","3","24","30.05",,"30.02","9.94","41","320",,"15",,,,,,,,,,,,,,,,,,,,,,,,,,,,,,,,,,,,,"SYN08074486 32966 63213 10128 21072 30165 40176 53023 92351 333 10161 20061 555 91300=","FM-12","4",,,,,,,,,,,,,,,,,,,,,,,,,,,,"2009-05-01"
"74486094789","2020-05-12T19:51:00","FM-15","7",,"ESE","1.5","mi","TEMP, PRECIP, SNOW",,,"PSY, SRG, SNOWBOARD",,,"FAA CWO",,,,,,,,,,,,,,,,,,,,,,,,,,,"30.08","20","54","0.00",,,,"26","30.07","BKN:07 120","30.06","10.00","41","310",,"14",,,,,,,,,,,,,,,,,,,,,,,,,,,,,,,,,,,,,"MET09405/12/20 19:51:01 METAR KJFK 130051Z 31012KT 10SM BKN120 12/M07 A3008 RMK AO2 SLP184 T01221067","FM-15","7",,,,,,,,,,,,,,,,,,,,,,,,,,,,"2009-05-01"
"74486094789","2020-05-12T20:51:00","FM-15","7",,"ESE","1.5","mi","TEMP, PRECIP, SNOW",,,"PSY, SRG, SNOWBOARD",,,"FAA CWO",,,,,,,,,,,,,,,,,,,,,,,,,,,"30.11","21","54","0.00",,,,"28","30.11","BKN:07 100","30.09","10.00","41","310",,"10",,,,,,,,,,,,,,,,,,,,,,,,,,,,,,,,,,,,,"MET09405/12/20 20:51:01 METAR KJFK 130151Z 31009KT 10SM BKN100 12/M06 A3011 RMK AO2 SLP196 T01221061","FM-15","7",,,,,,,,,,,,,,,,,,,,,,,,,,,,"2009-05-01"
"74486094789","2020-05-12T21:51:00","FM-15","7",,"ESE","1.5","mi","TEMP, PRECIP, SNOW",,,"PSY, SRG, SNOWBOARD",,,"FAA CWO",,,,,,,,,,,,,,,,,,,,,,,,,,,"30.13","22","54","0.00",,"-0.08","1","29","30.13","BKN:07 100","30.11","10.00","41","340","25","16",,,,,,,,,,,,,,,,,,,,,,,,,,,,,,,,,,,,,"MET10305/12/20 21:51:01 METAR KJFK 130251Z 34014G22KT 10SM BKN100 12/M06 A3013 RMK AO2 SLP202 T01221056 51026","FM-15","7",,,,,,,,,,,,,,,,,,,,,,,,,,,,"2009-05-01"
"74486094789","2020-05-12T22:00:00","FM-12","4",,"ESE","1.5","mi","TEMP, PRECIP, SNOW",,,"PSY, SRG, SNOWBOARD",,,"FAA CWO",,,,,,,,,,,,,,,,,,,,,,,,,,,,"22","54",,,"-0.08","1","29","30.13",,"30.10","9.94","41","340",,"16",,,,,,,,,,,,,,,,,,,,,,,,,,,,,,,,,,,,,"SYN07474486 32966 63414 10122 21056 30192 40202 51026 90251 333 91022 555 91303=","FM-12","4",,,,,,,,,,,,,,,,,,,,,,,,,,,,"2009-05-01"
"74486094789","2020-05-12T22:51:00","FM-15","7",,"ESE","1.5","mi","TEMP, PRECIP, SNOW",,,"PSY, SRG, SNOWBOARD",,,"FAA CWO",,,,,,,,,,,,,,,,,,,,,,,,,,,"30.16","24","52","0.00",,,,"34","30.16","SCT:04 80 BKN:07 110","30.14","10.00","41","330",,"18",,,,,,,,,,,,,,,,,,,,,,,,,,,,,,,,,,,,,"MET11205/12/20 22:51:02 METAR KJFK 130351Z 33016KT 10SM SCT080 BKN110 11/M04 A3016 RMK AO2 SLP213 VCSH NW-NE T01111044","FM-15","7",,,,,,,,,,,,,,,,,,,,,,,,,,,,"2009-05-01"
"74486094789","2020-05-12T23:51:00","FM-15","7",,"ESE","1.5","mi","TEMP, PRECIP, SNOW",,,"PSY, SRG, SNOWBOARD",,,"FAA CWO",,,,,,,,,,,,,,,,,,,,,,,,,,,"30.19","27","49","0.00",,,,"43","30.19","FEW:02 80 FEW:02 110","30.16","10.00","40","340","29","22",,,,,,,,,,,,,,,,,,,,,,,,,,,,,,,,,,,,,"MET11405/12/20 23:51:02 METAR KJFK 130451Z 34019G25KT 10SM FEW080 FEW110 09/M03 A3019 RMK AO2 SLP223 T00941028 401610061","FM-15","7",,,,,,,,,,,,,,,,,,,,,,,,,,,,"2009-05-01"
"74486094789","2020-05-12T23:59:00","SOD  ","6",,"ESE","1.5","mi","TEMP, PRECIP, SNOW",,,"PSY, SRG, SNOWBOARD",,,"FAA CWO",,,,"26","52","39","30.03","29.98","41","17.6","0","-7.4","13","61","43","290","35","0.00","0","0.0","310","30",,,,,,,,,,,,,,,,,,,,,,,,,,,,,,,,,,,,,,,,,,,,,,,,,,,,,,,,,"SOD73924 HR PRECIPITATION (IN): 0.00 SNOW DEPTH (IN):0     24 HR SNOWFALL (IN):0.0  24 HR MAX TEMP (F): 6124 HR MIN TEMP (F): 43AVERAGE STATION PRESSURE:29.980 MINIMUM SEA LEVEL PRESSURE:29.96 TIME OF OCCURRENCE:0254 PEAK WIND SPEED (MPH): 35 PEAK WIND DIR (DEG):290 PEAK WIND TIME (LST):      FASTEST 2MIN SPEED (MPH): 30FASTEST 2MIN DIR (DEG):310 FASTEST 2MIN TIME (LST):     AVERAGE WIND SPEED (MPH):17.6 24 HR AVG TEMP (F): 52DEPART FROM NORMAL: -7  HEATING DEGREE DAYS: 13 COOLING DEGREE DAYS:  0 LATEST DAY MAX TEMP (0700-1900 LST):61  LATEST NIGHT MIN TEMP(1900-0800 LST):43 HOURLY INCREMENTAL PRECIPITATION VALUES (IN):.00 0.00 0.00 0.00 0.00 0.00 0.00 0.00 0.00 0.00 0.00 0.00 0.00 0.00 0.00 0.00 0.00 0.00 0.00 0.00 0.00 0.00 0.00 0.00","SOD  ","6",,,,,,,,,,,,,,,,,,,,,,,,,"0440","1903",,"2009-05-01"
"74486094789","2020-05-13T00:51:00","FM-15","7",,"ESE","1.5","mi","TEMP, PRECIP, SNOW",,,"PSY, SRG, SNOWBOARD",,,"FAA CWO",,,,,,,,,,,,,,,,,,,,,,,,,,,"30.21","29","46","0.00",,"-0.08","1","51","30.20","FEW:02 100","30.19","10.00","39","330",,"11",,,,,,,,,,,,,,,,,,,,,,,,,,,,,,,,,,,,,"MET11705/13/20 00:51:02 METAR KJFK 130551Z 33010KT 10SM FEW100 08/M02 A3021 RMK AO2 SLP228 T00781017 10128 20078 51026 (JC)","FM-15","7",,,,,,,,,,,,,,,,,,,,,,,,,,,,"2009-05-01"
"74486094789","2020-05-13T01:00:00","FM-12","4",,"ESE","1.5","mi","TEMP, PRECIP, SNOW",,,"PSY, SRG, SNOWBOARD",,,"FAA CWO",,,,,,,,,,,,,,,,,,,,,,,,,,,,"29","46",,,"-0.08","1","51","30.20",,"30.18","9.94","39","330",,"11",,,,,,,,,,,,,,,,,,,,,,,,,,,,,,,,,,,,,"SYN08074486 32966 23310 10078 21017 30219 40228 51026 90551 333 10128 20061 555 91306=","FM-12","4",,,,,,,,,,,,,,,,,,,,,,,,,,,,"2009-05-01"
"74486094789","2020-05-13T01:51:00","FM-15","7",,"ESE","1.5","mi","TEMP, PRECIP, SNOW",,,"PSY, SRG, SNOWBOARD",,,"FAA CWO",,,,,,,,,,,,,,,,,,,,,,,,,,,"30.22","24","45","0.00",,,,"44","30.21","CLR:00","30.19","10.00","37","330",,"14",,,,,,,,,,,,,,,,,,,,,,,,,,,,,,,,,,,,,"MET09605/13/20 01:51:02 METAR KJFK 130651Z 33012KT 10SM CLR 07/M04 A3022 RMK AO2 SLP231 T00721044 (JC)","FM-15","7",,,,,,,,,,,,,,,,,,,,,,,,,,,,"2009-05-01"
"74486094789","2020-05-13T02:51:00","FM-15","7",,"ESE","1.5","mi","TEMP, PRECIP, SNOW",,,"PSY, SRG, SNOWBOARD",,,"FAA CWO",,,,,,,,,,,,,,,,,,,,,,,,,,,"30.24","24","44","0.00",,,,"45","30.23","CLR:00","30.22","10.00","36","310",,"11",,,,,,,,,,,,,,,,,,,,,,,,,,,,,,,,,,,,,"MET09605/13/20 02:51:02 METAR KJFK 130751Z 31010KT 10SM CLR 07/M04 A3024 RMK AO2 SLP238 T00671044 (JC)","FM-15","7",,,,,,,,,,,,,,,,,,,,,,,,,,,,"2009-05-01"
"74486094789","2020-05-13T03:51:00","FM-15","7",,"ESE","1.5","mi","TEMP, PRECIP, SNOW",,,"PSY, SRG, SNOWBOARD",,,"FAA CWO",,,,,,,,,,,,,,,,,,,,,,,,,,,"30.26","24","42","0.00",,"-0.05","3","49","30.26","CLR:00","30.24","10.00","35","320",,"13",,,,,,,,,,,,,,,,,,,,,,,,,,,,,,,,,,,,,"MET10205/13/20 03:51:02 METAR KJFK 130851Z 32011KT 10SM CLR 06/M04 A3026 RMK AO2 SLP247 T00561044 53018 (JC)","FM-15","7",,,,,,,,,,,,,,,,,,,,,,,,,,,,"2009-05-01"
"74486094789","2020-05-13T04:00:00","FM-12","4",,"ESE","1.5","mi","TEMP, PRECIP, SNOW",,,"PSY, SRG, SNOWBOARD",,,"FAA CWO",,,,,,,,,,,,,,,,,,,,,,,,,,,,"24","42",,,"-0.05","3","49","30.26",,"30.23","9.94","35","320",,"13",,,,,,,,,,,,,,,,,,,,,,,,,,,,,,,,,,,,,"SYN06474486 32966 03211 10056 21044 30236 40247 53018 90851 555 91309=","FM-12","4",,,,,,,,,,,,,,,,,,,,,,,,,,,,"2009-05-01"
"74486094789","2020-05-13T04:51:00","FM-15","7",,"ESE","1.5","mi","TEMP, PRECIP, SNOW",,,"PSY, SRG, SNOWBOARD",,,"FAA CWO",,,,,,,,,,,,,,,,,,,,,,,,,,,"30.28","25","41","0.00",,,,"53","30.28","CLR:00","30.25","10.00","35","330",,"11",,,,,,,,,,,,,,,,,,,,,,,,,,,,,,,,,,,,,"MET09605/13/20 04:51:02 METAR KJFK 130951Z 33010KT 10SM CLR 05/M04 A3028 RMK AO2 SLP254 T00501039 (JC)","FM-15","7",,,,,,,,,,,,,,,,,,,,,,,,,,,,"2009-05-01"
"74486094789","2020-05-13T05:51:00","FM-15","7",,"ESE","1.5","mi","TEMP, PRECIP, SNOW",,,"PSY, SRG, SNOWBOARD",,,"FAA CWO",,,,,,,,,,,,,,,,,,,,,,,,,,,"30.31","27","43","0.00",,,,"53","30.31","CLR:00","30.29","10.00","37","330",,"11",,,,,,,,,,,,,,,,,,,,,,,,,,,,,,,,,,,,,"MET09605/13/20 05:51:02 METAR KJFK 131051Z 33010KT 10SM CLR 06/M03 A3031 RMK AO2 SLP263 T00611028 (BH)","FM-15","7",,,,,,,,,,,,,,,,,,,,,,,,,,,,"2009-05-01"
"74486094789","2020-05-13T06:51:00","FM-15","7",,"ESE","1.5","mi","TEMP, PRECIP, SNOW",,,"PSY, SRG, SNOWBOARD",,,"FAA CWO",,,,,,,,,,,,,,,,,,,,,,,,,,,"30.32","27","46","0.00",,"-0.06","1","47","30.32","CLR:00","30.29","10.00","38","330",,"9",,,,,,,,,,,,,,,,,,,,,,,,,,,,,,,,,,,,,"MET11405/13/20 06:51:02 METAR KJFK 131151Z 33008KT 10SM CLR 08/M03 A3032 RMK AO2 SLP267 T00781028 10078 20050 51021 (BH)","FM-15","7",,,,,,,,,,,,,,,,,,,,,,,,,,,,"2009-05-01"
"74486094789","2020-05-13T07:00:00","FM-12","4",,"ESE","1.5","mi","TEMP, PRECIP, SNOW",,,"PSY, SRG, SNOWBOARD",,,"FAA CWO",,,,,,,,,,,,,,,,,,,,,,,,,,,,"27","46",,,"-0.06","1","47","30.32",,"30.29","9.94","38","330",,"9",,,,,,,,,,,,,,,,,,,,,,,,,,,,,,,,,,,,,"SYN08074486 32966 03308 10078 21028 30256 40267 51021 91151 333 10161 20050 555 91312=","FM-12","4",,,,,,,,,,,,,,,,,,,,,,,,,,,,"2009-05-01"
"74486094789","2020-05-13T07:51:00","FM-15","7",,"ESE","1.5","mi","TEMP, PRECIP, SNOW",,,"PSY, SRG, SNOWBOARD",,,"FAA CWO",,,,,,,,,,,,,,,,,,,,,,,,,,,"30.34","25","48","0.00",,,,"41","30.34","CLR:00","30.32","10.00","39","330",,"7",,,,,,,,,,,,,,,,,,,,,,,,,,,,,,,,,,,,,"MET09605/13/20 07:51:02 METAR KJFK 131251Z 33006KT 10SM CLR 09/M04 A3034 RMK AO2 SLP273 T00891039 (BH)","FM-15","7",,,,,,,,,,,,,,,,,,,,,,,,,,,,"2009-05-01"
"74486094789","2020-05-13T08:51:00","FM-15","7",,"ESE","1.5","mi","TEMP, PRECIP, SNOW",,,"PSY, SRG, SNOWBOARD",,,"FAA CWO",,,,,,,,,,,,,,,,,,,,,,,,,,,"30.33","22","50","0.00",,,,"33","30.33","CLR:00","30.30","10.00","39","VRB",,"6",,,,,,,,,,,,,,,,,,,,,,,,,,,,,,,,,,,,,"MET09605/13/20 08:51:02 METAR KJFK 131351Z VRB05KT 10SM CLR 10/M06 A3033 RMK AO2 SLP270 T01001056 (BH)","FM-15","7",,,,,,,,,,,,,,,,,,,,,,,,,,,,"2009-05-01"
"74486094789","2020-05-13T09:51:00","FM-15","7",,"ESE","1.5","mi","TEMP, PRECIP, SNOW",,,"PSY, SRG, SNOWBOARD",,,"FAA CWO",,,,,,,,,,,,,,,,,,,,,,,,,,,"30.32","22","52","0.00",,"-0.00","0","31","30.32","CLR:00","30.29","10.00","40","VRB","17","9",,,,,,,,,,,,,,,,,,,,,,,,,,,,,,,,,,,,,"MET10505/13/20 09:51:02 METAR KJFK 131451Z 29008G15KT 10SM CLR 11/M06 A3032 RMK AO2 SLP267 T01111056 50000 (BH)","FM-15","7",,,,,,,,,,,,,,,,,,,,,,,,,,,,"2009-05-01"
"74486094789","2020-05-13T10:00:00","FM-12","4",,"ESE","1.5","mi","TEMP, PRECIP, SNOW",,,"PSY, SRG, SNOWBOARD",,,"FAA CWO",,,,,,,,,,,,,,,,,,,,,,,,,,,,"22","52",,,"0.00","9","31","30.32",,"30.29","9.94","40","290",,"9",,,,,,,,,,,,,,,,,,,,,,,,,,,,,,,,,,,,,"SYN07474486 32966 02908 10111 21056 30256 40267 50000 91451 333 91015 555 91315=","FM-12","4",,,,,,,,,,,,,,,,,,,,,,,,,,,,"2009-05-01"
"74486094789","2020-05-13T10:51:00","FM-15","7",,"ESE","1.5","mi","TEMP, PRECIP, SNOW",,,"PSY, SRG, SNOWBOARD",,,"FAA CWO",,,,,,,,,,,,,,,,,,,,,,,,,,,"30.32","25","54","0.00",,,,"33","30.31","FEW:02 65","30.29","10.00","42","310",,"10",,,,,,,,,,,,,,,,,,,,,,,,,,,,,,,,,,,,,"MET09905/13/20 10:51:02 METAR KJFK 131551Z 31009KT 10SM FEW065 12/M04 A3032 RMK AO2 SLP265 T01221039 (BH)","FM-15","7",,,,,,,,,,,,,,,,,,,,,,,,,,,,"2009-05-01"
"74486094789","2020-05-13T11:51:00","FM-15","7",,"ESE","1.5","mi","TEMP, PRECIP, SNOW",,,"PSY, SRG, SNOWBOARD",,,"FAA CWO",,,,,,,,,,,,,,,,,,,,,,,,,,,"30.29","32","55","0.00",,,,"42","30.29","FEW:02 65","30.27","10.00","45","220",,"13",,,,,,,,,,,,,,,,,,,,,,,,,,,,,,,,,,,,,"MET09805/13/20 11:51:02 METAR KJFK 131651Z 22011KT 10SM FEW065 13/00 A3029 RMK AO2 SLP257 T01280000 (BH)","FM-15","7",,,,,,,,,,,,,,,,,,,,,,,,,,,,"2009-05-01"
"74486094789","2020-05-13T12:51:00","FM-15","7",,"ESE","1.5","mi","TEMP, PRECIP, SNOW",,,"PSY, SRG, SNOWBOARD",,,"FAA CWO",,,,,,,,,,,,,,,,,,,,,,,,,,,"30.27","27","59","0.00",,"+0.06","8","29","30.27","FEW:02 70","30.24","10.00","45","280",,"8",,,,,,,,,,,,,,,,,,,,,,,,,,,,,,,,,,,,,"MET11705/13/20 12:51:02 METAR KJFK 131751Z 28007KT 10SM FEW070 15/M03 A3027 RMK AO2 SLP249 T01501028 10156 20078 58019 (BH)","FM-15","7",,,,,,,,,,,,,,,,,,,,,,,,,,,,"2009-05-01"
"74486094789","2020-05-13T13:00:00","FM-12","4",,"ESE","1.5","mi","TEMP, PRECIP, SNOW",,,"PSY, SRG, SNOWBOARD",,,"FAA CWO",,,,,,,,,,,,,,,,,,,,,,,,,,,,"27","59",,,"+0.06","8","29","30.27","74","30.24","9.94","45","280",,"8",,,,,,,,,,,,,,,,,,,,,,,,,,,,,,,,,,,,,"SYN08074486 32866 22807 10150 21028 30239 40249 58019 91751 333 10156 20078 555 91318=","FM-12","4",,,,,,,,,,,,,,,,,,,,,,,,,,,,"2009-05-01"
"74486094789","2020-05-13T13:51:00","FM-15","7",,"ESE","1.5","mi","TEMP, PRECIP, SNOW",,,"PSY, SRG, SNOWBOARD",,,"FAA CWO",,,,,,,,,,,,,,,,,,,,,,,,,,,"30.25","26","61","0.00",,,,"26","30.25","FEW:02 75","30.22","10.00","46","280","26","15",,,,,,,,,,,,,,,,,,,,,,,,,,,,,,,,,,,,,"MET10205/13/20 13:51:02 METAR KJFK 131851Z 28013G23KT 10SM FEW075 16/M03 A3025 RMK AO2 SLP244 T01611033 (RR)","FM-15","7",,,,,,,,,,,,,,,,,,,,,,,,,,,,"2009-05-01"
"74486094789","2020-05-13T14:20:00","FM-16","7",,"ESE","1.5","mi","TEMP, PRECIP, SNOW",,,"PSY, SRG, SNOWBOARD",,,"FAA CWO",,,,,,,,,,,,,,,,,,,,,,,,,,,"30.25","36","55",,,,,"49",,"FEW:02 75","30.22","10.00","46","190",,"20",,,,,,,,,,,,,,,,,,,,,,,,,,,,,,,,,,,,,"MET10205/13/20 14:20:02 SPECI KJFK 131920Z 19017KT 10SM FEW075 13/02 A3025 RMK AO2 WSHFT 1900 T01280022 (RR)","FM-16","7",,,,,,,,,,,,,,,,,,,,,,,,,,,,"2009-05-01"
"74486094789","2020-05-13T14:51:00","FM-15","7",,"ESE","1.5","mi","TEMP, PRECIP, SNOW",,,"PSY, SRG, SNOWBOARD",,,"FAA CWO",,,,,,,,,,,,,,,,,,,,,,,,,,,"30.25","35","55","0.00",,,,"47","30.25","FEW:02 75","30.22","10.00","46","190",,"22",,,,,,,,,,,,,,,,,,,,,,,,,,,,,,,,,,,,,"MET10905/13/20 14:51:02 METAR KJFK 131951Z 19019KT 10SM FEW075 13/02 A3025 RMK AO2 WSHFT 1900 SLP243 T01280017 (RR)","FM-15","7",,,,,,,,,,,,,,,,,,,,,,,,,,,,"2009-05-01"
"74486094789","2020-05-13T15:51:00","FM-15","7",,"ESE","1.5","mi","TEMP, PRECIP, SNOW",,,"PSY, SRG, SNOWBOARD",,,"FAA CWO",,,,,,,,,,,,,,,,,,,,,,,,,,,"30.25","37","53","0.00",,"+0.02","6","55","30.24","FEW:02 75","30.22","10.00","46","190",,"23",,,,,,,,,,,,,,,,,,,,,,,,,,,,,,,,,,,,,"MET10405/13/20 15:51:02 METAR KJFK 132051Z 19020KT 10SM FEW075 12/03 A3025 RMK AO2 SLP242 T01170028 56007 (RR)","FM-15","7",,,,,,,,,,,,,,,,,,,,,,,,,,,,"2009-05-01"
"74486094789","2020-05-13T16:00:00","FM-12","4",,"ESE","1.5","mi","TEMP, PRECIP, SNOW",,,"PSY, SRG, SNOWBOARD",,,"FAA CWO",,,,,,,,,,,,,,,,,,,,,,,,,,,,"37","53",,,"+0.02","6","55","30.24","74","30.22","9.94","46","190",,"23",,,,,,,,,,,,,,,,,,,,,,,,,,,,,,,,,,,,,"SYN06474486 32866 21920 10117 20028 30232 40242 56007 92051 555 91321=","FM-12","4",,,,,,,,,,,,,,,,,,,,,,,,,,,,"2009-05-01"
"74486094789","2020-05-13T16:51:00","FM-15","7",,"ESE","1.5","mi","TEMP, PRECIP, SNOW",,,"PSY, SRG, SNOWBOARD",,,"FAA CWO",,,,,,,,,,,,,,,,,,,,,,,,,,,"30.26","40","52","0.00",,,,"64","30.25","FEW:02 75","30.24","10.00","46","190",,"7",,,,,,,,,,,,,,,,,,,,,,,,,,,,,,,,,,,,,"MET09805/13/20 16:51:02 METAR KJFK 132151Z 19006KT 10SM FEW075 11/04 A3026 RMK AO2 SLP245 T01110044 (RR)","FM-15","7",,,,,,,,,,,,,,,,,,,,,,,,,,,,"2009-05-01"
"74486094789","2020-05-13T17:51:00","FM-15","7",,"ESE","1.5","mi","TEMP, PRECIP, SNOW",,,"PSY, SRG, SNOWBOARD",,,"FAA CWO",,,,,,,,,,,,,,,,,,,,,,,,,,,"30.26","42","51","0.00",,,,"71","30.25","CLR:00","30.24","10.00","47","190",,"14",,,,,,,,,,,,,,,,,,,,,,,,,,,,,,,,,,,,,"MET09505/13/20 17:51:02 METAR KJFK 132251Z 19012KT 10SM CLR 11/06 A3026 RMK AO2 SLP245 T01060056 (RR)","FM-15","7",,,,,,,,,,,,,,,,,,,,,,,,,,,,"2009-05-01"
"74486094789","2020-05-13T18:51:00","FM-15","7",,"ESE","1.5","mi","TEMP, PRECIP, SNOW",,,"PSY, SRG, SNOWBOARD",,,"FAA CWO",,,,,,,,,,,,,,,,,,,,,,,,,,,"30.26","44","50","0.00",,"-0.02","2","80","30.26","CLR:00","30.24","10.00","47","180",,"13",,,,,,,,,,,,,,,,,,,,,,,,,,,,,,,,,,,,,"MET11305/13/20 18:51:02 METAR KJFK 132351Z 18011KT 10SM CLR 10/07 A3026 RMK AO2 SLP248 T01000067 10167 20100 52006 (RR)","FM-15","7",,,,,,,,,,,,,,,,,,,,,,,,,,,,"2009-05-01"
"74486094789","2020-05-13T19:00:00","FM-12","4",,"ESE","1.5","mi","TEMP, PRECIP, SNOW",,,"PSY, SRG, SNOWBOARD",,,"FAA CWO",,,,,,,,,,,,,,,,,,,,,,,,,,,,"44","50",,,"-0.02","2","80","30.26",,"30.23","9.94","47","180",,"13",,,,,,,,,,,,,,,,,,,,,,,,,,,,,,,,,,,,,"SYN08074486 32966 01811 10100 20067 30236 40248 52006 92351 333 10167 20050 555 91400=","FM-12","4",,,,,,,,,,,,,,,,,,,,,,,,,,,,"2009-05-01"
"74486094789","2020-05-13T19:51:00","FM-15","7",,"ESE","1.5","mi","TEMP, PRECIP, SNOW",,,"PSY, SRG, SNOWBOARD",,,"FAA CWO",,,,,,,,,,,,,,,,,,,,,,,,,,,"30.28","46","49","0.00",,,,"90","30.27","CLR:00","30.25","10.00","48","180",,"8",,,,,,,,,,,,,,,,,,,,,,,,,,,,,,,,,,,,,"MET09005/13/20 19:51:01 METAR KJFK 140051Z 18007KT 10SM CLR 09/08 A3028 RMK AO2 SLP252 T00940078","FM-15","7",,,,,,,,,,,,,,,,,,,,,,,,,,,,"2009-05-01"
"74486094789","2020-05-13T20:51:00","FM-15","7",,"ESE","1.5","mi","TEMP, PRECIP, SNOW",,,"PSY, SRG, SNOWBOARD",,,"FAA CWO",,,,,,,,,,,,,,,,,,,,,,,,,,,"30.30","45","48","0.00",,,,"89","30.30","CLR:00","30.27","10.00","47","200",,"6",,,,,,,,,,,,,,,,,,,,,,,,,,,,,,,,,,,,,"MET09005/13/20 20:51:01 METAR KJFK 140151Z 20005KT 10SM CLR 09/07 A3030 RMK AO2 SLP260 T00890072","FM-15","7",,,,,,,,,,,,,,,,,,,,,,,,,,,,"2009-05-01"
"74486094789","2020-05-13T21:51:00","FM-15","7",,"ESE","1.5","mi","TEMP, PRECIP, SNOW",,,"PSY, SRG, SNOWBOARD",,,"FAA CWO",,,,,,,,,,,,,,,,,,,,,,,,,,,"30.30","46","47","0.00",,"-0.04","1","97","30.30","CLR:00","30.27","10.00","47","220",,"3",,,,,,,,,,,,,,,,,,,,,,,,,,,,,,,,,,,,,"MET09605/13/20 21:51:01 METAR KJFK 140251Z 22003KT 10SM CLR 08/08 A3030 RMK AO2 SLP261 T00830078 51014","FM-15","7",,,,,,,,,,,,,,,,,,,,,,,,,,,,"2009-05-01"
"74486094789","2020-05-13T22:00:00","FM-12","4",,"ESE","1.5","mi","TEMP, PRECIP, SNOW",,,"PSY, SRG, SNOWBOARD",,,"FAA CWO",,,,,,,,,,,,,,,,,,,,,,,,,,,,"46","47",,,"-0.04","1","97","30.30",,"30.27","9.94","47","220",,"3",,,,,,,,,,,,,,,,,,,,,,,,,,,,,,,,,,,,,"SYN06474486 32966 02203 10083 20078 30249 40261 51014 90251 555 91403=","FM-12","4",,,,,,,,,,,,,,,,,,,,,,,,,,,,"2009-05-01"
"74486094789","2020-05-13T22:51:00","FM-15","7",,"ESE","1.5","mi","TEMP, PRECIP, SNOW",,,"PSY, SRG, SNOWBOARD",,,"FAA CWO",,,,,,,,,,,,,,,,,,,,,,,,,,,"30.31","47","47","0.00",,,,"100","30.31","CLR:00","30.29","10.00","47","260",,"5",,,,,,,,,,,,,,,,,,,,,,,,,,,,,,,,,,,,,"MET09005/13/20 22:51:02 METAR KJFK 140351Z 26004KT 10SM CLR 08/08 A3031 RMK AO2 SLP264 T00830083","FM-15","7",,,,,,,,,,,,,,,,,,,,,,,,,,,,"2009-05-01"
"74486094789","2020-05-13T23:51:00","FM-15","7",,"ESE","1.5","mi","TEMP, PRECIP, SNOW",,,"PSY, SRG, SNOWBOARD",,,"FAA CWO",,,,,,,,,,,,,,,,,,,,,,,,,,,"30.31","47","47","0.00",,,,"100","30.31","CLR:00","30.29","10.00","47","230",,"6",,,,,,,,,,,,,,,,,,,,,,,,,,,,,,,,,,,,,"MET10005/13/20 23:51:02 METAR KJFK 140451Z 23005KT 10SM CLR 08/08 A3031 RMK AO2 SLP264 T00830083 401670050","FM-15","7",,,,,,,,,,,,,,,,,,,,,,,,,,,,"2009-05-01"
"74486094789","2020-05-13T23:59:00","SOD  ","6",,"ESE","1.5","mi","TEMP, PRECIP, SNOW",,,"PSY, SRG, SNOWBOARD",,,"FAA CWO",,,,"33","52","57","30.28","30.24","43","10.6","0","-7.7","13","62","41","180","29","0.00","0","0.0","190","24",,,,,,,,,,,,,,,,,,,,,,,,,,,,,,,,,,,,,,,,,,,,,,,,,,,,,,,,,"SOD73924 HR PRECIPITATION (IN): 0.00 SNOW DEPTH (IN):0     24 HR SNOWFALL (IN):0.0  24 HR MAX TEMP (F): 6224 HR MIN TEMP (F): 41AVERAGE STATION PRESSURE:30.235 MINIMUM SEA LEVEL PRESSURE:30.19 TIME OF OCCURRENCE:0018 PEAK WIND SPEED (MPH): 29 PEAK WIND DIR (DEG):180 PEAK WIND TIME (LST):      FASTEST 2MIN SPEED (MPH): 24FASTEST 2MIN DIR (DEG):190 FASTEST 2MIN TIME (LST):     AVERAGE WIND SPEED (MPH):10.6 24 HR AVG TEMP (F): 52DEPART FROM NORMAL: -8  HEATING DEGREE DAYS: 13 COOLING DEGREE DAYS:  0 LATEST DAY MAX TEMP (0700-1900 LST):62  LATEST NIGHT MIN TEMP(1900-0800 LST):41 HOURLY INCREMENTAL PRECIPITATION VALUES (IN):.00 0.00 0.00 0.00 0.00 0.00 0.00 0.00 0.00 0.00 0.00 0.00 0.00 0.00 0.00 0.00 0.00 0.00 0.00 0.00 0.00 0.00 0.00 0.00","SOD  ","6",,,,,,,,,,,,,,,,,,,,,,,,,"0439","1904",,"2009-05-01"
"74486094789","2020-05-14T00:51:00","FM-15","7",,"ESE","1.5","mi","TEMP, PRECIP, SNOW",,,"PSY, SRG, SNOWBOARD",,,"FAA CWO",,,,,,,,,,,,,,,,,,,,,,,,,,,"30.31","46","46","0.00",,"-0.01","1","100","30.31","FEW:02 250","30.29","10.00","46","000",,"0",,,,,,,,,,,,,,,,,,,,,,,,,,,,,,,,,,,,,"MET11605/14/20 00:51:02 METAR KJFK 140551Z 00000KT 10SM FEW250 08/08 A3031 RMK AO2 SLP265 T00780078 10100 20067 51003 (JC)","FM-15","7",,,,,,,,,,,,,,,,,,,,,,,,,,,,"2009-05-01"
"74486094789","2020-05-14T01:00:00","FM-12","4",,"ESE","1.5","mi","TEMP, PRECIP, SNOW",,,"PSY, SRG, SNOWBOARD",,,"FAA CWO",,,,,,,,,,,,,,,,,,,,,,,,,,,,"46","46",,,"-0.01","1","100","30.31",,"30.28","9.94","46","000",,"0",,,,,,,,,,,,,,,,,,,,,,,,,,,,,,,,,,,,,"SYN08074486 32966 20000 10078 20078 30253 40265 51003 90551 333 10100 20050 555 91406=","FM-12","4",,,,,,,,,,,,,,,,,,,,,,,,,,,,"2009-05-01"
"74486094789","2020-05-14T01:51:00","FM-15","7",,"ESE","1.5","mi","TEMP, PRECIP, SNOW",,,"PSY, SRG, SNOWBOARD",,,"FAA CWO",,,,,,,,,,,,,,,,,,,,,,,,,,,"30.32","43","43","0.00",,,,"100","30.32","FEW:02 250","30.29","10.00","43","350",,"3",,,,,,,,,,,,,,,,,,,,,,,,,,,,,,,,,,,,,"MET09805/14/20 01:51:02 METAR KJFK 140651Z 35003KT 10SM FEW250 06/06 A3032 RMK AO2 SLP267 T00610061 (JC)","FM-15","7",,,,,,,,,,,,,,,,,,,,,,,,,,,,"2009-05-01"
"74486094789","2020-05-14T02:51:00","FM-15","7",,"ESE","1.5","mi","TEMP, PRECIP, SNOW",,,"PSY, SRG, SNOWBOARD",,,"FAA CWO",,,,,,,,,,,,,,,,,,,,,,,,,,,"30.33","46","46","0.00",,,,"100","30.33","FEW:02 250","30.30","10.00","46","230",,"3",,,,,,,,,,,,,,,,,,,,,,,,,,,,,,,,,,,,,"MET09805/14/20 02:51:02 METAR KJFK 140751Z 23003KT 10SM FEW250 08/08 A3033 RMK AO2 SLP271 T00780078 (JC)","FM-15","7",,,,,,,,,,,,,,,,,,,,,,,,,,,,"2009-05-01"
"74486094789","2020-05-14T03:51:00","FM-15","7",,"ESE","1.5","mi","TEMP, PRECIP, SNOW",,,"PSY, SRG, SNOWBOARD",,,"FAA CWO",,,,,,,,,,,,,,,,,,,,,,,,,,,"30.34","41","41","0.00",,"-0.02","1","100","30.34","FEW:02 250","30.32","10.00","41","020",,"5",,,,,,,,,,,,,,,,,,,,,,,,,,,,,,,,,,,,,"MET12205/14/20 03:51:02 METAR KJFK 140851Z 02004KT 10SM R04R/4000VP6000FT FEW250 05/05 A3034 RMK AO2 SLP273 T00500050 51008 (JC)","FM-15","7",,,,,,,,,,,,,,,,,,,,,,,,,,,,"2009-05-01"
"74486094789","2020-05-14T04:00:00","FM-12","4",,"ESE","1.5","mi","TEMP, PRECIP, SNOW",,,"PSY, SRG, SNOWBOARD",,,"FAA CWO",,,,,,,,,,,,,,,,,,,,,,,,,,,,"41","41",,,"-0.02","1","100","30.34",,"30.31","9.94","41","020",,"5",,,,,,,,,,,,,,,,,,,,,,,,,,,,,,,,,,,,,"SYN06474486 32966 20204 10050 20050 30263 40273 51008 90851 555 91409=","FM-12","4",,,,,,,,,,,,,,,,,,,,,,,,,,,,"2009-05-01"
"74486094789","2020-05-14T04:51:00","FM-15","7",,"ESE","1.5","mi","TEMP, PRECIP, SNOW",,,"PSY, SRG, SNOWBOARD",,,"FAA CWO",,,,,,,,,,,,,,,,,,,,,,,,,,,"30.34","40","42","0.00",,,,"92","30.34","SCT:04 250","30.32","10.00","41","040",,"7",,,,,,,,,,,,,,,,,,,,,,,,,,,,,,,,,,,,,"MET09805/14/20 04:51:02 METAR KJFK 140951Z 04006KT 10SM SCT250 06/04 A3034 RMK AO2 SLP274 T00560044 (JC)","FM-15","7",,,,,,,,,,,,,,,,,,,,,,,,,,,,"2009-05-01"
"74486094789","2020-05-14T05:51:00","FM-15","7",,"ESE","1.5","mi","TEMP, PRECIP, SNOW",,,"PSY, SRG, SNOWBOARD",,,"FAA CWO",,,,,,,,,,,,,,,,,,,,,,,,,,,"30.35","42","45","0.00",,,,"90","30.35","FEW:02 180 BKN:07 250","30.32","10.00","44","050",,"5",,,,,,,,,,,,,,,,,,,,,,,,,,,,,,,,,,,,,"MET10505/14/20 05:51:02 METAR KJFK 141051Z 05004KT 10SM FEW180 BKN250 07/06 A3035 RMK AO2 SLP278 T00720056 (BH)","FM-15","7",,,,,,,,,,,,,,,,,,,,,,,,,,,,"2009-05-01"
"74486094789","2020-05-14T06:51:00","FM-15","7",,"ESE","1.5","mi","TEMP, PRECIP, SNOW",,,"PSY, SRG, SNOWBOARD",,,"FAA CWO",,,,,,,,,,,,,,,,,,,,,,,,,,,"30.35","36","52","0.00",,"-0.01","1","55","30.35","SCT:04 180 BKN:07 250","30.32","10.00","45","050",,"6",,,,,,,,,,,,,,,,,,,,,,,,,,,,,,,,,,,,,"MET12305/14/20 06:51:02 METAR KJFK 141151Z 05005KT 10SM SCT180 BKN250 11/02 A3035 RMK AO2 SLP278 T01110022 10111 20044 51005 (BH)","FM-15","7",,,,,,,,,,,,,,,,,,,,,,,,,,,,"2009-05-01"
"74486094789","2020-05-14T07:00:00","FM-12","4",,"ESE","1.5","mi","TEMP, PRECIP, SNOW",,,"PSY, SRG, SNOWBOARD",,,"FAA CWO",,,,,,,,,,,,,,,,,,,,,,,,,,,,"36","52",,,"-0.01","1","55","30.35",,"30.32","9.94","45","050",,"6",,,,,,,,,,,,,,,,,,,,,,,,,,,,,,,,,,,,,"SYN08074486 32966 60505 10111 20022 30266 40278 51005 91151 333 10167 20044 555 91412=","FM-12","4",,,,,,,,,,,,,,,,,,,,,,,,,,,,"2009-05-01"
"74486094789","2020-05-14T07:51:00","FM-15","7",,"ESE","1.5","mi","TEMP, PRECIP, SNOW",,,"PSY, SRG, SNOWBOARD",,,"FAA CWO",,,,,,,,,,,,,,,,,,,,,,,,,,,"30.35","29","57","0.00",,,,"34","30.35","FEW:02 180 BKN:07 250","30.32","10.00","45","VRB",,"3",,,,,,,,,,,,,,,,,,,,,,,,,,,,,,,,,,,,,"MET10605/14/20 07:51:02 METAR KJFK 141251Z VRB03KT 10SM FEW180 BKN250 14/M02 A3035 RMK AO2 SLP277 T01391017 (BH)","FM-15","7",,,,,,,,,,,,,,,,,,,,,,,,,,,,"2009-05-01"
"74486094789","2020-05-14T08:51:00","FM-15","7",,"ESE","1.5","mi","TEMP, PRECIP, SNOW",,,"PSY, SRG, SNOWBOARD",,,"FAA CWO",,,,,,,,,,,,,,,,,,,,,,,,,,,"30.34","30","59","0.00",,,,"33","30.34","FEW:02 180 SCT:04 250","30.32","10.00","46","140",,"3",,,,,,,,,,,,,,,,,,,,,,,,,,,,,,,,,,,,,"MET10605/14/20 08:51:02 METAR KJFK 141351Z 14003KT 10SM FEW180 SCT250 15/M01 A3034 RMK AO2 SLP273 T01501011 (BH)","FM-15","7",,,,,,,,,,,,,,,,,,,,,,,,,,,,"2009-05-01"
"74486094789","2020-05-14T09:51:00","FM-15","7",,"ESE","1.5","mi","TEMP, PRECIP, SNOW",,,"PSY, SRG, SNOWBOARD",,,"FAA CWO",,,,,,,,,,,,,,,,,,,,,,,,,,,"30.33","29","60","0.00",,"+0.02","8","31","30.33","SCT:04 180 SCT:04 250","30.30","10.00","46","160",,"9",,,,,,,,,,,,,,,,,,,,,,,,,,,,,,,,,,,,,"MET11205/14/20 09:51:02 METAR KJFK 141451Z 16008KT 10SM SCT180 SCT250 16/M02 A3033 RMK AO2 SLP271 T01561017 58007 (BH)","FM-15","7",,,,,,,,,,,,,,,,,,,,,,,,,,,,"2009-05-01"
"74486094789","2020-05-14T10:00:00","FM-12","4",,"ESE","1.5","mi","TEMP, PRECIP, SNOW",,,"PSY, SRG, SNOWBOARD",,,"FAA CWO",,,,,,,,,,,,,,,,,,,,,,,,,,,,"29","60",,,"+0.02","8","31","30.33",,"30.29","9.94","46","160",,"9",,,,,,,,,,,,,,,,,,,,,,,,,,,,,,,,,,,,,"SYN06474486 32966 41608 10156 21017 30259 40271 58007 91451 555 91415=","FM-12","4",,,,,,,,,,,,,,,,,,,,,,,,,,,,"2009-05-01"
"74486094789","2020-05-14T10:51:00","FM-15","7",,"ESE","1.5","mi","TEMP, PRECIP, SNOW",,,"PSY, SRG, SNOWBOARD",,,"FAA CWO",,,,,,,,,,,,,,,,,,,,,,,,,,,"30.32","30","60","0.00",,,,"32","30.31","SCT:04 150 SCT:04 250","30.29","10.00","47","160",,"11",,,,,,,,,,,,,,,,,,,,,,,,,,,,,,,,,,,,,"MET10605/14/20 10:51:02 METAR KJFK 141551Z 16010KT 10SM SCT150 SCT250 16/M01 A3032 RMK AO2 SLP265 T01561011 (BH)","FM-15","7",,,,,,,,,,,,,,,,,,,,,,,,,,,,"2009-05-01"
"74486094789","2020-05-14T11:51:00","FM-15","7",,"ESE","1.5","mi","TEMP, PRECIP, SNOW",,,"PSY, SRG, SNOWBOARD",,,"FAA CWO",,,,,,,,,,,,,,,,,,,,,,,,,,,"30.29","30","60","0.00",,,,"32","30.28","FEW:02 190 FEW:02 250","30.27","10.00","47","150",,"15",,,,,,,,,,,,,,,,,,,,,,,,,,,,,,,,,,,,,"MET10605/14/20 11:51:02 METAR KJFK 141651Z 15013KT 10SM FEW190 FEW250 16/M01 A3029 RMK AO2 SLP255 T01561011 (BH)","FM-15","7",,,,,,,,,,,,,,,,,,,,,,,,,,,,"2009-05-01"
"74486094789","2020-05-14T12:51:00","FM-15","7",,"ESE","1.5","mi","TEMP, PRECIP, SNOW",,,"PSY, SRG, SNOWBOARD",,,"FAA CWO",,,,,,,,,,,,,,,,,,,,,,,,,,,"30.26","40","58","0.00",,"+0.07","8","51","30.26","FEW:02 60 FEW:02 190 BKN:07 250","30.24","10.00","49","150",,"13",,,,,,,,,,,,,,,,,,,,,,,,,,,,,,,,,,,,,"MET13005/14/20 12:51:02 METAR KJFK 141751Z 15011KT 10SM FEW060 FEW190 BKN250 14/04 A3026 RMK AO2 SLP247 T01440044 10161 20111 58024 (BH)","FM-15","7",,,,,,,,,,,,,,,,,,,,,,,,,,,,"2009-05-01"
"74486094789","2020-05-14T13:00:00","FM-12","4",,"ESE","1.5","mi","TEMP, PRECIP, SNOW",,,"PSY, SRG, SNOWBOARD",,,"FAA CWO",,,,,,,,,,,,,,,,,,,,,,,,,,,,"40","58",,,"+0.07","8","51","30.26","57","30.23","9.94","49","150",,"13",,,,,,,,,,,,,,,,,,,,,,,,,,,,,,,,,,,,,"SYN08074486 32766 61511 10144 20044 30236 40247 58024 91751 333 10161 20100 555 91418=","FM-12","4",,,,,,,,,,,,,,,,,,,,,,,,,,,,"2009-05-01"
"74486094789","2020-05-14T13:51:00","FM-15","7",,"ESE","1.5","mi","TEMP, PRECIP, SNOW",,,"PSY, SRG, SNOWBOARD",,,"FAA CWO",,,,,,,,,,,,,,,,,,,,,,,,,,,"30.23","41","60","0.00",,,,"50","30.22","FEW:02 60 BKN:07 250","30.21","10.00","51","150",,"11",,,,,,,,,,,,,,,,,,,,,,,,,,,,,,,,,,,,,"MET10505/14/20 13:51:02 METAR KJFK 141851Z 15010KT 10SM FEW060 BKN250 16/05 A3023 RMK AO2 SLP235 T01560050 (RR)","FM-15","7",,,,,,,,,,,,,,,,,,,,,,,,,,,,"2009-05-01"
"74486094789","2020-05-14T14:51:00","FM-15","7",,"ESE","1.5","mi","TEMP, PRECIP, SNOW",,,"PSY, SRG, SNOWBOARD",,,"FAA CWO",,,,,,,,,,,,,,,,,,,,,,,,,,,"30.19","47","59","0.00",,,,"64","30.19","FEW:02 60 FEW:02 150 SCT:04 250","30.16","10.00","53","160",,"9",,,,,,,,,,,,,,,,,,,,,,,,,,,,,,,,,,,,,"MET11205/14/20 14:51:02 METAR KJFK 141951Z 16008KT 10SM FEW060 FEW150 SCT250 15/08 A3019 RMK AO2 SLP223 T01500083 (RR)","FM-15","7",,,,,,,,,,,,,,,,,,,,,,,,,,,,"2009-05-01"
"74486094789","2020-05-14T15:51:00","FM-15","7",,"ESE","1.5","mi","TEMP, PRECIP, SNOW",,,"PSY, SRG, SNOWBOARD",,,"FAA CWO",,,,,,,,,,,,,,,,,,,,,,,,,,,"30.16","49","60","0.00",,"+0.11","6","67","30.15","FEW:02 60 FEW:02 150 SCT:04 250","30.14","10.00","54","140",,"11",,,,,,,,,,,,,,,,,,,,,,,,,,,,,,,,,,,,,"MET11805/14/20 15:51:02 METAR KJFK 142051Z 14010KT 10SM FEW060 FEW150 SCT250 16/09 A3016 RMK AO2 SLP211 T01560094 56036 (RR)","FM-15","7",,,,,,,,,,,,,,,,,,,,,,,,,,,,"2009-05-01"
"74486094789","2020-05-14T16:00:00","FM-12","4",,"ESE","1.5","mi","TEMP, PRECIP, SNOW",,,"PSY, SRG, SNOWBOARD",,,"FAA CWO",,,,,,,,,,,,,,,,,,,,,,,,,,,,"49","60",,,"+0.11","6","67","30.15","57","30.13","9.94","54","140",,"11",,,,,,,,,,,,,,,,,,,,,,,,,,,,,,,,,,,,,"SYN06474486 32766 41410 10156 20094 30202 40211 56036 92051 555 91421=","FM-12","4",,,,,,,,,,,,,,,,,,,,,,,,,,,,"2009-05-01"
"74486094789","2020-05-14T16:51:00","FM-15","7",,"ESE","1.5","mi","TEMP, PRECIP, SNOW",,,"PSY, SRG, SNOWBOARD",,,"FAA CWO",,,,,,,,,,,,,,,,,,,,,,,,,,,"30.13","48","60","0.00",,,,"65","30.13","FEW:02 60 SCT:04 150 SCT:04 250","30.11","10.00","54","160","22","16",,,,,,,,,,,,,,,,,,,,,,,,,,,,,,,,,,,,,"MET11505/14/20 16:51:02 METAR KJFK 142151Z 16014G19KT 10SM FEW060 SCT150 SCT250 16/09 A3013 RMK AO2 SLP202 T01560089 (RR)","FM-15","7",,,,,,,,,,,,,,,,,,,,,,,,,,,,"2009-05-01"
"74486094789","2020-05-14T17:51:00","FM-15","7",,"ESE","1.5","mi","TEMP, PRECIP, SNOW",,,"PSY, SRG, SNOWBOARD",,,"FAA CWO",,,,,,,,,,,,,,,,,,,,,,,,,,,"30.12","49","58","0.00",,,,"72","30.11","BKN:07 70 BKN:07 110 BKN:07 210","30.09","10.00","53","180","26","16",,,,,,,,,,,,,,,,,,,,,,,,,,,,,,,,,,,,,"MET11505/14/20 17:51:02 METAR KJFK 142251Z 18014G23KT 10SM BKN070 BKN110 BKN210 14/09 A3012 RMK AO2 SLP197 T01440094 (RR)","FM-15","7",,,,,,,,,,,,,,,,,,,,,,,,,,,,"2009-05-01"
"74486094789","2020-05-14T18:51:00","FM-15","7",,"ESE","1.5","mi","TEMP, PRECIP, SNOW",,,"PSY, SRG, SNOWBOARD",,,"FAA CWO",,,,,,,,,,,,,,,,,,,,,,,,,,,"30.10","50","57","0.00",,"+0.05","6","78","30.10","SCT:04 60 BKN:07 100 BKN:07 250","30.08","10.00","53","190","26","22",,,,,,,,,,,,,,,,,,,,,,,,,,,,,,,,,,,,,"MET13305/14/20 18:51:02 METAR KJFK 142351Z 19019G23KT 10SM SCT060 BKN100 BKN250 14/10 A3010 RMK AO2 SLP194 T01390100 10161 20139 56018 (RR)","FM-15","7",,,,,,,,,,,,,,,,,,,,,,,,,,,,"2009-05-01"
"74486094789","2020-05-14T19:00:00","FM-12","4",,"ESE","1.5","mi","TEMP, PRECIP, SNOW",,,"PSY, SRG, SNOWBOARD",,,"FAA CWO",,,,,,,,,,,,,,,,,,,,,,,,,,,,"50","57",,,"+0.05","6","78","30.10","57","30.07","9.94","53","190",,"22",,,,,,,,,,,,,,,,,,,,,,,,,,,,,,,,,,,,,"SYN08674486 32766 61919 10139 20100 30182 40194 56018 92351 333 10161 20044 91023 555 91500=","FM-12","4",,,,,,,,,,,,,,,,,,,,,,,,,,,,"2009-05-01"
"74486094789","2020-05-14T19:51:00","FM-15","7",,"ESE","1.5","mi","TEMP, PRECIP, SNOW",,,"PSY, SRG, SNOWBOARD",,,"FAA CWO",,,,,,,,,,,,,,,,,,,,,,,,,,,"30.10","52","56","0.00",,,,"87","30.09","SCT:04 50 BKN:07 140 BKN:07 250","30.08","10.00","54","190",,"20",,,,,,,,,,,,,,,,,,,,,,,,,,,,,,,,,,,,,"MET10705/14/20 19:51:01 METAR KJFK 150051Z 19017KT 10SM SCT050 BKN140 BKN250 13/11 A3010 RMK AO2 SLP191 T01330111","FM-15","7",,,,,,,,,,,,,,,,,,,,,,,,,,,,"2009-05-01"
"74486094789","2020-05-14T20:51:00","FM-15","7",,"ESE","1.5","mi","TEMP, PRECIP, SNOW",,,"PSY, SRG, SNOWBOARD",,,"FAA CWO",,,,,,,,,,,,,,,,,,,,,,,,,,,"30.10","53","55","T",,,,"93","30.09","FEW:02 50 BKN:07 110 BKN:07 140","30.08","10.00","54","190",,"16",,,,,,,,,,,,,,,,,,,,,,,,,,,,,,,,,,,,,"MET12205/14/20 20:51:01 METAR KJFK 150151Z 19014KT 10SM FEW050 BKN110 BKN140 13/12 A3010 RMK AO2 RAB22E31 SLP191 P0000 T01280117","FM-15","7",,,,,,,,,,,,,,,,,,,,,,,,,,,,"2009-05-01"
"74486094789","2020-05-14T21:51:00","FM-15","7",,"ESE","1.5","mi","TEMP, PRECIP, SNOW",,,"PSY, SRG, SNOWBOARD",,,"FAA CWO",,,,,,,,,,,,,,,,,,,,,,,,,,,"30.09","53","53","0.00",,"+0.02","8","100","30.09","FEW:02 50 BKN:07 140 BKN:07 250","30.06","10.00","53","190",,"9",,,,,,,,,,,,,,,,,,,,,,,,,,,,,,,,,,,,,"MET11905/14/20 21:51:01 METAR KJFK 150251Z 19008KT 10SM FEW050 BKN140 BKN250 12/12 A3009 RMK AO2 SLP188 60000 T01170117 58006","FM-15","7",,,,,,,,,,,,,,,,,,,,,,,,,,,,"2009-05-01"
"74486094789","2020-05-14T22:00:00","FM-12","4",,"ESE","1.5","mi","TEMP, PRECIP, SNOW",,,"PSY, SRG, SNOWBOARD",,,"FAA CWO",,,,,,,,,,,,,,,,,,,,,,,,,,,,"53","53",,,"+0.02","8","100","30.09","57","30.06","9.94","53","190",,"9",,,,,,,,,,,,,,,,,,,,,,,,,,,,,,,,,,,,,"SYN07074486 12766 61908 10117 20117 30178 40188 58006 69907 90251 555 91503=","FM-12","4",,,,,,,,,,,,,,,,,,,,,,,,,,,,"2009-05-01"
"74486094789","2020-05-14T22:51:00","FM-15","7",,"ESE","1.5","mi","TEMP, PRECIP, SNOW",,,"PSY, SRG, SNOWBOARD",,,"FAA CWO",,,,,,,,,,,,,,,,,,,,,,,,,,,"30.07","54","55","T",,,,"96","30.07","FEW:02 65 BKN:07 120 OVC:08 250","30.04","10.00","54","190",,"7",,,,,,,,,,,,,,,,,,,,,,,,,,,,,,,,,,,,,"MET12205/14/20 22:51:02 METAR KJFK 150351Z 19006KT 10SM FEW065 BKN120 OVC250 13/12 A3007 RMK AO2 RAB09E23 SLP182 P0000 T01280122","FM-15","7",,,,,,,,,,,,,,,,,,,,,,,,,,,,"2009-05-01"
"74486094789","2020-05-14T23:51:00","FM-15","7",,"ESE","1.5","mi","TEMP, PRECIP, SNOW",,,"PSY, SRG, SNOWBOARD",,,"FAA CWO",,,,,,,,,,,,,,,,,,,,,,,,,,,"30.04","54","55","0.00",,,,"96","30.04","SCT:04 50 SCT:04 120 BKN:07 130","30.01","10.00","54","180",,"7",,,,,,,,,,,,,,,,,,,,,,,,,,,,,,,,,,,,,"MET11705/14/20 23:51:02 METAR KJFK 150451Z 18006KT 10SM SCT050 SCT120 BKN130 13/12 A3004 RMK AO2 SLP173 T01280122 401610044","FM-15","7",,,,,,,,,,,,,,,,,,,,,,,,,,,,"2009-05-01"
"74486094789","2020-05-14T23:59:00","SOD  ","6",,"ESE","1.5","mi","TEMP, PRECIP, SNOW",,,"PSY, SRG, SNOWBOARD",,,"FAA CWO",,,,"43","51","70","30.23","30.23","49","9.5","0","-9.0","14","61","40","190","29","T","0","0.0","190","24",,,,,,,,,,,,,,,,,,,,,,,,,,,,,,,,,,,,,,,,,,,,,,,,,,,,,,,,,"SOD75624 HR PRECIPITATION (IN):    T SNOW DEPTH (IN):0     24 HR SNOWFALL (IN):0.0  WEATHER(CODE):1  24 HR MAX TEMP (F): 6124 HR MIN TEMP (F): 40AVERAGE STATION PRESSURE:30.230 MINIMUM SEA LEVEL PRESSURE:30.04 TIME OF OCCURRENCE:2359 PEAK WIND SPEED (MPH): 29 PEAK WIND DIR (DEG):190 PEAK WIND TIME (LST):      FASTEST 2MIN SPEED (MPH): 24FASTEST 2MIN DIR (DEG):190 FASTEST 2MIN TIME (LST):     AVERAGE WIND SPEED (MPH): 9.5 24 HR AVG TEMP (F): 51DEPART FROM NORMAL: -9  HEATING DEGREE DAYS: 14 COOLING DEGREE DAYS:  0 LATEST DAY MAX TEMP (0700-1900 LST):61  LATEST NIGHT MIN TEMP(1900-0800 LST):40 HOURLY INCREMENTAL PRECIPITATION VALUES (IN):.00 0.00 0.00 0.00 0.00 0.00 0.00 0.00 0.00 0.00 0.00 0.00 0.00 0.00 0.00 0.00 0.00 0.00 0.00 0.00 T    0.00 T    0.00","SOD  ","6",,,,,,,,,,,,,,,,,,,,,,,,,"0438","1905",,"2009-05-01"
"74486094789","2020-05-15T00:51:00","FM-15","7",,"ESE","1.5","mi","TEMP, PRECIP, SNOW",,,"PSY, SRG, SNOWBOARD",,,"FAA CWO",,,,,,,,,,,,,,,,,,,,,,,,,,,"30.02","55","57","T","-RA:02 |RA |RA","+0.06","8","93","30.02","BKN:07 70 OVC:08 120","30.00","10.00","56","190",,"8",,,,,,,,,,,,,,,,,,,,,,,,,,,,,,,,,,,,,"MET15105/15/20 00:51:02 METAR KJFK 150551Z 19007KT 10SM -RA BKN070 OVC120 14/13 A3002 RMK AO2 RAB12E21B43 SLP166 P0000 60000 T01390128 10139 20117 58022 (JC)","FM-15","7",,,,,,,,,,,,,,,,,,,,,,,,,,,,"2009-05-01"
"74486094789","2020-05-15T01:00:00","FM-12","4",,"ESE","1.5","mi","TEMP, PRECIP, SNOW",,,"PSY, SRG, SNOWBOARD",,,"FAA CWO",,,,,,,,,,,,,,,,,,,,,,,,,,,,"55","57",,"||RA","+0.06","8","93","30.02","74","29.99","9.94","56","190",,"8",,,,,,,,,,,,,,,,,,,,,,,,,,,,,,,,,,,,,"SYN09274486 11866 81907 10139 20128 30155 40166 58022 69901 761// 90551 333 10139 20044 555 91506=","FM-12","4",,,,,,,,,,,,,,,,,,,,,,,,,,,,"2009-05-01"
"74486094789","2020-05-15T01:51:00","FM-15","7",,"ESE","1.5","mi","TEMP, PRECIP, SNOW",,,"PSY, SRG, SNOWBOARD",,,"FAA CWO",,,,,,,,,,,,,,,,,,,,,,,,,,,"30.00","54","55","T",,,,"96","29.99","FEW:02 95 SCT:04 120 OVC:08 250","29.98","10.00","54","180",,"7",,,,,,,,,,,,,,,,,,,,,,,,,,,,,,,,,,,,,"MET12405/15/20 01:51:02 METAR KJFK 150651Z 18006KT 10SM FEW095 SCT120 OVC250 13/12 A3000 RMK AO2 RAE00 SLP157 P0000 T01280122 (JC)","FM-15","7",,,,,,,,,,,,,,,,,,,,,,,,,,,,"2009-05-01"
"74486094789","2020-05-15T02:51:00","FM-15","7",,"ESE","1.5","mi","TEMP, PRECIP, SNOW",,,"PSY, SRG, SNOWBOARD",,,"FAA CWO",,,,,,,,,,,,,,,,,,,,,,,,,,,"29.99","55","55","0.01",,,,"100","29.99","BKN:07 70 OVC:08 120","29.96","10.00","55","170",,"3",,,,,,,,,,,,,,,,,,,,,,,,,,,,,,,,,,,,,"MET12005/15/20 02:51:02 METAR KJFK 150751Z 17003KT 10SM BKN070 OVC120 13/13 A2999 RMK AO2 RAB32E42 SLP155 P0001 T01280128 (JC)","FM-15","7",,,,,,,,,,,,,,,,,,,,,,,,,,,,"2009-05-01"
"74486094789","2020-05-15T03:51:00","FM-15","7",,"ESE","1.5","mi","TEMP, PRECIP, SNOW",,,"PSY, SRG, SNOWBOARD",,,"FAA CWO",,,,,,,,,,,,,,,,,,,,,,,,,,,"29.98","55","55","0.01","-RA:02 |RA |RA","+0.04","6","100","29.98","OVC:08 100","29.96","9.00","55","000",,"0",,,,,,,,,,,,,,,,,,,,,,,,,,,,,,,,,,,,,"MET12505/15/20 03:51:02 METAR KJFK 150851Z 00000KT 9SM -RA OVC100 13/13 A2998 RMK AO2 RAB43 SLP152 P0000 60001 T01280128 56013 (JC)","FM-15","7",,,,,,,,,,,,,,,,,,,,,,,,,,,,"2009-05-01"
"74486094789","2020-05-15T04:00:00","FM-12","4",,"ESE","1.5","mi","TEMP, PRECIP, SNOW",,,"PSY, SRG, SNOWBOARD",,,"FAA CWO",,,,,,,,,,,,,,,,,,,,,,,,,,,,"55","55",,"||RA","+0.04","6","100","29.98",,"29.95","8.70","55","000",,"0",,,,,,,,,,,,,,,,,,,,,,,,,,,,,,,,,,,,,"SYN07674486 11964 80000 10128 20128 30141 40152 56013 69937 761// 90851 555 91509=","FM-12","4",,,,,,,,,,,,,,,,,,,,,,,,,,,,"2009-05-01"
"74486094789","2020-05-15T04:51:00","FM-15","7",,"ESE","1.5","mi","TEMP, PRECIP, SNOW",,,"PSY, SRG, SNOWBOARD",,,"FAA CWO",,,,,,,,,,,,,,,,,,,,,,,,,,,"29.99","56","56","0.01",,,,"100","29.98","FEW:02 80 BKN:07 160 BKN:07 250","29.96","10.00","56","000",,"0",,,,,,,,,,,,,,,,,,,,,,,,,,,,,,,,,,,,,"MET12405/15/20 04:51:02 METAR KJFK 150951Z 00000KT 10SM FEW080 BKN160 BKN250 13/13 A2999 RMK AO2 RAE26 SLP154 P0002 T01330133 (JC)","FM-15","7",,,,,,,,,,,,,,,,,,,,,,,,,,,,"2009-05-01"
"74486094789","2020-05-15T05:51:00","FM-15","7",,"ESE","1.5","mi","TEMP, PRECIP, SNOW",,,"PSY, SRG, SNOWBOARD",,,"FAA CWO",,,,,,,,,,,,,,,,,,,,,,,,,,,"30.01","57","58","0.00",,,,"97","30.00","FEW:02 70 BKN:07 100 BKN:07 160","29.98","10.00","57","210",,"6",,,,,,,,,,,,,,,,,,,,,,,,,,,,,,,,,,,,,"MET11205/15/20 05:51:02 METAR KJFK 151051Z 21005KT 10SM FEW070 BKN100 BKN160 14/14 A3001 RMK AO2 SLP160 T01440139 (JC)","FM-15","7",,,,,,,,,,,,,,,,,,,,,,,,,,,,"2009-05-01"
"74486094789","2020-05-15T06:51:00","FM-15","7",,"ESE","1.5","mi","TEMP, PRECIP, SNOW",,,"PSY, SRG, SNOWBOARD",,,"FAA CWO",,,,,,,,,,,,,,,,,,,,,,,,,,,"30.01","59","60","0.00",,"-0.03","3","96","30.01","BKN:07 65 BKN:07 95","29.98","10.00","59","240",,"8",,,,,,,,,,,,,,,,,,,,,,,,,,,,,,,,,,,,,"MET13505/15/20 06:51:02 METAR KJFK 151151Z 24007KT 10SM BKN065 BKN095 16/15 A3001 RMK AO2 SLP162 60003 70003 T01560150 10156 20128 53010 (BH)","FM-15","7",,,,,,,,,,,,,,,,,,,,,,,,,,,,"2009-05-01"
"74486094789","2020-05-15T07:00:00","FM-12","4",,"ESE","1.5","mi","TEMP, PRECIP, SNOW",,,"PSY, SRG, SNOWBOARD",,,"FAA CWO",,,,,,,,,,,,,,,,,,,,,,,,,,,,"59","60",,,"-0.03","3","96","30.01","57","29.98","9.94","59","240",,"8",,,,,,,,,,,,,,,,,,,,,,,,,,,,,,,,,,,,,"SYN09274486 12766 62407 10156 20150 30151 40162 53010 69981 91151 333 10161 20117 70008 555 91512=","FM-12","4",,,,,,,,,,,,,,,,,,,,,,,,,,,,"2009-05-01"
"74486094789","2020-05-15T07:51:00","FM-15","7",,"ESE","1.5","mi","TEMP, PRECIP, SNOW",,,"PSY, SRG, SNOWBOARD",,,"FAA CWO",,,,,,,,,,,,,,,,,,,,,,,,,,,"30.02","60","61","0.00",,,,"97","30.01","SCT:04 65 BKN:07 110","30.00","10.00","60","250",,"7",,,,,,,,,,,,,,,,,,,,,,,,,,,,,,,,,,,,,"MET11505/15/20 07:51:02 METAR KJFK 151251Z 25006KT 10SM SCT065 BKN110 16/16 A3002 RMK AO2 SLP164 VCSH SW-W T01610156 (BH)","FM-15","7",,,,,,,,,,,,,,,,,,,,,,,,,,,,"2009-05-01"
"74486094789","2020-05-15T08:51:00","FM-15","7",,"ESE","1.5","mi","TEMP, PRECIP, SNOW",,,"PSY, SRG, SNOWBOARD",,,"FAA CWO",,,,,,,,,,,,,,,,,,,,,,,,,,,"30.02","63","68","0.00",,,,"84","30.01","FEW:02 75 SCT:04 100 BKN:07 250","30.00","10.00","65","240",,"14",,,,,,,,,,,,,,,,,,,,,,,,,,,,,,,,,,,,,"MET11205/15/20 08:51:02 METAR KJFK 151351Z 24012KT 10SM FEW075 SCT100 BKN250 20/17 A3002 RMK AO2 SLP164 T02000172 (BH)","FM-15","7",,,,,,,,,,,,,,,,,,,,,,,,,,,,"2009-05-01"
"74486094789","2020-05-15T09:51:00","FM-15","7",,"ESE","1.5","mi","TEMP, PRECIP, SNOW",,,"PSY, SRG, SNOWBOARD",,,"FAA CWO",,,,,,,,,,,,,,,,,,,,,,,,,,,"29.99","63","74","0.00",,"+0.02","8","69","29.99","FEW:02 80 FEW:02 100 FEW:02 250","29.96","10.00","67","240",,"10",,,,,,,,,,,,,,,,,,,,,,,,,,,,,,,,,,,,,"MET11805/15/20 09:51:02 METAR KJFK 151451Z 24009KT 10SM FEW080 FEW100 FEW250 23/17 A2999 RMK AO2 SLP156 T02330172 58006 (BH)","FM-15","7",,,,,,,,,,,,,,,,,,,,,,,,,,,,"2009-05-01"
"74486094789","2020-05-15T10:00:00","FM-12","4",,"ESE","1.5","mi","TEMP, PRECIP, SNOW",,,"PSY, SRG, SNOWBOARD",,,"FAA CWO",,,,,,,,,,,,,,,,,,,,,,,,,,,,"63","74",,,"+0.02","8","69","29.99","74","29.96","9.94","67","240",,"10",,,,,,,,,,,,,,,,,,,,,,,,,,,,,,,,,,,,,"SYN06474486 32866 22409 10233 20172 30144 40156 58006 91451 555 91515=","FM-12","4",,,,,,,,,,,,,,,,,,,,,,,,,,,,"2009-05-01"
"74486094789","2020-05-15T10:51:00","FM-15","7",,"ESE","1.5","mi","TEMP, PRECIP, SNOW",,,"PSY, SRG, SNOWBOARD",,,"FAA CWO",,,,,,,,,,,,,,,,,,,,,,,,,,,"29.98","62","72","0.00",,,,"71","29.98","SCT:04 110 BKN:07 140 BKN:07 250","29.96","10.00","66","230",,"14",,,,,,,,,,,,,,,,,,,,,,,,,,,,,,,,,,,,,"MET11205/15/20 10:51:02 METAR KJFK 151551Z 23012KT 10SM SCT110 BKN140 BKN250 22/17 A2998 RMK AO2 SLP152 T02220167 (BH)","FM-15","7",,,,,,,,,,,,,,,,,,,,,,,,,,,,"2009-05-01"
"74486094789","2020-05-15T11:51:00","FM-15","7",,"ESE","1.5","mi","TEMP, PRECIP, SNOW",,,"PSY, SRG, SNOWBOARD",,,"FAA CWO",,,,,,,,,,,,,,,,,,,,,,,,,,,"29.95","64","76","0.00",,,,"67","29.95","FEW:02 50 SCT:04 140 BKN:07 250","29.93","10.00","68","230",,"16",,,,,,,,,,,,,,,,,,,,,,,,,,,,,,,,,,,,,"MET11205/15/20 11:51:02 METAR KJFK 151651Z 23014KT 10SM FEW050 SCT140 BKN250 24/18 A2995 RMK AO2 SLP143 T02440178 (BH)","FM-15","7",,,,,,,,,,,,,,,,,,,,,,,,,,,,"2009-05-01"
"74486094789","2020-05-15T12:51:00","FM-15","7",,"ESE","1.5","mi","TEMP, PRECIP, SNOW",,,"PSY, SRG, SNOWBOARD",,,"FAA CWO",,,,,,,,,,,,,,,,,,,,,,,,,,,"29.94","62","75","0.00",,"+0.05","7","64","29.94","FEW:02 50 SCT:04 140 SCT:04 250","29.91","10.00","67","190",,"13",,,,,,,,,,,,,,,,,,,,,,,,,,,,,,,,,,,,,"MET13005/15/20 12:51:02 METAR KJFK 151751Z 19011KT 10SM FEW050 SCT140 SCT250 24/17 A2994 RMK AO2 SLP139 T02390167 10256 20156 57018 (BH)","FM-15","7",,,,,,,,,,,,,,,,,,,,,,,,,,,,"2009-05-01"
"74486094789","2020-05-15T13:00:00","FM-12","4",,"ESE","1.5","mi","TEMP, PRECIP, SNOW",,,"PSY, SRG, SNOWBOARD",,,"FAA CWO",,,,,,,,,,,,,,,,,,,,,,,,,,,,"62","75",,,"+0.05","7","64","29.94","57","29.91","9.94","67","190",,"13",,,,,,,,,,,,,,,,,,,,,,,,,,,,,,,,,,,,,"SYN08074486 32766 41911 10239 20167 30128 40139 57018 91751 333 10256 20139 555 91518=","FM-12","4",,,,,,,,,,,,,,,,,,,,,,,,,,,,"2009-05-01"
"74486094789","2020-05-15T13:51:00","FM-15","7",,"ESE","1.5","mi","TEMP, PRECIP, SNOW",,,"PSY, SRG, SNOWBOARD",,,"FAA CWO",,,,,,,,,,,,,,,,,,,,,,,,,,,"29.92","61","74","0.00",,,,"64","29.91","FEW:02 50 FEW:02 140 BKN:07 250","29.90","10.00","66","180",,"15",,,,,,,,,,,,,,,,,,,,,,,,,,,,,,,,,,,,,"MET11205/15/20 13:51:02 METAR KJFK 151851Z 18013KT 10SM FEW050 FEW140 BKN250 23/16 A2992 RMK AO2 SLP130 T02330161 (RR)","FM-15","7",,,,,,,,,,,,,,,,,,,,,,,,,,,,"2009-05-01"
"74486094789","2020-05-15T14:51:00","FM-15","7",,"ESE","1.5","mi","TEMP, PRECIP, SNOW",,,"PSY, SRG, SNOWBOARD",,,"FAA CWO",,,,,,,,,,,,,,,,,,,,,,,,,,,"29.89","59","71","0.00",,,,"66","29.89","FEW:02 50 BKN:07 250","29.87","10.00","64","170",,"14",,,,,,,,,,,,,,,,,,,,,,,,,,,,,,,,,,,,,"MET10505/15/20 14:51:02 METAR KJFK 151951Z 17012KT 10SM FEW050 BKN250 22/15 A2989 RMK AO2 SLP123 T02170150 (RR)","FM-15","7",,,,,,,,,,,,,,,,,,,,,,,,,,,,"2009-05-01"
"74486094789","2020-05-15T15:51:00","FM-15","7",,"ESE","1.5","mi","TEMP, PRECIP, SNOW",,,"PSY, SRG, SNOWBOARD",,,"FAA CWO",,,,,,,,,,,,,,,,,,,,,,,,,,,"29.87","59","71","0.00",,"+0.07","6","66","29.87","FEW:02 50 SCT:04 250","29.85","10.00","64","180",,"14",,,,,,,,,,,,,,,,,,,,,,,,,,,,,,,,,,,,,"MET11105/15/20 15:51:02 METAR KJFK 152051Z 18012KT 10SM FEW050 SCT250 22/15 A2987 RMK AO2 SLP114 T02170150 56025 (RR)","FM-15","7",,,,,,,,,,,,,,,,,,,,,,,,,,,,"2009-05-01"
"74486094789","2020-05-15T16:00:00","FM-12","4",,"ESE","1.5","mi","TEMP, PRECIP, SNOW",,,"PSY, SRG, SNOWBOARD",,,"FAA CWO",,,,,,,,,,,,,,,,,,,,,,,,,,,,"59","71",,,"+0.07","6","66","29.87","57","29.84","9.94","64","180",,"14",,,,,,,,,,,,,,,,,,,,,,,,,,,,,,,,,,,,,"SYN06474486 32766 41812 10217 20150 30104 40114 56025 92051 555 91521=","FM-12","4",,,,,,,,,,,,,,,,,,,,,,,,,,,,"2009-05-01"
"74486094789","2020-05-15T16:51:00","FM-15","7",,"ESE","1.5","mi","TEMP, PRECIP, SNOW",,,"PSY, SRG, SNOWBOARD",,,"FAA CWO",,,,,,,,,,,,,,,,,,,,,,,,,,,"29.85","58","68","0.00",,,,"70","29.85","FEW:02 50 FEW:02 80 SCT:04 250","29.83","10.00","62","180",,"16",,,,,,,,,,,,,,,,,,,,,,,,,,,,,,,,,,,,,"MET11205/15/20 16:51:02 METAR KJFK 152151Z 18014KT 10SM FEW050 FEW080 SCT250 20/14 A2985 RMK AO2 SLP108 T02000144 (RR)","FM-15","7",,,,,,,,,,,,,,,,,,,,,,,,,,,,"2009-05-01"
"74486094789","2020-05-15T17:51:00","FM-15","7",,"ESE","1.5","mi","TEMP, PRECIP, SNOW",,,"PSY, SRG, SNOWBOARD",,,"FAA CWO",,,,,,,,,,,,,,,,,,,,,,,,,,,"29.83","57","66","0.00",,,,"73","29.83","FEW:02 50 SCT:04 250","29.80","10.00","61","190",,"17",,,,,,,,,,,,,,,,,,,,,,,,,,,,,,,,,,,,,"MET10505/15/20 17:51:02 METAR KJFK 152251Z 19015KT 10SM FEW050 SCT250 19/14 A2983 RMK AO2 SLP101 T01890139 (RR)","FM-15","7",,,,,,,,,,,,,,,,,,,,,,,,,,,,"2009-05-01"
"74486094789","2020-05-15T18:51:00","FM-15","7",,"ESE","1.5","mi","TEMP, PRECIP, SNOW",,,"PSY, SRG, SNOWBOARD",,,"FAA CWO",,,,,,,,,,,,,,,,,,,,,,,,,,,"29.83","58","64","0.00",,"+0.04","6","81","29.83","FEW:02 50 FEW:02 80 SCT:04 250","29.80","10.00","60","190",,"17",,,,,,,,,,,,,,,,,,,,,,,,,,,,,,,,,,,,,"MET14105/15/20 18:51:02 METAR KJFK 152351Z 19015KT 10SM FEW050 FEW080 SCT250 18/14 A2983 RMK AO2 SLP100 CB DSNT NW T01780144 10233 20178 56014 (RR)","FM-15","7",,,,,,,,,,,,,,,,,,,,,,,,,,,,"2009-05-01"
"74486094789","2020-05-15T19:00:00","FM-12","4",,"ESE","1.5","mi","TEMP, PRECIP, SNOW",,,"PSY, SRG, SNOWBOARD",,,"FAA CWO",,,,,,,,,,,,,,,,,,,,,,,,,,,,"58","64",,,"+0.04","6","81","29.83","57","29.80","9.94","60","190",,"17",,,,,,,,,,,,,,,,,,,,,,,,,,,,,,,,,,,,,"SYN08074486 32766 41915 10178 20144 30090 40100 56014 92351 333 10256 20128 555 91600=","FM-12","4",,,,,,,,,,,,,,,,,,,,,,,,,,,,"2009-05-01"
"74486094789","2020-05-15T19:51:00","FM-15","7",,"ESE","1.5","mi","TEMP, PRECIP, SNOW",,,"PSY, SRG, SNOWBOARD",,,"FAA CWO",,,,,,,,,,,,,,,,,,,,,,,,,,,"29.81","58","65","0.00",,,,"78","29.81","FEW:02 50 FEW:02 80 SCT:04 250","29.78","10.00","61","190",,"18",,,,,,,,,,,,,,,,,,,,,,,,,,,,,,,,,,,,,"MET13705/15/20 19:51:01 METAR KJFK 160051Z 19016KT 10SM FEW050 FEW080 SCT250 18/14 A2981 RMK AO2 SLP096 OCNL LTGIC DSNT NW CB DSNT NW T01830144","FM-15","7",,,,,,,,,,,,,,,,,,,,,,,,,,,,"2009-05-01"
"74486094789","2020-05-15T20:51:00","FM-15","7",,"ESE","1.5","mi","TEMP, PRECIP, SNOW",,,"PSY, SRG, SNOWBOARD",,,"FAA CWO",,,,,,,,,,,,,,,,,,,,,,,,,,,"29.85","58","63","0.00",,,,"84","29.84","SCT:04 50 SCT:04 140","29.83","10.00","60","190",,"16",,,,,,,,,,,,,,,,,,,,,,,,,,,,,,,,,,,,,"MET10005/15/20 20:51:01 METAR KJFK 160151Z 19014KT 10SM SCT050 SCT140 17/14 A2985 RMK AO2 SLP106 T01720144","FM-15","7",,,,,,,,,,,,,,,,,,,,,,,,,,,,"2009-05-01"
"74486094789","2020-05-15T21:51:00","FM-15","7",,"ESE","1.5","mi","TEMP, PRECIP, SNOW",,,"PSY, SRG, SNOWBOARD",,,"FAA CWO",,,,,,,,,,,,,,,,,,,,,,,,,,,"29.86","58","61","0.00",,"-0.04","3","90","29.86","FEW:02 40 BKN:07 80 BKN:07 110","29.83","10.00","59","180",,"5",,,,,,,,,,,,,,,,,,,,,,,,,,,,,,,,,,,,,"MET11305/15/20 21:51:01 METAR KJFK 160251Z 18004KT 10SM FEW040 BKN080 BKN110 16/14 A2986 RMK AO2 SLP112 T01610144 53012","FM-15","7",,,,,,,,,,,,,,,,,,,,,,,,,,,,"2009-05-01"
"74486094789","2020-05-15T22:00:00","FM-12","4",,"ESE","1.5","mi","TEMP, PRECIP, SNOW",,,"PSY, SRG, SNOWBOARD",,,"FAA CWO",,,,,,,,,,,,,,,,,,,,,,,,,,,,"58","61",,,"-0.04","3","90","29.86","41","29.83","9.94","59","180",,"5",,,,,,,,,,,,,,,,,,,,,,,,,,,,,,,,,,,,,"SYN06474486 32666 61804 10161 20144 30100 40112 53012 90251 555 91603=","FM-12","4",,,,,,,,,,,,,,,,,,,,,,,,,,,,"2009-05-01"
"74486094789","2020-05-15T22:51:00","FM-15","7",,"ESE","1.5","mi","TEMP, PRECIP, SNOW",,,"PSY, SRG, SNOWBOARD",,,"FAA CWO",,,,,,,,,,,,,,,,,,,,,,,,,,,"29.87","59","62","T",,,,"90","29.87","FEW:02 50 BKN:07 75 BKN:07 90","29.85","10.00","60","210",,"7",,,,,,,,,,,,,,,,,,,,,,,,,,,,,,,,,,,,,"MET12205/15/20 22:51:02 METAR KJFK 160351Z 21006KT 10SM FEW050 BKN075 BKN090 17/15 A2987 RMK AO2 RAB08E24 SLP115 P0000 T01670150","FM-15","7",,,,,,,,,,,,,,,,,,,,,,,,,,,,"2009-05-01"
"74486094789","2020-05-15T23:51:00","FM-15","7",,"ESE","1.5","mi","TEMP, PRECIP, SNOW",,,"PSY, SRG, SNOWBOARD",,,"FAA CWO",,,,,,,,,,,,,,,,,,,,,,,,,,,"29.86","60","63","0.00",,,,"90","29.86","SCT:04 60 BKN:07 90 OVC:08 110","29.83","10.00","61","000",,"0",,,,,,,,,,,,,,,,,,,,,,,,,,,,,,,,,,,,,"MET11705/15/20 23:51:02 METAR KJFK 160451Z 00000KT 10SM SCT060 BKN090 OVC110 17/16 A2986 RMK AO2 SLP112 T01720156 402560128","FM-15","7",,,,,,,,,,,,,,,,,,,,,,,,,,,,"2009-05-01"
"74486094789","2020-05-15T23:59:00","SOD  ","6",,"ESE","1.5","mi","TEMP, PRECIP, SNOW",,,"PSY, SRG, SNOWBOARD",,,"FAA CWO",,,,"59","67","82","29.93","29.92","61","10.2","2","6.7","0","78","55","190","26","0.03","0","0.0","190","22","RA",,,,,,,,,,,,,,,,,,,,,,,,,,,,,,,,,,,,,,,,,,,,,,,,,,,,,,,,"SOD75624 HR PRECIPITATION (IN): 0.03 SNOW DEPTH (IN):0     24 HR SNOWFALL (IN):0.0  WEATHER(CODE):1  24 HR MAX TEMP (F): 7824 HR MIN TEMP (F): 55AVERAGE STATION PRESSURE:29.920 MINIMUM SEA LEVEL PRESSURE:29.81 TIME OF OCCURRENCE:1953 PEAK WIND SPEED (MPH): 26 PEAK WIND DIR (DEG):190 PEAK WIND TIME (LST):      FASTEST 2MIN SPEED (MPH): 22FASTEST 2MIN DIR (DEG):190 FASTEST 2MIN TIME (LST):     AVERAGE WIND SPEED (MPH):10.2 24 HR AVG TEMP (F): 67DEPART FROM NORMAL:  7  HEATING DEGREE DAYS:  0 COOLING DEGREE DAYS:  2 LATEST DAY MAX TEMP (0700-1900 LST):78  LATEST NIGHT MIN TEMP(1900-0800 LST):53 HOURLY INCREMENTAL PRECIPITATION VALUES (IN):    T    0.01 0.01 0.01 0.00 0.00 0.00 0.00 0.00 0.00 0.00 0.00 0.00 0.00 0.00 0.00 0.00 0.00 0.00 0.00 0.00 T    0.00","SOD  ","6",,,,,,,,,,,,,,,,,,,,,,,,,"0437","1906",,"2009-05-01"
"74486094789","2020-05-16T00:51:00","FM-15","7",,"ESE","1.5","mi","TEMP, PRECIP, SNOW",,,"PSY, SRG, SNOWBOARD",,,"FAA CWO",,,,,,,,,,,,,,,,,,,,,,,,,,,"29.87","65","69","0.01",,"-0.00","1","87","29.86","BKN:07 55 BKN:07 70 OVC:08 110","29.85","10.00","66","270",,"11",,,,,,,,,,,,,,,,,,,,,,,,,,,,,,,,,,,,,"MET15105/16/20 00:51:02 METAR KJFK 160551Z 27010KT 10SM BKN055 BKN070 OVC110 21/18 A2987 RMK AO2 RAB03E29 SLP113 P0001 60001 T02060183 10211 20156 51001 (DM)","FM-15","7",,,,,,,,,,,,,,,,,,,,,,,,,,,,"2009-05-01"
"74486094789","2020-05-16T01:00:00","FM-12","4",,"ESE","1.5","mi","TEMP, PRECIP, SNOW",,,"PSY, SRG, SNOWBOARD",,,"FAA CWO",,,,,,,,,,,,,,,,,,,,,,,,,,,,"65","69",,,"-0.00","1","87","29.86","57","29.84","9.94","66","270",,"11",,,,,,,,,,,,,,,,,,,,,,,,,,,,,,,,,,,,,"SYN08674486 12766 82710 10206 20183 30104 40113 51001 69931 90551 333 10211 20128 555 91606=","FM-12","4",,,,,,,,,,,,,,,,,,,,,,,,,,,,"2009-05-01"
"74486094789","2020-05-16T01:51:00","FM-15","7",,"ESE","1.5","mi","TEMP, PRECIP, SNOW",,,"PSY, SRG, SNOWBOARD",,,"FAA CWO",,,,,,,,,,,,,,,,,,,,,,,,,,,"29.87","64","69","T",,,,"84","29.86","FEW:02 60 BKN:07 100 OVC:08 120","29.85","10.00","66","260",,"10",,,,,,,,,,,,,,,,,,,,,,,,,,,,,,,,,,,,,"MET11205/16/20 01:51:02 METAR KJFK 160651Z 26009KT 10SM FEW060 BKN100 OVC120 21/18 A2987 RMK AO2 SLP113 T02060178 (DM)","FM-15","7",,,,,,,,,,,,,,,,,,,,,,,,,,,,"2009-05-01"
"74486094789","2020-05-16T02:51:00","FM-15","7",,"ESE","1.5","mi","TEMP, PRECIP, SNOW",,,"PSY, SRG, SNOWBOARD",,,"FAA CWO",,,,,,,,,,,,,,,,,,,,,,,,,,,"29.88","64","68","T",,,,"87","29.88","FEW:02 70 BKN:07 100 OVC:08 120","29.85","10.00","66","290",,"13",,,,,,,,,,,,,,,,,,,,,,,,,,,,,,,,,,,,,"MET12905/16/20 02:51:02 METAR KJFK 160751Z 29011KT 10SM FEW070 BKN100 OVC120 20/18 A2988 RMK AO2 RAB0658E43 SLP117 P0000 T02000178 (DM)","FM-15","7",,,,,,,,,,,,,,,,,,,,,,,,,,,,"2009-05-01"
"74486094789","2020-05-16T03:51:00","FM-15","7",,"ESE","1.5","mi","TEMP, PRECIP, SNOW",,,"PSY, SRG, SNOWBOARD",,,"FAA CWO",,,,,,,,,,,,,,,,,,,,,,,,,,,"29.89","64","67","0.01","|RA |RA","-0.02","3","91","29.89","FEW:02 27 SCT:04 65 BKN:07 110","29.87","10.00","65","310",,"13",,,,,,,,,,,,,,,,,,,,,,,,,,,,,,,,,,,,,"MET14005/16/20 03:51:02 METAR KJFK 160851Z 31011KT 10SM -RA FEW027 SCT065 BKN110 19/18 A2989 RMK AO2 RAB00 SLP121 P0001 60001 T01940178 53008 (DM)","FM-15","7",,,,,,,,,,,,,,,,,,,,,,,,,,,,"2009-05-01"
"74486094789","2020-05-16T04:00:00","FM-12","4",,"ESE","1.5","mi","TEMP, PRECIP, SNOW",,,"PSY, SRG, SNOWBOARD",,,"FAA CWO",,,,,,,,,,,,,,,,,,,,,,,,,,,,"64","67",,"||RA","-0.02","3","91","29.89","26","29.86","9.94","65","310",,"13",,,,,,,,,,,,,,,,,,,,,,,,,,,,,,,,,,,,,"SYN07674486 11566 83111 10194 20178 30111 40121 53008 69937 761// 90851 555 91609=","FM-12","4",,,,,,,,,,,,,,,,,,,,,,,,,,,,"2009-05-01"
"74486094789","2020-05-16T04:51:00","FM-15","7",,"ESE","1.5","mi","TEMP, PRECIP, SNOW",,,"PSY, SRG, SNOWBOARD",,,"FAA CWO",,,,,,,,,,,,,,,,,,,,,,,,,,,"29.92","61","66","T",,,,"84","29.92","FEW:02 30 SCT:04 60 BKN:07 110","29.90","10.00","63","320",,"14",,,,,,,,,,,,,,,,,,,,,,,,,,,,,,,,,,,,,"MET12405/16/20 04:51:02 METAR KJFK 160951Z 32012KT 10SM FEW030 SCT060 BKN110 19/16 A2992 RMK AO2 RAE11 SLP131 P0000 T01890161 (DM)","FM-15","7",,,,,,,,,,,,,,,,,,,,,,,,,,,,"2009-05-01"
"74486094789","2020-05-16T05:51:00","FM-15","7",,"ESE","1.5","mi","TEMP, PRECIP, SNOW",,,"PSY, SRG, SNOWBOARD",,,"FAA CWO",,,,,,,,,,,,,,,,,,,,,,,,,,,"29.95","59","66","0.00",,,,"78","29.95","BKN:07 55 BKN:07 110 BKN:07 150","29.93","10.00","62","330",,"16",,,,,,,,,,,,,,,,,,,,,,,,,,,,,,,,,,,,,"MET11205/16/20 05:51:02 METAR KJFK 161051Z 33014KT 10SM BKN055 BKN110 BKN150 19/15 A2995 RMK AO2 SLP143 T01890150 (RG)","FM-15","7",,,,,,,,,,,,,,,,,,,,,,,,,,,,"2009-05-01"
"74486094789","2020-05-16T06:51:00","FM-15","7",,"ESE","1.5","mi","TEMP, PRECIP, SNOW",,,"PSY, SRG, SNOWBOARD",,,"FAA CWO",,,,,,,,,,,,,,,,,,,,,,,,,,,"29.99","56","66","0.00",,"-0.10","3","70","29.98","BKN:07 60 BKN:07 150 BKN:07 250","29.96","10.00","60","330",,"16",,,,,,,,,,,,,,,,,,,,,,,,,,,,,,,,,,,,,"MET14205/16/20 06:51:02 METAR KJFK 161151Z 33014KT 10SM BKN060 BKN150 BKN250 19/13 A2999 RMK AO2 SLP154 60001 70002 T01890133 10211 20183 53033 (RG)","FM-15","7",,,,,,,,,,,,,,,,,,,,,,,,,,,,"2009-05-01"
"74486094789","2020-05-16T07:00:00","FM-12","4",,"ESE","1.5","mi","TEMP, PRECIP, SNOW",,,"PSY, SRG, SNOWBOARD",,,"FAA CWO",,,,,,,,,,,,,,,,,,,,,,,,,,,,"56","66",,,"-0.10","3","70","29.98","57","29.96","9.94","60","330",,"16",,,,,,,,,,,,,,,,,,,,,,,,,,,,,,,,,,,,,"SYN09274486 12766 63314 10189 20133 30144 40154 53033 69931 91151 333 10256 20156 70005 555 91612=","FM-12","4",,,,,,,,,,,,,,,,,,,,,,,,,,,,"2009-05-01"
"74486094789","2020-05-16T07:51:00","FM-15","7",,"ESE","1.5","mi","TEMP, PRECIP, SNOW",,,"PSY, SRG, SNOWBOARD",,,"FAA CWO",,,,,,,,,,,,,,,,,,,,,,,,,,,"30.02","54","66","0.00",,,,"65","30.02","SCT:04 70 SCT:04 150 BKN:07 250","30.00","10.00","59","330","25","18",,,,,,,,,,,,,,,,,,,,,,,,,,,,,,,,,,,,,"MET11505/16/20 07:51:02 METAR KJFK 161251Z 33016G22KT 10SM SCT070 SCT150 BKN250 19/12 A3002 RMK AO2 SLP165 T01890122 (RG)","FM-15","7",,,,,,,,,,,,,,,,,,,,,,,,,,,,"2009-05-01"
"74486094789","2020-05-16T08:51:00","FM-15","7",,"ESE","1.5","mi","TEMP, PRECIP, SNOW",,,"PSY, SRG, SNOWBOARD",,,"FAA CWO",,,,,,,,,,,,,,,,,,,,,,,,,,,"30.03","54","69","0.00",,,,"59","30.03","FEW:02 65 SCT:04 150 BKN:07 200","30.01","10.00","60","010","25","18",,,,,,,,,,,,,,,,,,,,,,,,,,,,,,,,,,,,,"MET11505/16/20 08:51:02 METAR KJFK 161351Z 01016G22KT 10SM FEW065 SCT150 BKN200 21/12 A3003 RMK AO2 SLP168 T02060122 (RG)","FM-15","7",,,,,,,,,,,,,,,,,,,,,,,,,,,,"2009-05-01"
"74486094789","2020-05-16T09:51:00","FM-15","7",,"ESE","1.5","mi","TEMP, PRECIP, SNOW",,,"PSY, SRG, SNOWBOARD",,,"FAA CWO",,,,,,,,,,,,,,,,,,,,,,,,,,,"30.05","55","70","0.00",,"-0.06","1","59","30.05","FEW:02 35 FEW:02 150 BKN:07 250","30.03","10.00","61","020",,"14",,,,,,,,,,,,,,,,,,,,,,,,,,,,,,,,,,,,,"MET11805/16/20 09:51:02 METAR KJFK 161451Z 02012KT 10SM FEW035 FEW150 BKN250 21/13 A3005 RMK AO2 SLP176 T02110128 51022 (RG)","FM-15","7",,,,,,,,,,,,,,,,,,,,,,,,,,,,"2009-05-01"
"74486094789","2020-05-16T10:00:00","FM-12","4",,"ESE","1.5","mi","TEMP, PRECIP, SNOW",,,"PSY, SRG, SNOWBOARD",,,"FAA CWO",,,,,,,,,,,,,,,,,,,,,,,,,,,,"55","70",,,"-0.06","1","59","30.05","41","30.02","9.94","61","020",,"14",,,,,,,,,,,,,,,,,,,,,,,,,,,,,,,,,,,,,"SYN06474486 32666 60212 10211 20128 30165 40176 51022 91451 555 91615=","FM-12","4",,,,,,,,,,,,,,,,,,,,,,,,,,,,"2009-05-01"
"74486094789","2020-05-16T10:51:00","FM-15","7",,"ESE","1.5","mi","TEMP, PRECIP, SNOW",,,"PSY, SRG, SNOWBOARD",,,"FAA CWO",,,,,,,,,,,,,,,,,,,,,,,,,,,"30.06","53","71","0.00",,,,"53","30.06","FEW:02 35 FEW:02 180 BKN:07 250","30.03","10.00","61","340","16","13",,,,,,,,,,,,,,,,,,,,,,,,,,,,,,,,,,,,,"MET11505/16/20 10:51:02 METAR KJFK 161551Z 34011G14KT 10SM FEW035 FEW180 BKN250 22/12 A3006 RMK AO2 SLP180 T02170117 (RG)","FM-15","7",,,,,,,,,,,,,,,,,,,,,,,,,,,,"2009-05-01"
"74486094789","2020-05-16T11:51:00","FM-15","7",,"ESE","1.5","mi","TEMP, PRECIP, SNOW",,,"PSY, SRG, SNOWBOARD",,,"FAA CWO",,,,,,,,,,,,,,,,,,,,,,,,,,,"30.07","51","72","0.00",,,,"48","30.07","FEW:02 40 FEW:02 200 BKN:07 250","30.04","10.00","60","010",,"13",,,,,,,,,,,,,,,,,,,,,,,,,,,,,,,,,,,,,"MET11205/16/20 11:51:02 METAR KJFK 161651Z 01011KT 10SM FEW040 FEW200 BKN250 22/11 A3007 RMK AO2 SLP183 T02220106 (RG)","FM-15","7",,,,,,,,,,,,,,,,,,,,,,,,,,,,"2009-05-01"
"74486094789","2020-05-16T12:51:00","FM-15","7",,"ESE","1.5","mi","TEMP, PRECIP, SNOW",,,"PSY, SRG, SNOWBOARD",,,"FAA CWO",,,,,,,,,,,,,,,,,,,,,,,,,,,"30.08","49","74","0.00",,"-0.02","1","41","30.07","FEW:02 50 BKN:07 250","30.06","10.00","60","030","16","7",,,,,,,,,,,,,,,,,,,,,,,,,,,,,,,,,,,,,"MET12605/16/20 12:51:02 METAR KJFK 161751Z 03006G14KT 10SM FEW050 BKN250 23/09 A3008 RMK AO2 SLP184 T02330094 10239 20189 51008 (RG)","FM-15","7",,,,,,,,,,,,,,,,,,,,,,,,,,,,"2009-05-01"
"74486094789","2020-05-16T13:00:00","FM-12","4",,"ESE","1.5","mi","TEMP, PRECIP, SNOW",,,"PSY, SRG, SNOWBOARD",,,"FAA CWO",,,,,,,,,,,,,,,,,,,,,,,,,,,,"49","74",,,"-0.02","1","41","30.07","57","30.05","9.94","60","030",,"7",,,,,,,,,,,,,,,,,,,,,,,,,,,,,,,,,,,,,"SYN08674486 32766 60306 10233 20094 30175 40184 51008 91751 333 10239 20178 91014 555 91618=","FM-12","4",,,,,,,,,,,,,,,,,,,,,,,,,,,,"2009-05-01"
"74486094789","2020-05-16T13:51:00","FM-15","7",,"ESE","1.5","mi","TEMP, PRECIP, SNOW",,,"PSY, SRG, SNOWBOARD",,,"FAA CWO",,,,,,,,,,,,,,,,,,,,,,,,,,,"30.08","48","75","0.00",,,,"39","30.07","FEW:02 55 BKN:07 250","30.06","10.00","60","020","17","10",,,,,,,,,,,,,,,,,,,,,,,,,,,,,,,,,,,,,"MET10805/16/20 13:51:02 METAR KJFK 161851Z 02009G15KT 10SM FEW055 BKN250 24/09 A3008 RMK AO2 SLP184 T02390089 (BH)","FM-15","7",,,,,,,,,,,,,,,,,,,,,,,,,,,,"2009-05-01"
"74486094789","2020-05-16T14:51:00","FM-15","7",,"ESE","1.5","mi","TEMP, PRECIP, SNOW",,,"PSY, SRG, SNOWBOARD",,,"FAA CWO",,,,,,,,,,,,,,,,,,,,,,,,,,,"30.08","48","75","0.00",,,,"39","30.08","FEW:02 55 BKN:07 250","30.06","10.00","60","040",,"9",,,,,,,,,,,,,,,,,,,,,,,,,,,,,,,,,,,,,"MET10505/16/20 14:51:02 METAR KJFK 161951Z 04008KT 10SM FEW055 BKN250 24/09 A3008 RMK AO2 SLP185 T02390089 (BH)","FM-15","7",,,,,,,,,,,,,,,,,,,,,,,,,,,,"2009-05-01"
"74486094789","2020-05-16T15:51:00","FM-15","7",,"ESE","1.5","mi","TEMP, PRECIP, SNOW",,,"PSY, SRG, SNOWBOARD",,,"FAA CWO",,,,,,,,,,,,,,,,,,,,,,,,,,,"30.08","51","72","0.00",,"-0.01","3","48","30.08","FEW:02 60 BKN:07 250","30.06","10.00","60","170",,"10",,,,,,,,,,,,,,,,,,,,,,,,,,,,,,,,,,,,,"MET11105/16/20 15:51:02 METAR KJFK 162051Z 17009KT 10SM FEW060 BKN250 22/11 A3008 RMK AO2 SLP186 T02220106 53002 (BH)","FM-15","7",,,,,,,,,,,,,,,,,,,,,,,,,,,,"2009-05-01"
"74486094789","2020-05-16T16:00:00","FM-12","4",,"ESE","1.5","mi","TEMP, PRECIP, SNOW",,,"PSY, SRG, SNOWBOARD",,,"FAA CWO",,,,,,,,,,,,,,,,,,,,,,,,,,,,"51","72",,,"-0.01","3","48","30.08","57","30.05","9.94","60","170",,"10",,,,,,,,,,,,,,,,,,,,,,,,,,,,,,,,,,,,,"SYN06474486 32766 61709 10222 20106 30175 40186 53002 92051 555 91621=","FM-12","4",,,,,,,,,,,,,,,,,,,,,,,,,,,,"2009-05-01"
"74486094789","2020-05-16T16:51:00","FM-15","7",,"ESE","1.5","mi","TEMP, PRECIP, SNOW",,,"PSY, SRG, SNOWBOARD",,,"FAA CWO",,,,,,,,,,,,,,,,,,,,,,,,,,,"30.09","51","71","0.00",,,,"49","30.09","FEW:02 60 BKN:07 250","30.06","10.00","60","180",,"13",,,,,,,,,,,,,,,,,,,,,,,,,,,,,,,,,,,,,"MET10505/16/20 16:51:02 METAR KJFK 162151Z 18011KT 10SM FEW060 BKN250 22/11 A3009 RMK AO2 SLP189 T02170106 (BH)","FM-15","7",,,,,,,,,,,,,,,,,,,,,,,,,,,,"2009-05-01"
"74486094789","2020-05-16T17:51:00","FM-15","7",,"ESE","1.5","mi","TEMP, PRECIP, SNOW",,,"PSY, SRG, SNOWBOARD",,,"FAA CWO",,,,,,,,,,,,,,,,,,,,,,,,,,,"30.10","52","67","0.00",,,,"59","30.10","FEW:02 60 SCT:04 250","30.08","10.00","59","170",,"10",,,,,,,,,,,,,,,,,,,,,,,,,,,,,,,,,,,,,"MET10505/16/20 17:51:02 METAR KJFK 162251Z 17009KT 10SM FEW060 SCT250 19/11 A3010 RMK AO2 SLP194 T01940111 (BH)","FM-15","7",,,,,,,,,,,,,,,,,,,,,,,,,,,,"2009-05-01"
"74486094789","2020-05-16T18:51:00","FM-15","7",,"ESE","1.5","mi","TEMP, PRECIP, SNOW",,,"PSY, SRG, SNOWBOARD",,,"FAA CWO",,,,,,,,,,,,,,,,,,,,,,,,,,,"30.13","51","63","T",,"-0.05","3","65","30.13","FEW:02 60 SCT:04 200 BKN:07 250","30.11","10.00","56","170",,"5",,,,,,,,,,,,,,,,,,,,,,,,,,,,,,,,,,,,,"MET13005/16/20 18:51:02 METAR KJFK 162351Z 17004KT 10SM FEW060 SCT200 BKN250 17/11 A3013 RMK AO2 SLP203 T01720106 10244 20172 53016 (BH)","FM-15","7",,,,,,,,,,,,,,,,,,,,,,,,,,,,"2009-05-01"
"74486094789","2020-05-16T19:00:00","FM-12","4",,"ESE","1.5","mi","TEMP, PRECIP, SNOW",,,"PSY, SRG, SNOWBOARD",,,"FAA CWO",,,,,,,,,,,,,,,,,,,,,,,,,,,,"51","63",,,"-0.05","3","65","30.13","57","30.10","9.94","56","170",,"5",,,,,,,,,,,,,,,,,,,,,,,,,,,,,,,,,,,,,"SYN08074486 32766 61704 10172 20106 30192 40203 53016 92351 333 10244 20172 555 91700=","FM-12","4",,,,,,,,,,,,,,,,,,,,,,,,,,,,"2009-05-01"
"74486094789","2020-05-16T19:51:00","FM-15","7",,"ESE","1.5","mi","TEMP, PRECIP, SNOW",,,"PSY, SRG, SNOWBOARD",,,"FAA CWO",,,,,,,,,,,,,,,,,,,,,,,,,,,"30.14","51","61","T",,,,"70","30.14","FEW:02 60 FEW:02 200 BKN:07 250","30.11","10.00","56","120",,"7",,,,,,,,,,,,,,,,,,,,,,,,,,,,,,,,,,,,,"MET10705/16/20 19:51:01 METAR KJFK 170051Z 12006KT 10SM FEW060 FEW200 BKN250 16/11 A3014 RMK AO2 SLP207 T01610106","FM-15","7",,,,,,,,,,,,,,,,,,,,,,,,,,,,"2009-05-01"
"74486094789","2020-05-16T20:51:00","FM-15","7",,"ESE","1.5","mi","TEMP, PRECIP, SNOW",,,"PSY, SRG, SNOWBOARD",,,"FAA CWO",,,,,,,,,,,,,,,,,,,,,,,,,,,"30.17","52","58","0.00",,,,"81","30.17","BKN:07 250","30.14","10.00","55","170",,"6",,,,,,,,,,,,,,,,,,,,,,,,,,,,,,,,,,,,,"MET09305/16/20 20:51:01 METAR KJFK 170151Z 17005KT 10SM BKN250 14/11 A3017 RMK AO2 SLP217 T01440111","FM-15","7",,,,,,,,,,,,,,,,,,,,,,,,,,,,"2009-05-01"
"74486094789","2020-05-16T21:51:00","FM-15","7",,"ESE","1.5","mi","TEMP, PRECIP, SNOW",,,"PSY, SRG, SNOWBOARD",,,"FAA CWO",,,,,,,,,,,,,,,,,,,,,,,,,,,"30.19","51","58","0.00",,"-0.06","3","78","30.19","SCT:04 250","30.16","10.00","54","180",,"6",,,,,,,,,,,,,,,,,,,,,,,,,,,,,,,,,,,,,"MET10505/16/20 21:51:01 METAR KJFK 170251Z 18005KT 10SM SCT250 14/11 A3019 RMK AO2 SLP223 60000 T01440106 53021","FM-15","7",,,,,,,,,,,,,,,,,,,,,,,,,,,,"2009-05-01"
"74486094789","2020-05-16T22:00:00","FM-12","4",,"ESE","1.5","mi","TEMP, PRECIP, SNOW",,,"PSY, SRG, SNOWBOARD",,,"FAA CWO",,,,,,,,,,,,,,,,,,,,,,,,,,,,"51","58",,,"-0.06","3","78","30.19",,"30.16","9.94","54","180",,"6",,,,,,,,,,,,,,,,,,,,,,,,,,,,,,,,,,,,,"SYN07074486 12966 41805 10144 20106 30212 40223 53021 69907 90251 555 91703=","FM-12","4",,,,,,,,,,,,,,,,,,,,,,,,,,,,"2009-05-01"
"74486094789","2020-05-16T22:51:00","FM-15","7",,"ESE","1.5","mi","TEMP, PRECIP, SNOW",,,"PSY, SRG, SNOWBOARD",,,"FAA CWO",,,,,,,,,,,,,,,,,,,,,,,,,,,"30.22","52","57","0.00",,,,"83","30.22","SCT:04 70 SCT:04 250","30.19","10.00","54","130",,"10",,,,,,,,,,,,,,,,,,,,,,,,,,,,,,,,,,,,,"MET10005/16/20 22:51:02 METAR KJFK 170351Z 13009KT 10SM SCT070 SCT250 14/11 A3022 RMK AO2 SLP234 T01390111","FM-15","7",,,,,,,,,,,,,,,,,,,,,,,,,,,,"2009-05-01"
"74486094789","2020-05-16T23:51:00","FM-15","7",,"ESE","1.5","mi","TEMP, PRECIP, SNOW",,,"PSY, SRG, SNOWBOARD",,,"FAA CWO",,,,,,,,,,,,,,,,,,,,,,,,,,,"30.23","52","56","0.00",,,,"87","30.23","SCT:04 70 SCT:04 250","30.21","10.00","54","110",,"14",,,,,,,,,,,,,,,,,,,,,,,,,,,,,,,,,,,,,"MET11005/16/20 23:51:02 METAR KJFK 170451Z 11012KT 10SM SCT070 SCT250 13/11 A3023 RMK AO2 SLP237 T01330111 402440133","FM-15","7",,,,,,,,,,,,,,,,,,,,,,,,,,,,"2009-05-01"
"74486094789","2020-05-16T23:59:00","SOD  ","6",,"ESE","1.5","mi","TEMP, PRECIP, SNOW",,,"PSY, SRG, SNOWBOARD",,,"FAA CWO",,,,"55","66","66","30.05","29.98","60","11.5","1","5.4","0","76","55","320","26","0.02","0","0.0","340","22","RA",,,,,,,,,,,,,,,,,,,,,,,,,,,,,,,,,,,,,,,,,,,,,,,,,,,,,,,,"SOD73924 HR PRECIPITATION (IN): 0.02 SNOW DEPTH (IN):0     24 HR SNOWFALL (IN):0.0  24 HR MAX TEMP (F): 7624 HR MIN TEMP (F): 55AVERAGE STATION PRESSURE:29.985 MINIMUM SEA LEVEL PRESSURE:29.86 TIME OF OCCURRENCE:0152 PEAK WIND SPEED (MPH): 26 PEAK WIND DIR (DEG):320 PEAK WIND TIME (LST):      FASTEST 2MIN SPEED (MPH): 22FASTEST 2MIN DIR (DEG):340 FASTEST 2MIN TIME (LST):     AVERAGE WIND SPEED (MPH):11.5 24 HR AVG TEMP (F): 66DEPART FROM NORMAL:  5  HEATING DEGREE DAYS:  0 COOLING DEGREE DAYS:  1 LATEST DAY MAX TEMP (0700-1900 LST):76  LATEST NIGHT MIN TEMP(1900-0800 LST):60 HOURLY INCREMENTAL PRECIPITATION VALUES (IN):.01 T    T    0.01 T    0.00 0.00 0.00 0.00 0.00 0.00 0.00 0.00 0.00 0.00 0.00 0.00 0.00 T    T    0.00 0.00 0.00 0.00","SOD  ","6",,,,,,,,,,,,,,,,,,,,,,,,,"0437","1907",,"2009-05-01"
