"STATION","DATE","REPORT_TYPE","SOURCE","AWND","BackupDirection","BackupDistance","BackupDistanceUnit","BackupElements","BackupElevation","BackupElevationUnit","BackupEquipment","BackupLatitude","BackupLongitude","BackupName","CDSD","CLDD","DSNW","DailyAverageDewPointTemperature","DailyAverageDryBulbTemperature","DailyAverageRelativeHumidity","DailyAverageSeaLevelPressure","DailyAverageStationPressure","DailyAverageWetBulbTemperature","DailyAverageWindSpeed","DailyCoolingDegreeDays","DailyDepartureFromNormalAverageTemperature","DailyHeatingDegreeDays","DailyMaximumDryBulbTemperature","DailyMinimumDryBulbTemperature","DailyPeakWindDirection","DailyPeakWindSpeed","DailyPrecipitation","DailySnowDepth","DailySnowfall","DailySustainedWindDirection","DailySustainedWindSpeed","DailyWeather","HDSD","HTDD","HeavyFog","HourlyAltimeterSetting","HourlyDewPointTemperature","HourlyDryBulbTemperature","HourlyPrecipitation","HourlyPresentWeatherType","HourlyPressureChange","HourlyPressureTendency","HourlyRelativeHumidity","HourlySeaLevelPressure","HourlySkyConditions","HourlyStationPressure","HourlyVisibility","HourlyWetBulbTemperature","HourlyWindDirection","HourlyWindGustSpeed","HourlyWindSpeed","MonthlyAverageRH","MonthlyDaysWithGT001Precip","MonthlyDaysWithGT010Precip","MonthlyDaysWithGT32Temp","MonthlyDaysWithGT90Temp","MonthlyDaysWithLT0Temp","MonthlyDaysWithLT32Temp","MonthlyDepartureFromNormalAverageTemperature","MonthlyDepartureFromNormalCoolingDegreeDays","MonthlyDepartureFromNormalHeatingDegreeDays","MonthlyDepartureFromNormalMaximumTemperature","MonthlyDepartureFromNormalMinimumTemperature","MonthlyDepartureFromNormalPrecipitation","MonthlyDewpointTemperature","MonthlyGreatestPrecip","MonthlyGreatestPrecipDate","MonthlyGreatestSnowDepth","MonthlyGreatestSnowDepthDate","MonthlyGreatestSnowfall","MonthlyGreatestSnowfallDate","MonthlyMaxSeaLevelPressureValue","MonthlyMaxSeaLevelPressureValueDate","MonthlyMaxSeaLevelPressureValueTime","MonthlyMaximumTemperature","MonthlyMeanTemperature","MonthlyMinSeaLevelPressureValue","MonthlyMinSeaLevelPressureValueDate","MonthlyMinSeaLevelPressureValueTime","MonthlyMinimumTemperature","MonthlySeaLevelPressure","MonthlyStationPressure","MonthlyTotalLiquidPrecipitation","MonthlyTotalSnowfall","MonthlyWetBulb","NormalsCoolingDegreeDay","NormalsHeatingDegreeDay","REM","REPORT_TYPE","SOURCE","ShortDurationEndDate005","ShortDurationEndDate010","ShortDurationEndDate015","ShortDurationEndDate020","ShortDurationEndDate030","ShortDurationEndDate045","ShortDurationEndDate060","ShortDurationEndDate080","ShortDurationEndDate100","ShortDurationEndDate120","ShortDurationEndDate150","ShortDurationEndDate180","ShortDurationPrecipitationValue005","ShortDurationPrecipitationValue010","ShortDurationPrecipitationValue015","ShortDurationPrecipitationValue020","ShortDurationPrecipitationValue030","ShortDurationPrecipitationValue045","ShortDurationPrecipitationValue060","ShortDurationPrecipitationValue080","ShortDurationPrecipitationValue100","ShortDurationPrecipitationValue120","ShortDurationPrecipitationValue150","ShortDurationPrecipitationValue180","Sunrise","Sunset","TStorms","WindEquipmentChangeDate"
"74486094789","2020-02-01T00:51:00","FM-15","7",,"ESE","1.5","mi","TEMP, PRECIP, SNOW",,,"PSY, SRG, SNOWBOARD",,,"FAA CWO",,,,,,,,,,,,,,,,,,,,,,,,,,,"30.12","37","37","0.00",,"+0.08","8","100","30.12","FEW:02 10 SCT:04 35 SCT:04 100","30.09","10.00","37","010",,"7",,,,,,,,,,,,,,,,,,,,,,,,,,,,,,,,,,,,,"MET13602/01/20 00:51:02 METAR KJFK 010551Z 01006KT 10SM FEW010 SCT035 SCT100 03/03 A3012 RMK AO2 SLP200 60002 T00280028 10044 20028 58028 (DM)","FM-15","7",,,,,,,,,,,,,,,,,,,,,,,,,,,,"2009-05-01"
"74486094789","2020-02-01T01:00:00","FM-12","4",,"ESE","1.5","mi","TEMP, PRECIP, SNOW",,,"PSY, SRG, SNOWBOARD",,,"FAA CWO",,,,,,,,,,,,,,,,,,,,,,,,,,,,"37","37",,,"+0.08","8","100","30.12","15","30.09","9.94","37","010",,"7",,,,,,,,,,,,,,,,,,,,,,,,,,,,,,,,,,,,,"SYN08674486 12466 80106 10028 20028 30188 40200 58028 69951 90551 333 10061 20011 555 90106=","FM-12","4",,,,,,,,,,,,,,,,,,,,,,,,,,,,"2009-05-01"
"74486094789","2020-02-01T01:51:00","FM-15","7",,"ESE","1.5","mi","TEMP, PRECIP, SNOW",,,"PSY, SRG, SNOWBOARD",,,"FAA CWO",,,,,,,,,,,,,,,,,,,,,,,,,,,"30.10","35","36","0.00",,,,"97","30.10","BKN:07 21","30.08","10.00","36","350",,"8",,,,,,,,,,,,,,,,,,,,,,,,,,,,,,,,,,,,,"MET09802/01/20 01:51:02 METAR KJFK 010651Z 35007KT 10SM BKN021 02/02 A3010 RMK AO2 SLP193 T00220017 (DM)","FM-15","7",,,,,,,,,,,,,,,,,,,,,,,,,,,,"2009-05-01"
"74486094789","2020-02-01T02:51:00","FM-15","7",,"ESE","1.5","mi","TEMP, PRECIP, SNOW",,,"PSY, SRG, SNOWBOARD",,,"FAA CWO",,,,,,,,,,,,,,,,,,,,,,,,,,,"30.09","36","36","0.00",,,,"100","30.09","OVC:08 16","30.06","8.00","36","050",,"5",,,,,,,,,,,,,,,,,,,,,,,,,,,,,,,,,,,,,"MET09702/01/20 02:51:02 METAR KJFK 010751Z 05004KT 8SM OVC016 02/02 A3009 RMK AO2 SLP190 T00220022 (DM)","FM-15","7",,,,,,,,,,,,,,,,,,,,,,,,,,,,"2009-05-01"
"74486094789","2020-02-01T03:51:00","FM-15","7",,"ESE","1.5","mi","TEMP, PRECIP, SNOW",,,"PSY, SRG, SNOWBOARD",,,"FAA CWO",,,,,,,,,,,,,,,,,,,,,,,,,,,"30.07","36","36","0.00",,"+0.06","8","100","30.06","OVC:08 16","30.04","8.00","36","090",,"6",,,,,,,,,,,,,,,,,,,,,,,,,,,,,,,,,,,,,"MET10302/01/20 03:51:02 METAR KJFK 010851Z 09005KT 8SM OVC016 02/02 A3007 RMK AO2 SLP181 T00220022 58019 (DM)","FM-15","7",,,,,,,,,,,,,,,,,,,,,,,,,,,,"2009-05-01"
"74486094789","2020-02-01T04:00:00","FM-12","4",,"ESE","1.5","mi","TEMP, PRECIP, SNOW",,,"PSY, SRG, SNOWBOARD",,,"FAA CWO",,,,,,,,,,,,,,,,,,,,,,,,,,,,"36","36",,,"+0.06","8","100","30.06","15","30.04","7.46","36","090",,"6",,,,,,,,,,,,,,,,,,,,,,,,,,,,,,,,,,,,,"SYN06474486 32462 80905 10022 20022 30172 40181 58019 90851 555 90109=","FM-12","4",,,,,,,,,,,,,,,,,,,,,,,,,,,,"2009-05-01"
"74486094789","2020-02-01T04:49:00","FM-16","6",,"ESE","1.5","mi","TEMP, PRECIP, SNOW",,,"PSY, SRG, SNOWBOARD",,,"FAA CWO",,,,,,,,,,,,,,,,,,,,,,,,,,,"30.07","37","37",,,,,"100",,"OVC:08 13","30.04","8.00","37","040",,"3",,,,,,,,,,,,,,,,,,,,,,,,,,,,,,,,,,,,,"MET08502/01/20 04:49:02 SPECI KJFK 010949Z 04003KT 8SM OVC013 03/03 A3007 RMK AO2 FIBI (DM)","FM-16","6",,,,,,,,,,,,,,,,,,,,,,,,,,,,"2009-05-01"
"74486094789","2020-02-01T04:51:00","FM-15","7",,"ESE","1.5","mi","TEMP, PRECIP, SNOW",,,"PSY, SRG, SNOWBOARD",,,"FAA CWO",,,,,,,,,,,,,,,,,,,,,,,,,,,"30.07","37","37","0.00",,,,"100","30.06","OVC:08 13","30.04","8.00","37","000",,"0",,,,,,,,,,,,,,,,,,,,,,,,,,,,,,,,,,,,,"MET09702/01/20 04:51:02 METAR KJFK 010951Z 00000KT 8SM OVC013 03/03 A3007 RMK AO2 SLP180 T00280028 (DM)","FM-15","7",,,,,,,,,,,,,,,,,,,,,,,,,,,,"2009-05-01"
"74486094789","2020-02-01T05:49:00","FM-16","6",,"ESE","1.5","mi","TEMP, PRECIP, SNOW",,,"PSY, SRG, SNOWBOARD",,,"FAA CWO",,,,,,,,,,,,,,,,,,,,,,,,,,,"30.04","37","37",,"BR:1 ||",,,"100",,"BKN:07 5 OVC:08 11","30.01","6.00","37","000",,"0",,,,,,,,,,,,,,,,,,,,,,,,,,,,,,,,,,,,,"MET09502/01/20 05:49:02 SPECI KJFK 011049Z 00000KT 6SM BR BKN005 OVC011 03/03 A3004 RMK AO2 FIBI (DM)","FM-16","6",,,,,,,,,,,,,,,,,,,,,,,,,,,,"2009-05-01"
"74486094789","2020-02-01T05:51:00","FM-15","7",,"ESE","1.5","mi","TEMP, PRECIP, SNOW",,,"PSY, SRG, SNOWBOARD",,,"FAA CWO",,,,,,,,,,,,,,,,,,,,,,,,,,,"30.04","37","37","0.00","BR:1 ||",,,"100","30.03","BKN:07 5 OVC:08 11","30.01","6.00","37","000",,"0",,,,,,,,,,,,,,,,,,,,,,,,,,,,,,,,,,,,,"MET10702/01/20 05:51:02 METAR KJFK 011051Z 00000KT 6SM BR BKN005 OVC011 03/03 A3004 RMK AO2 SLP171 T00280028 (DM)","FM-15","7",,,,,,,,,,,,,,,,,,,,,,,,,,,,"2009-05-01"
"74486094789","2020-02-01T06:49:00","FM-16","6",,"ESE","1.5","mi","TEMP, PRECIP, SNOW",,,"PSY, SRG, SNOWBOARD",,,"FAA CWO",,,,,,,,,,,,,,,,,,,,,,,,,,,"30.03","36","36",,"BR:1 ||",,,"100",,"FEW:02 8 BKN:07 13 BKN:07 250","30.01","4.00","36","120",,"7",,,,,,,,,,,,,,,,,,,,,,,,,,,,,,,,,,,,,"MET10202/01/20 06:49:02 SPECI KJFK 011149Z 12006KT 4SM BR FEW008 BKN013 BKN250 02/02 A3003 RMK AO2 FIBI (RG)","FM-16","6",,,,,,,,,,,,,,,,,,,,,,,,,,,,"2009-05-01"
"74486094789","2020-02-01T06:51:00","FM-15","7",,"ESE","1.5","mi","TEMP, PRECIP, SNOW",,,"PSY, SRG, SNOWBOARD",,,"FAA CWO",,,,,,,,,,,,,,,,,,,,,,,,,,,"30.03","36","36","0.00","BR:1 ||","+0.04","8","100","30.03","FEW:02 8 BKN:07 13 BKN:07 250","30.01","4.00","36","120",,"6",,,,,,,,,,,,,,,,,,,,,,,,,,,,,,,,,,,,,"MET13802/01/20 06:51:02 METAR KJFK 011151Z 12005KT 4SM BR FEW008 BKN013 BKN250 02/02 A3003 RMK AO2 SLP169 70002 T00220022 10028 20017 58012 (RG)","FM-15","7",,,,,,,,,,,,,,,,,,,,,,,,,,,,"2009-05-01"
"74486094789","2020-02-01T07:00:00","FM-12","4",,"ESE","1.5","mi","TEMP, PRECIP, SNOW",,,"PSY, SRG, SNOWBOARD",,,"FAA CWO",,,,,,,,,,,,,,,,,,,,,,,,,,,,"36","36",,,"+0.04","8","100","30.03","8","30.00","3.73","36","120",,"6",,,,,,,,,,,,,,,,,,,,,,,,,,,,,,,,,,,,,"SYN09274486 31356 61205 10022 20022 30158 40169 58012 710// 91151 333 10072 20017 70005 555 90112=","FM-12","4",,,,,,,,,,,,,,,,,,,,,,,,,,,,"2009-05-01"
"74486094789","2020-02-01T07:49:00","FM-16","6",,"ESE","1.5","mi","TEMP, PRECIP, SNOW",,,"PSY, SRG, SNOWBOARD",,,"FAA CWO",,,,,,,,,,,,,,,,,,,,,,,,,,,"30.04","37","37",,"BR:1 ||",,,"100",,"FEW:02 10 BKN:07 15 BKN:07 250","30.01","4.00","37","000",,"0",,,,,,,,,,,,,,,,,,,,,,,,,,,,,,,,,,,,,"MET10202/01/20 07:49:02 SPECI KJFK 011249Z 00000KT 4SM BR FEW010 BKN015 BKN250 03/03 A3004 RMK AO2 FIBI (RG)","FM-16","6",,,,,,,,,,,,,,,,,,,,,,,,,,,,"2009-05-01"
"74486094789","2020-02-01T07:51:00","FM-15","7",,"ESE","1.5","mi","TEMP, PRECIP, SNOW",,,"PSY, SRG, SNOWBOARD",,,"FAA CWO",,,,,,,,,,,,,,,,,,,,,,,,,,,"30.04","37","37","0.00","BR:1 ||",,,"100","30.03","FEW:02 10 BKN:07 15 BKN:07 250","30.01","4.00","37","000",,"0",,,,,,,,,,,,,,,,,,,,,,,,,,,,,,,,,,,,,"MET11402/01/20 07:51:02 METAR KJFK 011251Z 00000KT 4SM BR FEW010 BKN015 BKN250 03/03 A3004 RMK AO2 SLP170 T00280028 (RG)","FM-15","7",,,,,,,,,,,,,,,,,,,,,,,,,,,,"2009-05-01"
"74486094789","2020-02-01T08:48:00","FM-16","7",,"ESE","1.5","mi","TEMP, PRECIP, SNOW",,,"PSY, SRG, SNOWBOARD",,,"FAA CWO",,,,,,,,,,,,,,,,,,,,,,,,,,,"30.02","39","39",,"BR:1 ||",,,"100",,"SCT:04 4 OVC:08 16","30.00","5.00","39","000",,"0",,,,,,,,,,,,,,,,,,,,,,,,,,,,,,,,,,,,,"MET09202/01/20 08:48:02 SPECI KJFK 011348Z 00000KT 5SM BR SCT004 OVC016 04/04 A3002 RMK AO2 $ (RG)","FM-16","7",,,,,,,,,,,,,,,,,,,,,,,,,,,,"2009-05-01"
"74486094789","2020-02-01T08:51:00","FM-15","7",,"ESE","1.5","mi","TEMP, PRECIP, SNOW",,,"PSY, SRG, SNOWBOARD",,,"FAA CWO",,,,,,,,,,,,,,,,,,,,,,,,,,,"30.02","39","39","0.00","BR:1 ||",,,"100","30.01","SCT:04 4 OVC:08 16","30.00","5.00","39","000",,"0",,,,,,,,,,,,,,,,,,,,,,,,,,,,,,,,,,,,,"MET10902/01/20 08:51:02 METAR KJFK 011351Z 00000KT 5SM BR SCT004 OVC016 04/04 A3002 RMK AO2 SLP163 T00390039 $ (RG)","FM-15","7",,,,,,,,,,,,,,,,,,,,,,,,,,,,"2009-05-01"
"74486094789","2020-02-01T09:51:00","FM-15","7",,"ESE","1.5","mi","TEMP, PRECIP, SNOW",,,"PSY, SRG, SNOWBOARD",,,"FAA CWO",,,,,,,,,,,,,,,,,,,,,,,,,,,"30.01","38","40","0.00","BR:1 ||","+0.03","6","93","30.01","SCT:04 7 OVC:08 15","29.98","6.00","39","230",,"5",,,,,,,,,,,,,,,,,,,,,,,,,,,,,,,,,,,,,"MET11502/01/20 09:51:02 METAR KJFK 011451Z 23004KT 6SM BR SCT007 OVC015 04/03 A3001 RMK AO2 SLP161 T00440033 56010 $ (RG)","FM-15","7",,,,,,,,,,,,,,,,,,,,,,,,,,,,"2009-05-01"
"74486094789","2020-02-01T10:00:00","FM-12","4",,"ESE","1.5","mi","TEMP, PRECIP, SNOW",,,"PSY, SRG, SNOWBOARD",,,"FAA CWO",,,,,,,,,,,,,,,,,,,,,,,,,,,,"38","40",,,"+0.03","6","93","30.01","8","29.98","5.59","39","230",,"5",,,,,,,,,,,,,,,,,,,,,,,,,,,,,,,,,,,,,"SYN07074486 31359 82304 10044 20033 30151 40161 56010 710// 91451 555 90115=","FM-12","4",,,,,,,,,,,,,,,,,,,,,,,,,,,,"2009-05-01"
"74486094789","2020-02-01T10:51:00","FM-15","7",,"ESE","1.5","mi","TEMP, PRECIP, SNOW",,,"PSY, SRG, SNOWBOARD",,,"FAA CWO",,,,,,,,,,,,,,,,,,,,,,,,,,,"29.98","40","41","0.00",,,,"96","29.98","FEW:02 8 BKN:07 15 BKN:07 250","29.96","8.00","41","250",,"3",,,,,,,,,,,,,,,,,,,,,,,,,,,,,,,,,,,,,"MET11302/01/20 10:51:02 METAR KJFK 011551Z 25003KT 8SM FEW008 BKN015 BKN250 05/04 A2998 RMK AO2 SLP151 T00500044 $ (RG)","FM-15","7",,,,,,,,,,,,,,,,,,,,,,,,,,,,"2009-05-01"
"74486094789","2020-02-01T11:19:00","FM-16","7",,"ESE","1.5","mi","TEMP, PRECIP, SNOW",,,"PSY, SRG, SNOWBOARD",,,"FAA CWO",,,,,,,,,,,,,,,,,,,,,,,,,,,"29.94","40","43",,,,,"89",,"BKN:07 12 BKN:07 27 OVC:08 40","29.91","10.00","42","000",,"0",,,,,,,,,,,,,,,,,,,,,,,,,,,,,,,,,,,,,"MET10702/01/20 11:19:02 SPECI KJFK 011619Z 00000KT 10SM BKN012 BKN027 OVC040 06/04 A2994 RMK AO2 T00610044 $ (RG)","FM-16","7",,,,,,,,,,,,,,,,,,,,,,,,,,,,"2009-05-01"
"74486094789","2020-02-01T11:51:00","FM-15","7",,"ESE","1.5","mi","TEMP, PRECIP, SNOW",,,"PSY, SRG, SNOWBOARD",,,"FAA CWO",,,,,,,,,,,,,,,,,,,,,,,,,,,"29.91","38","42","0.00",,,,"85","29.91","OVC:08 12","29.88","9.00","40","320",,"5",,,,,,,,,,,,,,,,,,,,,,,,,,,,,,,,,,,,,"MET09902/01/20 11:51:02 METAR KJFK 011651Z 32004KT 9SM OVC012 06/03 A2991 RMK AO2 SLP127 T00560033 $ (RG)","FM-15","7",,,,,,,,,,,,,,,,,,,,,,,,,,,,"2009-05-01"
"74486094789","2020-02-01T12:51:00","FM-15","7",,"ESE","1.5","mi","TEMP, PRECIP, SNOW",,,"PSY, SRG, SNOWBOARD",,,"FAA CWO",,,,,,,,,,,,,,,,,,,,,,,,,,,"29.88","38","41","0.00",,"+0.12","6","89","29.88","OVC:08 13","29.85","10.00","40","210",,"8",,,,,,,,,,,,,,,,,,,,,,,,,,,,,,,,,,,,,"MET11802/01/20 12:51:02 METAR KJFK 011751Z 21007KT 10SM OVC013 05/03 A2988 RMK AO2 SLP119 T00500033 10061 20022 56042 $ (RG)","FM-15","7",,,,,,,,,,,,,,,,,,,,,,,,,,,,"2009-05-01"
"74486094789","2020-02-01T13:00:00","FM-12","4",,"ESE","1.5","mi","TEMP, PRECIP, SNOW",,,"PSY, SRG, SNOWBOARD",,,"FAA CWO",,,,,,,,,,,,,,,,,,,,,,,,,,,,"38","41",,,"+0.12","6","89","29.88","15","29.85","9.94","40","210",,"8",,,,,,,,,,,,,,,,,,,,,,,,,,,,,,,,,,,,,"SYN08074486 32466 82107 10050 20033 30107 40119 56042 91751 333 10061 20022 555 90118=","FM-12","4",,,,,,,,,,,,,,,,,,,,,,,,,,,,"2009-05-01"
"74486094789","2020-02-01T13:51:00","FM-15","7",,"ESE","1.5","mi","TEMP, PRECIP, SNOW",,,"PSY, SRG, SNOWBOARD",,,"FAA CWO",,,,,,,,,,,,,,,,,,,,,,,,,,,"29.85","38","41","0.00",,,,"89","29.85","OVC:08 11","29.83","10.00","40","200",,"7",,,,,,,,,,,,,,,,,,,,,,,,,,,,,,,,,,,,,"MET10002/01/20 13:51:02 METAR KJFK 011851Z 20006KT 10SM OVC011 05/03 A2985 RMK AO2 SLP109 T00500033 $ (RG)","FM-15","7",,,,,,,,,,,,,,,,,,,,,,,,,,,,"2009-05-01"
"74486094789","2020-02-01T14:51:00","FM-15","7",,"ESE","1.5","mi","TEMP, PRECIP, SNOW",,,"PSY, SRG, SNOWBOARD",,,"FAA CWO",,,,,,,,,,,,,,,,,,,,,,,,,,,"29.81","38","41","0.00",,,,"89","29.81","OVC:08 12","29.78","10.00","40","220",,"5",,,,,,,,,,,,,,,,,,,,,,,,,,,,,,,,,,,,,"MET10002/01/20 14:51:02 METAR KJFK 011951Z 22004KT 10SM OVC012 05/03 A2981 RMK AO2 SLP095 T00500033 $ (JT)","FM-15","7",,,,,,,,,,,,,,,,,,,,,,,,,,,,"2009-05-01"
"74486094789","2020-02-01T15:51:00","FM-15","7",,"ESE","1.5","mi","TEMP, PRECIP, SNOW",,,"PSY, SRG, SNOWBOARD",,,"FAA CWO",,,,,,,,,,,,,,,,,,,,,,,,,,,"29.79","38","40","0.00",,"+0.09","6","93","29.79","OVC:08 10","29.77","10.00","39","210",,"5",,,,,,,,,,,,,,,,,,,,,,,,,,,,,,,,,,,,,"MET10602/01/20 15:51:02 METAR KJFK 012051Z 21004KT 10SM OVC010 04/03 A2979 RMK AO2 SLP087 T00440033 56031 $ (JT)","FM-15","7",,,,,,,,,,,,,,,,,,,,,,,,,,,,"2009-05-01"
"74486094789","2020-02-01T16:00:00","FM-12","4",,"ESE","1.5","mi","TEMP, PRECIP, SNOW",,,"PSY, SRG, SNOWBOARD",,,"FAA CWO",,,,,,,,,,,,,,,,,,,,,,,,,,,,"38","40",,,"+0.09","6","93","29.79","15","29.76","9.94","39","210",,"5",,,,,,,,,,,,,,,,,,,,,,,,,,,,,,,,,,,,,"SYN06474486 32466 82104 10044 20033 30077 40087 56031 92051 555 90121=","FM-12","4",,,,,,,,,,,,,,,,,,,,,,,,,,,,"2009-05-01"
"74486094789","2020-02-01T16:51:00","FM-15","7",,"ESE","1.5","mi","TEMP, PRECIP, SNOW",,,"PSY, SRG, SNOWBOARD",,,"FAA CWO",,,,,,,,,,,,,,,,,,,,,,,,,,,"29.77","38","40","0.00","BR:1 ||",,,"93","29.77","OVC:08 10","29.75","6.00","39","240",,"3",,,,,,,,,,,,,,,,,,,,,,,,,,,,,,,,,,,,,"MET10202/01/20 16:51:02 METAR KJFK 012151Z 24003KT 6SM BR OVC010 04/03 A2977 RMK AO2 SLP081 T00440033 $ (JT)","FM-15","7",,,,,,,,,,,,,,,,,,,,,,,,,,,,"2009-05-01"
"74486094789","2020-02-01T17:51:00","FM-15","7",,"ESE","1.5","mi","TEMP, PRECIP, SNOW",,,"PSY, SRG, SNOWBOARD",,,"FAA CWO",,,,,,,,,,,,,,,,,,,,,,,,,,,"29.77","39","40","0.00",,,,"97","29.76","BKN:07 11 OVC:08 15","29.75","7.00","40","160",,"3",,,,,,,,,,,,,,,,,,,,,,,,,,,,,,,,,,,,,"MET10602/01/20 17:51:02 METAR KJFK 012251Z 16003KT 7SM BKN011 OVC015 04/04 A2977 RMK AO2 SLP079 T00440039 $ (JT)","FM-15","7",,,,,,,,,,,,,,,,,,,,,,,,,,,,"2009-05-01"
"74486094789","2020-02-01T18:04:00","FM-16","7",,"ESE","1.5","mi","TEMP, PRECIP, SNOW",,,"PSY, SRG, SNOWBOARD",,,"FAA CWO",,,,,,,,,,,,,,,,,,,,,,,,,,,"29.77","39","40",,,,,"97",,"SCT:04 10 OVC:08 18","29.75","7.00","40","170",,"3",,,,,,,,,,,,,,,,,,,,,,,,,,,,,,,,,,,,,"MET09902/01/20 18:04:02 SPECI KJFK 012304Z 17003KT 7SM SCT010 OVC018 04/04 A2977 RMK AO2 T00440039 $ (JT)","FM-16","7",,,,,,,,,,,,,,,,,,,,,,,,,,,,"2009-05-01"
"74486094789","2020-02-01T18:23:00","FM-16","7",,"ESE","1.5","mi","TEMP, PRECIP, SNOW",,,"PSY, SRG, SNOWBOARD",,,"FAA CWO",,,,,,,,,,,,,,,,,,,,,,,,,,,"29.77","39","40",,,,,"97",,"BKN:07 11 OVC:08 19","29.75","8.00","40","200",,"3",,,,,,,,,,,,,,,,,,,,,,,,,,,,,,,,,,,,,"MET09902/01/20 18:23:02 SPECI KJFK 012323Z 20003KT 8SM BKN011 OVC019 04/04 A2977 RMK AO2 T00440039 $ (JT)","FM-16","7",,,,,,,,,,,,,,,,,,,,,,,,,,,,"2009-05-01"
"74486094789","2020-02-01T18:51:00","FM-15","7",,"ESE","1.5","mi","TEMP, PRECIP, SNOW",,,"PSY, SRG, SNOWBOARD",,,"FAA CWO",,,,,,,,,,,,,,,,,,,,,,,,,,,"29.77","39","40","0.00",,"+0.02","6","97","29.76","OVC:08 12","29.75","7.00","40","000",,"0",,,,,,,,,,,,,,,,,,,,,,,,,,,,,,,,,,,,,"MET11702/01/20 18:51:02 METAR KJFK 012351Z 00000KT 7SM OVC012 04/04 A2977 RMK AO2 SLP079 T00440039 10050 20044 56008 $ (JT)","FM-15","7",,,,,,,,,,,,,,,,,,,,,,,,,,,,"2009-05-01"
"74486094789","2020-02-01T19:41:00","FM-16","7",,"ESE","1.5","mi","TEMP, PRECIP, SNOW",,,"PSY, SRG, SNOWBOARD",,,"FAA CWO",,,,,,,,,,,,,,,,,,,,,,,,,,,"29.75","39","41",,"BR:1 ||",,,"93",,"SCT:04 14 OVC:08 24","29.72","6.00","40","000",,"0",,,,,,,,,,,,,,,,,,,,,,,,,,,,,,,,,,,,,"MET09702/01/20 19:41:01 SPECI KJFK 020041Z 00000KT 6SM BR SCT014 OVC024 05/04 A2975 RMK AO2 T00500039 $","FM-16","7",,,,,,,,,,,,,,,,,,,,,,,,,,,,"2009-05-01"
"74486094789","2020-02-01T19:51:00","FM-15","7",,"ESE","1.5","mi","TEMP, PRECIP, SNOW",,,"PSY, SRG, SNOWBOARD",,,"FAA CWO",,,,,,,,,,,,,,,,,,,,,,,,,,,"29.74","39","41","0.00","BR:1 ||",,,"93","29.74","FEW:02 14 OVC:08 24","29.72","6.00","40","000",,"0",,,,,,,,,,,,,,,,,,,,,,,,,,,,,,,,,,,,,"MET10402/01/20 19:51:01 METAR KJFK 020051Z 00000KT 6SM BR FEW014 OVC024 05/04 A2974 RMK AO2 SLP070 T00500039 $","FM-15","7",,,,,,,,,,,,,,,,,,,,,,,,,,,,"2009-05-01"
"74486094789","2020-02-01T20:51:00","FM-15","6",,"ESE","1.5","mi","TEMP, PRECIP, SNOW",,,"PSY, SRG, SNOWBOARD",,,"FAA CWO",,,,,,,,,,,,,,,,,,,,,,,,,,,"29.73","39","41","0.00","BR:1 ||",,,"93","29.73","SCT:04 15 OVC:08 25","29.70","6.00","40","110",,"3",,,,,,,,,,,,,,,,,,,,,,,,,,,,,,,,,,,,,"MET10902/01/20 20:51:03 METAR KJFK 020151Z 11003KT 6SM BR SCT015 OVC025 05/04 A2973 RMK AO2 SLP068 T00500039 $ (JT)","FM-15","6",,,,,,,,,,,,,,,,,,,,,,,,,,,,"2009-05-01"
"74486094789","2020-02-01T21:51:00","FM-15","7",,"ESE","1.5","mi","TEMP, PRECIP, SNOW",,,"PSY, SRG, SNOWBOARD",,,"FAA CWO",,,,,,,,,,,,,,,,,,,,,,,,,,,"29.72","40","40","T","-RA:02 BR:1 |RA |RA","+0.05","6","100","29.71","FEW:02 15 OVC:08 25","29.70","6.00","40","000",,"0",,,,,,,,,,,,,,,,,,,,,,,,,,,,,,,,,,,,,"MET13202/01/20 21:51:01 METAR KJFK 020251Z 00000KT 6SM -RA BR FEW015 OVC025 04/04 A2972 RMK AO2 RAB34 SLP062 P0000 60000 T00440044 56017 $","FM-15","7",,,,,,,,,,,,,,,,,,,,,,,,,,,,"2009-05-01"
"74486094789","2020-02-01T22:00:00","FM-12","4",,"ESE","1.5","mi","TEMP, PRECIP, SNOW",,,"PSY, SRG, SNOWBOARD",,,"FAA CWO",,,,,,,,,,,,,,,,,,,,,,,,,,,,"40","40",,"||RA","+0.05","6","100","29.71","15","29.69","5.59","40","000",,"0",,,,,,,,,,,,,,,,,,,,,,,,,,,,,,,,,,,,,"SYN08674486 11459 80000 10044 20044 30053 40062 56017 69907 761// 90251 333 96010 555 90203=","FM-12","4",,,,,,,,,,,,,,,,,,,,,,,,,,,,"2009-05-01"
"74486094789","2020-02-01T22:51:00","FM-15","7",,"ESE","1.5","mi","TEMP, PRECIP, SNOW",,,"PSY, SRG, SNOWBOARD",,,"FAA CWO",,,,,,,,,,,,,,,,,,,,,,,,,,,"29.70","38","41","0.02","-RA:02 BR:1 |RA |RA",,,"89","29.69","SCT:04 12 OVC:08 19","29.67","5.00","40","330",,"5",,,,,,,,,,,,,,,,,,,,,,,,,,,,,,,,,,,,,"MET11402/01/20 22:51:01 METAR KJFK 020351Z 33004KT 5SM -RA BR SCT012 OVC019 05/03 A2970 RMK AO2 SLP055 P0001 T00500033 $","FM-15","7",,,,,,,,,,,,,,,,,,,,,,,,,,,,"2009-05-01"
"74486094789","2020-02-01T23:51:00","FM-15","7",,"ESE","1.5","mi","TEMP, PRECIP, SNOW",,,"PSY, SRG, SNOWBOARD",,,"FAA CWO",,,,,,,,,,,,,,,,,,,,,,,,,,,"29.68","36","39","0.02","-RA:02 BR:1 |RA |RA",,,"89","29.68","SCT:04 15 BKN:07 25 OVC:08 35","29.65","6.00","38","310",,"7",,,,,,,,,,,,,,,,,,,,,,,,,,,,,,,,,,,,,"MET13102/01/20 23:51:02 METAR KJFK 020451Z 31006KT 6SM -RA BR SCT015 BKN025 OVC035 04/02 A2968 RMK AO2 SLP051 P0002 T00390022 400610017 $","FM-15","7",,,,,,,,,,,,,,,,,,,,,,,,,,,,"2009-05-01"
"74486094789","2020-02-01T23:59:00","SOD  ","6",,"ESE","1.5","mi","TEMP, PRECIP, SNOW",,,"PSY, SRG, SNOWBOARD",,,"FAA CWO",,,,"38","39","95","29.90","29.92","39","3.7","0","6.0","26","43","35","300","11","0.04","0","0.0","310","9","RA BR",,,,,,,,,,,,,,,,,,,,,,,,,,,,,,,,,,,,,,,,,,,,,,,,,,,,,,,,"SOD78324 HR PRECIPITATION (IN): 0.04 SNOW DEPTH (IN):0     24 HR SNOWFALL (IN):0.0  WEATHER(CODE):1  24 HR MAX TEMP (F): 4324 HR MIN TEMP (F): 35AVERAGE STATION PRESSURE:29.920 MINIMUM SEA LEVEL PRESSURE:29.68 TIME OF OCCURRENCE:2359 PEAK WIND SPEED (MPH): 11 PEAK WIND DIR (DEG):300 PEAK WIND TIME (LST):      FASTEST 2MIN SPEED (MPH):  9FASTEST 2MIN DIR (DEG):310 FASTEST 2MIN TIME (LST):     AVERAGE WIND SPEED (MPH): 3.7 24 HR AVG TEMP (F): 39DEPART FROM NORMAL:  6  SKY COVER SR-SS (TENTHS): 1HEATING DEGREE DAYS: 26 COOLING DEGREE DAYS:  0 LATEST DAY MAX TEMP (0700-1900 LST):43  LATEST NIGHT MIN TEMP(1900-0800 LST):35 HOURLY INCREMENTAL PRECIPITATION VALUES (IN):.00 0.00 0.00 0.00 0.00 0.00 0.00 0.00 0.00 0.00 0.00 0.00 0.00 0.00 0.00 0.00 0.00 0.00 0.00 0.00 0.00 T    0.02 0.02","SOD  ","6",,,,,,,,,,,,,,,,,,,,,,,,,"0705","1713",,"2009-05-01"
"74486094789","2020-02-02T00:51:00","FM-15","7",,"ESE","1.5","mi","TEMP, PRECIP, SNOW",,,"PSY, SRG, SNOWBOARD",,,"FAA CWO",,,,,,,,,,,,,,,,,,,,,,,,,,,"29.67","36","39","T","-RA:02 BR:1 |RA |RA","+0.05","6","89","29.66","SCT:04 15 BKN:07 23 OVC:08 40","29.65","6.00","38","320",,"8",,,,,,,,,,,,,,,,,,,,,,,,,,,,,,,,,,,,,"MET15002/02/20 00:51:02 METAR KJFK 020551Z 32007KT 6SM -RA BR SCT015 BKN023 OVC040 04/02 A2967 RMK AO2 SLP045 P0001 60004 T00390022 10050 20039 56017 $ (DM)","FM-15","7",,,,,,,,,,,,,,,,,,,,,,,,,,,,"2009-05-01"
"74486094789","2020-02-02T01:00:00","FM-12","4",,"ESE","1.5","mi","TEMP, PRECIP, SNOW",,,"PSY, SRG, SNOWBOARD",,,"FAA CWO",,,,,,,,,,,,,,,,,,,,,,,,,,,,"36","39",,"||RA","+0.05","6","89","29.66","15","29.64","5.59","38","320",,"8",,,,,,,,,,,,,,,,,,,,,,,,,,,,,,,,,,,,,"SYN09874486 11459 83207 10039 20022 30036 40045 56017 60011 761// 90551 333 10050 20017 96010 555 90206=","FM-12","4",,,,,,,,,,,,,,,,,,,,,,,,,,,,"2009-05-01"
"74486094789","2020-02-02T01:51:00","FM-15","7",,"ESE","1.5","mi","TEMP, PRECIP, SNOW",,,"PSY, SRG, SNOWBOARD",,,"FAA CWO",,,,,,,,,,,,,,,,,,,,,,,,,,,"29.65","36","38","0.01","BR:1 ||",,,"93","29.65","SCT:04 12 BKN:07 25 OVC:08 43","29.62","6.00","37","320",,"6",,,,,,,,,,,,,,,,,,,,,,,,,,,,,,,,,,,,,"MET12802/02/20 01:51:02 METAR KJFK 020651Z 32005KT 6SM BR SCT012 BKN025 OVC043 03/02 A2965 RMK AO2 RAE46 SLP040 P0001 T00330022 $ (DM)","FM-15","7",,,,,,,,,,,,,,,,,,,,,,,,,,,,"2009-05-01"
"74486094789","2020-02-02T02:49:00","FM-16","6",,"ESE","1.5","mi","TEMP, PRECIP, SNOW",,,"PSY, SRG, SNOWBOARD",,,"FAA CWO",,,,,,,,,,,,,,,,,,,,,,,,,,,"29.62","37","37",,"BR:1 ||",,,"100",,"BKN:07 12 OVC:08 44","29.59","5.00","37","000",,"0",,,,,,,,,,,,,,,,,,,,,,,,,,,,,,,,,,,,,"MET09702/02/20 02:49:02 SPECI KJFK 020749Z 00000KT 5SM BR BKN012 OVC044 03/03 A2962 RMK AO2 $ FIBI (DM)","FM-16","6",,,,,,,,,,,,,,,,,,,,,,,,,,,,"2009-05-01"
"74486094789","2020-02-02T02:51:00","FM-15","7",,"ESE","1.5","mi","TEMP, PRECIP, SNOW",,,"PSY, SRG, SNOWBOARD",,,"FAA CWO",,,,,,,,,,,,,,,,,,,,,,,,,,,"29.63","37","38","0.00","BR:1 ||",,,"97","29.62","BKN:07 12 OVC:08 44","29.61","5.00","38","000",,"0",,,,,,,,,,,,,,,,,,,,,,,,,,,,,,,,,,,,,"MET10902/02/20 02:51:02 METAR KJFK 020751Z 00000KT 5SM BR BKN012 OVC044 03/03 A2963 RMK AO2 SLP031 T00330028 $ (DM)","FM-15","7",,,,,,,,,,,,,,,,,,,,,,,,,,,,"2009-05-01"
"74486094789","2020-02-02T03:51:00","FM-15","7",,"ESE","1.5","mi","TEMP, PRECIP, SNOW",,,"PSY, SRG, SNOWBOARD",,,"FAA CWO",,,,,,,,,,,,,,,,,,,,,,,,,,,"29.61","37","37","0.00","BR:1 ||","+0.05","6","100","29.61","BKN:07 14 OVC:08 55","29.59","5.00","37","260",,"3",,,,,,,,,,,,,,,,,,,,,,,,,,,,,,,,,,,,,"MET12102/02/20 03:51:02 METAR KJFK 020851Z 26003KT 5SM BR BKN014 OVC055 03/03 A2961 RMK AO2 SLP027 60001 T00280028 56018 $ (DM)","FM-15","7",,,,,,,,,,,,,,,,,,,,,,,,,,,,"2009-05-01"
"74486094789","2020-02-02T04:00:00","FM-12","4",,"ESE","1.5","mi","TEMP, PRECIP, SNOW",,,"PSY, SRG, SNOWBOARD",,,"FAA CWO",,,,,,,,,,,,,,,,,,,,,,,,,,,,"37","37",,,"+0.05","6","100","29.61","15","29.58","4.97","37","260",,"3",,,,,,,,,,,,,,,,,,,,,,,,,,,,,,,,,,,,,"SYN07674486 11458 82603 10028 20028 30016 40027 56018 69937 710// 90851 555 90209=","FM-12","4",,,,,,,,,,,,,,,,,,,,,,,,,,,,"2009-05-01"
"74486094789","2020-02-02T04:51:00","FM-15","7",,"ESE","1.5","mi","TEMP, PRECIP, SNOW",,,"PSY, SRG, SNOWBOARD",,,"FAA CWO",,,,,,,,,,,,,,,,,,,,,,,,,,,"29.61","36","38","T","-RA:02 BR:1 |RA |RA",,,"93","29.60","BKN:07 14 OVC:08 21","29.59","5.00","37","270",,"8",,,,,,,,,,,,,,,,,,,,,,,,,,,,,,,,,,,,,"MET12502/02/20 04:51:02 METAR KJFK 020951Z 27007KT 5SM -RA BR BKN014 OVC021 03/02 A2961 RMK AO2 RAB42 SLP025 P0000 T00330022 $ (DM)","FM-15","7",,,,,,,,,,,,,,,,,,,,,,,,,,,,"2009-05-01"
"74486094789","2020-02-02T05:51:00","FM-15","7",,"ESE","1.5","mi","TEMP, PRECIP, SNOW",,,"PSY, SRG, SNOWBOARD",,,"FAA CWO",,,,,,,,,,,,,,,,,,,,,,,,,,,"29.61","36","38","T","-RA:02 BR:1 |RA |RA",,,"93","29.61","BKN:07 15 OVC:08 25","29.59","5.00","37","280",,"8",,,,,,,,,,,,,,,,,,,,,,,,,,,,,,,,,,,,,"MET11902/02/20 05:51:02 METAR KJFK 021051Z 28007KT 5SM -RA BR BKN015 OVC025 03/02 A2961 RMK AO2 SLP027 P0000 T00330022 $ (DM)","FM-15","7",,,,,,,,,,,,,,,,,,,,,,,,,,,,"2009-05-01"
"74486094789","2020-02-02T06:51:00","FM-15","7",,"ESE","1.5","mi","TEMP, PRECIP, SNOW",,,"PSY, SRG, SNOWBOARD",,,"FAA CWO",,,,,,,,,,,,,,,,,,,,,,,,,,,"29.62","36","36",,"-RA:02 BR:1 |RA |RA",,,"100",,"FEW:02 15 BKN:07 22 OVC:08 33","29.59","5.00","36","330",,"10",,,,,,,,,,,,,,,,,,,,,,,,,,,,,,,,,,,,,"MET09202/02/20 06:51:02 METAR KJFK 021151Z 33009KT 5SM -RA BR FEW015 BKN022 OVC033 02/02 A2962 RMK","FM-15","7",,,,,,,,,,,,,,,,,,,,,,,,,,,,"2009-05-01"
"74486094789","2020-02-02T07:00:00","FM-12","4",,"ESE","1.5","mi","TEMP, PRECIP, SNOW",,,"PSY, SRG, SNOWBOARD",,,"FAA CWO",,,,,,,,,,,,,,,,,,,,,,,,,,,,"36","36",,"||RA",,,"100",,"15","29.59","4.97","36","330",,"10",,,,,,,,,,,,,,,,,,,,,,,,,,,,,,,,,,,,,"SYN07474486 31458 83309 10020 20020 30019 761// 91151 333 10061 96010 555 90212=","FM-12","4",,,,,,,,,,,,,,,,,,,,,,,,,,,,"2009-05-01"
"74486094789","2020-02-02T07:49:00","FM-16","6",,"ESE","1.5","mi","TEMP, PRECIP, SNOW",,,"PSY, SRG, SNOWBOARD",,,"FAA CWO",,,,,,,,,,,,,,,,,,,,,,,,,,,"29.63","34","37",,,,,"87",,"FEW:02 25 BKN:07 65 BKN:07 80","29.61","7.00","36","320",,"10",,,,,,,,,,,,,,,,,,,,,,,,,,,,,,,,,,,,,"MET11402/02/20 07:49:02 SPECI KJFK 021249Z 32009KT 7SM FEW025 BKN065 BKN080 03/01 A2963 RMK AO2 RAB14E45 PNO $ FIBI (ML)","FM-16","6",,,,,,,,,,,,,,,,,,,,,,,,,,,,"2009-05-01"
"74486094789","2020-02-02T07:51:00","FM-15","7",,"ESE","1.5","mi","TEMP, PRECIP, SNOW",,,"PSY, SRG, SNOWBOARD",,,"FAA CWO",,,,,,,,,,,,,,,,,,,,,,,,,,,"29.63","33","37",,,,,"86","29.65","FEW:02 25 BKN:07 65 BKN:07 80","29.61","7.00","35","320",,"10",,,,,,,,,,,,,,,,,,,,,,,,,,,,,,,,,,,,,"MET12602/02/20 07:51:02 METAR KJFK 021251Z 32009KT 7SM FEW025 BKN065 BKN080 03/01 A2963 RMK AO2 RAB14E45 SLP039 T00280006 PNO $ (ML)","FM-15","7",,,,,,,,,,,,,,,,,,,,,,,,,,,,"2009-05-01"
"74486094789","2020-02-02T08:51:00","FM-15","7",,"ESE","1.5","mi","TEMP, PRECIP, SNOW",,,"PSY, SRG, SNOWBOARD",,,"FAA CWO",,,,,,,,,,,,,,,,,,,,,,,,,,,"29.62","32","37",,,,,"82","29.63","SCT:04 20 SCT:04 40 BKN:07 90","29.59","9.00","35","300",,"9",,,,,,,,,,,,,,,,,,,,,,,,,,,,,,,,,,,,,"MET11702/02/20 08:51:02 METAR KJFK 021351Z 30008KT 9SM SCT020 SCT040 BKN090 03/00 A2962 RMK AO2 SLP035 T00280000 PNO $ (ML)","FM-15","7",,,,,,,,,,,,,,,,,,,,,,,,,,,,"2009-05-01"
"74486094789","2020-02-02T09:51:00","FM-15","7",,"ESE","1.5","mi","TEMP, PRECIP, SNOW",,,"PSY, SRG, SNOWBOARD",,,"FAA CWO",,,,,,,,,,,,,,,,,,,,,,,,,,,"29.63","31","40","0.00",,,,"70","29.65","SCT:04 22 BKN:07 32 BKN:07 90","29.61","10.00","36","300",,"16",,,,,,,,,,,,,,,,,,,,,,,,,,,,,,,,,,,,,"MET12502/02/20 09:51:02 METAR KJFK 021451Z 30014KT 10SM SCT022 BKN032 BKN090 04/M01 A2963 RMK AO2 SLP039 6//// T00441006 PNO $ (ML)","FM-15","7",,,,,,,,,,,,,,,,,,,,,,,,,,,,"2009-05-01"
"74486094789","2020-02-02T10:00:00","FM-12","4",,"ESE","1.5","mi","TEMP, PRECIP, SNOW",,,"PSY, SRG, SNOWBOARD",,,"FAA CWO",,,,,,,,,,,,,,,,,,,,,,,,,,,,"31","40",,,,,"70","29.65","26","29.60","9.94","36","300",,"16",,,,,,,,,,,,,,,,,,,,,,,,,,,,,,,,,,,,,"SYN05874486 32566 63014 10044 21006 30023 40039 91451 555 90215=","FM-12","4",,,,,,,,,,,,,,,,,,,,,,,,,,,,"2009-05-01"
"74486094789","2020-02-02T10:51:00","FM-15","7",,"ESE","1.5","mi","TEMP, PRECIP, SNOW",,,"PSY, SRG, SNOWBOARD",,,"FAA CWO",,,,,,,,,,,,,,,,,,,,,,,,,,,"29.62","30","41","0.00",,,,"65","29.63","SCT:04 26 BKN:07 33 BKN:07 90","29.59","10.00","37","290",,"14",,,,,,,,,,,,,,,,,,,,,,,,,,,,,,,,,,,,,"MET11502/02/20 10:51:02 METAR KJFK 021551Z 29012KT 10SM SCT026 BKN033 BKN090 05/M01 A2962 RMK AO2 SLP035 T00501011 $ (ML)","FM-15","7",,,,,,,,,,,,,,,,,,,,,,,,,,,,"2009-05-01"
"74486094789","2020-02-02T11:51:00","FM-15","7",,"ESE","1.5","mi","TEMP, PRECIP, SNOW",,,"PSY, SRG, SNOWBOARD",,,"FAA CWO",,,,,,,,,,,,,,,,,,,,,,,,,,,"29.59","31","43","0.00",,,,"63","29.60","FEW:02 30 BKN:07 35 BKN:07 90","29.57","10.00","38","260",,"15",,,,,,,,,,,,,,,,,,,,,,,,,,,,,,,,,,,,,"MET11502/02/20 11:51:02 METAR KJFK 021651Z 26013KT 10SM FEW030 BKN035 BKN090 06/M01 A2959 RMK AO2 SLP025 T00611006 $ (ML)","FM-15","7",,,,,,,,,,,,,,,,,,,,,,,,,,,,"2009-05-01"
"74486094789","2020-02-02T12:51:00","FM-15","7",,"ESE","1.5","mi","TEMP, PRECIP, SNOW",,,"PSY, SRG, SNOWBOARD",,,"FAA CWO",,,,,,,,,,,,,,,,,,,,,,,,,,,"29.55","29","43","0.00",,"+0.08","8","58","29.57","FEW:02 30 BKN:07 47 BKN:07 110","29.52","10.00","37","270",,"15",,,,,,,,,,,,,,,,,,,,,,,,,,,,,,,,,,,,,"MET12702/02/20 12:51:02 METAR KJFK 021751Z 27013KT 10SM FEW030 BKN047 BKN110 06/M02 A2955 RMK AO2 SLP012 6//// T00611017 58027 $ (ML)","FM-15","7",,,,,,,,,,,,,,,,,,,,,,,,,,,,"2009-05-01"
"74486094789","2020-02-02T13:00:00","FM-12","4",,"ESE","1.5","mi","TEMP, PRECIP, SNOW",,,"PSY, SRG, SNOWBOARD",,,"FAA CWO",,,,,,,,,,,,,,,,,,,,,,,,,,,,"29","43",,,"+0.08","8","58","29.57","26","29.52","9.94","37","270",,"15",,,,,,,,,,,,,,,,,,,,,,,,,,,,,,,,,,,,,"SYN06474486 32566 62713 10061 21017 39996 40012 58027 91751 555 90218=","FM-12","4",,,,,,,,,,,,,,,,,,,,,,,,,,,,"2009-05-01"
"74486094789","2020-02-02T13:51:00","FM-15","7",,"ESE","1.5","mi","TEMP, PRECIP, SNOW",,,"PSY, SRG, SNOWBOARD",,,"FAA CWO",,,,,,,,,,,,,,,,,,,,,,,,,,,"29.52","28","43","0.00",,,,"56","29.53","FEW:02 35 BKN:07 49 BKN:07 95","29.49","10.00","37","260",,"9",,,,,,,,,,,,,,,,,,,,,,,,,,,,,,,,,,,,,"MET11502/02/20 13:51:02 METAR KJFK 021851Z 26008KT 10SM FEW035 BKN049 BKN095 06/M02 A2952 RMK AO2 SLP001 T00611022 $ (ML)","FM-15","7",,,,,,,,,,,,,,,,,,,,,,,,,,,,"2009-05-01"
"74486094789","2020-02-02T14:51:00","FM-15","7",,"ESE","1.5","mi","TEMP, PRECIP, SNOW",,,"PSY, SRG, SNOWBOARD",,,"FAA CWO",,,,,,,,,,,,,,,,,,,,,,,,,,,"29.49","29","43","0.00",,,,"58","29.50","FEW:02 37 BKN:07 45 BKN:07 80","29.47","10.00","37","250",,"10",,,,,,,,,,,,,,,,,,,,,,,,,,,,,,,,,,,,,"MET11502/02/20 14:51:02 METAR KJFK 021951Z 25009KT 10SM FEW037 BKN045 BKN080 06/M02 A2949 RMK AO2 SLP991 T00611017 $ (ML)","FM-15","7",,,,,,,,,,,,,,,,,,,,,,,,,,,,"2009-05-01"
"74486094789","2020-02-02T15:51:00","FM-15","7",,"ESE","1.5","mi","TEMP, PRECIP, SNOW",,,"PSY, SRG, SNOWBOARD",,,"FAA CWO",,,,,,,,,,,,,,,,,,,,,,,,,,,"29.50","29","42","0.00",,"+0.05","5","60","29.52","BKN:07 50 BKN:07 65 OVC:08 75","29.48","10.00","37","230",,"21",,,,,,,,,,,,,,,,,,,,,,,,,,,,,,,,,,,,,"MET12102/02/20 15:51:02 METAR KJFK 022051Z 23018KT 10SM BKN050 BKN065 OVC075 06/M02 A2950 RMK AO2 SLP995 T00561017 55017 $ (RG)","FM-15","7",,,,,,,,,,,,,,,,,,,,,,,,,,,,"2009-05-01"
"74486094789","2020-02-02T16:00:00","FM-12","4",,"ESE","1.5","mi","TEMP, PRECIP, SNOW",,,"PSY, SRG, SNOWBOARD",,,"FAA CWO",,,,,,,,,,,,,,,,,,,,,,,,,,,,"29","42",,,"+0.05","5","60","29.52","57","29.47","9.94","37","230",,"21",,,,,,,,,,,,,,,,,,,,,,,,,,,,,,,,,,,,,"SYN06474486 32766 82318 10056 21017 39979 49995 55017 92051 555 90221=","FM-12","4",,,,,,,,,,,,,,,,,,,,,,,,,,,,"2009-05-01"
"74486094789","2020-02-02T16:49:00","FM-16","6",,"ESE","1.5","mi","TEMP, PRECIP, SNOW",,,"PSY, SRG, SNOWBOARD",,,"FAA CWO",,,,,,,,,,,,,,,,,,,,,,,,,,,"29.53","34","37",,"-RA:02 |RA |RA",,,"87",,"BKN:07 15 BKN:07 32 OVC:08 40","29.51","10.00","36","240",,"18",,,,,,,,,,,,,,,,,,,,,,,,,,,,,,,,,,,,,"MET11602/02/20 16:49:02 SPECI KJFK 022149Z 24016KT 10SM -RA BKN015 BKN032 OVC040 03/01 A2953 RMK AO2 RAB35 PNO $ FIBI (RG)","FM-16","6",,,,,,,,,,,,,,,,,,,,,,,,,,,,"2009-05-01"
"74486094789","2020-02-02T16:51:00","FM-15","7",,"ESE","1.5","mi","TEMP, PRECIP, SNOW",,,"PSY, SRG, SNOWBOARD",,,"FAA CWO",,,,,,,,,,,,,,,,,,,,,,,,,,,"29.53","34","37",,"-RA:02 |RA |RA",,,"89","29.54","BKN:07 15 BKN:07 32 OVC:08 40","29.51","10.00","36","250",,"18",,,,,,,,,,,,,,,,,,,,,,,,,,,,,,,,,,,,,"MET12802/02/20 16:51:02 METAR KJFK 022151Z 25016KT 10SM -RA BKN015 BKN032 OVC040 03/01 A2953 RMK AO2 RAB35 SLP005 T00280011 PNO $ (RG)","FM-15","7",,,,,,,,,,,,,,,,,,,,,,,,,,,,"2009-05-01"
"74486094789","2020-02-02T17:49:00","FM-16","6",,"ESE","1.5","mi","TEMP, PRECIP, SNOW",,,"PSY, SRG, SNOWBOARD",,,"FAA CWO",,,,,,,,,,,,,,,,,,,,,,,,,,,"29.56","34","36",,"-RA:02 |RA |RA",,,"93",,"FEW:02 9 BKN:07 11 OVC:08 35","29.54","10.00","35","260",,"14",,,,,,,,,,,,,,,,,,,,,,,,,,,,,,,,,,,,,"MET11002/02/20 17:49:02 SPECI KJFK 022249Z 26012KT 10SM -RA FEW009 BKN011 OVC035 02/01 A2956 RMK AO2 PNO $ FIBI (RG)","FM-16","6",,,,,,,,,,,,,,,,,,,,,,,,,,,,"2009-05-01"
"74486094789","2020-02-02T17:51:00","FM-15","7",,"ESE","1.5","mi","TEMP, PRECIP, SNOW",,,"PSY, SRG, SNOWBOARD",,,"FAA CWO",,,,,,,,,,,,,,,,,,,,,,,,,,,"29.56","34","36",,"-RA:02 |RA |RA",,,"93","29.57","FEW:02 9 BKN:07 11 OVC:08 35","29.54","10.00","35","270",,"15",,,,,,,,,,,,,,,,,,,,,,,,,,,,,,,,,,,,,"MET12202/02/20 17:51:02 METAR KJFK 022251Z 27013KT 10SM -RA FEW009 BKN011 OVC035 02/01 A2956 RMK AO2 SLP015 T00220011 PNO $ (RG)","FM-15","7",,,,,,,,,,,,,,,,,,,,,,,,,,,,"2009-05-01"
"74486094789","2020-02-02T18:49:00","FM-16","6",,"ESE","1.5","mi","TEMP, PRECIP, SNOW",,,"PSY, SRG, SNOWBOARD",,,"FAA CWO",,,,,,,,,,,,,,,,,,,,,,,,,,,"29.58","34","37",,"-RA:02 |RA |RA",,,"87",,"SCT:04 12 BKN:07 38 OVC:08 55","29.56","10.00","36","270",,"13",,,,,,,,,,,,,,,,,,,,,,,,,,,,,,,,,,,,,"MET11002/02/20 18:49:02 SPECI KJFK 022349Z 27011KT 10SM -RA SCT012 BKN038 OVC055 03/01 A2958 RMK AO2 PNO $ FIBI (RG)","FM-16","6",,,,,,,,,,,,,,,,,,,,,,,,,,,,"2009-05-01"
"74486094789","2020-02-02T18:51:00","FM-15","7",,"ESE","1.5","mi","TEMP, PRECIP, SNOW",,,"PSY, SRG, SNOWBOARD",,,"FAA CWO",,,,,,,,,,,,,,,,,,,,,,,,,,,"29.58","34","37",,"-RA:02 |RA |RA","-0.08","1","89","29.59","SCT:04 12 BKN:07 38 OVC:08 55","29.56","10.00","36","260",,"13",,,,,,,,,,,,,,,,,,,,,,,,,,,,,,,,,,,,,"MET14602/02/20 18:51:02 METAR KJFK 022351Z 26011KT 10SM -RA SCT012 BKN038 OVC055 03/01 A2958 RMK AO2 SLP022 6//// T00280011 10067 20022 51027 PNO $ (RG)","FM-15","7",,,,,,,,,,,,,,,,,,,,,,,,,,,,"2009-05-01"
"74486094789","2020-02-02T19:00:00","FM-12","4",,"ESE","1.5","mi","TEMP, PRECIP, SNOW",,,"PSY, SRG, SNOWBOARD",,,"FAA CWO",,,,,,,,,,,,,,,,,,,,,,,,,,,,"34","37",,"||RA","-0.08","1","89","29.59","15","29.55","9.94","36","260",,"13",,,,,,,,,,,,,,,,,,,,,,,,,,,,,,,,,,,,,"SYN07074486 31466 82611 10028 20011 30006 40022 51027 761// 92351 555 90300=","FM-12","4",,,,,,,,,,,,,,,,,,,,,,,,,,,,"2009-05-01"
"74486094789","2020-02-02T19:49:00","FM-16","6",,"ESE","1.5","mi","TEMP, PRECIP, SNOW",,,"PSY, SRG, SNOWBOARD",,,"FAA CWO",,,,,,,,,,,,,,,,,,,,,,,,,,,"29.58","34","37",,"-RA:02 |RA |RA",,,"87",,"SCT:04 9 BKN:07 12 BKN:07 55","29.56","10.00","36","240",,"9",,,,,,,,,,,,,,,,,,,,,,,,,,,,,,,,,,,,,"MET11002/02/20 19:49:03 SPECI KJFK 030049Z 24008KT 10SM -RA SCT009 BKN012 BKN055 03/01 A2958 RMK AO2 PNO $ FIBI (RG)","FM-16","6",,,,,,,,,,,,,,,,,,,,,,,,,,,,"2009-05-01"
"74486094789","2020-02-02T19:51:00","FM-15","7",,"ESE","1.5","mi","TEMP, PRECIP, SNOW",,,"PSY, SRG, SNOWBOARD",,,"FAA CWO",,,,,,,,,,,,,,,,,,,,,,,,,,,"29.58","34","37",,"-RA:02 |RA |RA",,,"89","29.59","SCT:04 9 BKN:07 12 BKN:07 55","29.56","10.00","36","240",,"8",,,,,,,,,,,,,,,,,,,,,,,,,,,,,,,,,,,,,"MET11702/02/20 19:51:01 METAR KJFK 030051Z 24007KT 10SM -RA SCT009 BKN012 BKN055 03/01 A2958 RMK AO2 SLP022 T00280011 PNO $","FM-15","7",,,,,,,,,,,,,,,,,,,,,,,,,,,,"2009-05-01"
"74486094789","2020-02-02T20:49:00","FM-16","6",,"ESE","1.5","mi","TEMP, PRECIP, SNOW",,,"PSY, SRG, SNOWBOARD",,,"FAA CWO",,,,,,,,,,,,,,,,,,,,,,,,,,,"29.57","34","36",,"-RA:02 |RA |RA",,,"93",,"SCT:04 9 SCT:04 13 BKN:07 32","29.54","10.00","35","220",,"8",,,,,,,,,,,,,,,,,,,,,,,,,,,,,,,,,,,,,"MET11002/02/20 20:49:03 SPECI KJFK 030149Z 22007KT 10SM -RA SCT009 SCT013 BKN032 02/01 A2957 RMK AO2 PNO $ FIBI (RG)","FM-16","6",,,,,,,,,,,,,,,,,,,,,,,,,,,,"2009-05-01"
"74486094789","2020-02-02T20:51:00","FM-15","7",,"ESE","1.5","mi","TEMP, PRECIP, SNOW",,,"PSY, SRG, SNOWBOARD",,,"FAA CWO",,,,,,,,,,,,,,,,,,,,,,,,,,,"29.57","34","36",,"-RA:02 |RA |RA",,,"93","29.58","SCT:04 9 SCT:04 13 BKN:07 32","29.54","10.00","35","230",,"8",,,,,,,,,,,,,,,,,,,,,,,,,,,,,,,,,,,,,"MET11702/02/20 20:51:01 METAR KJFK 030151Z 23007KT 10SM -RA SCT009 SCT013 BKN032 02/01 A2957 RMK AO2 SLP018 T00220011 PNO $","FM-15","7",,,,,,,,,,,,,,,,,,,,,,,,,,,,"2009-05-01"
"74486094789","2020-02-02T21:51:00","FM-15","7",,"ESE","1.5","mi","TEMP, PRECIP, SNOW",,,"PSY, SRG, SNOWBOARD",,,"FAA CWO",,,,,,,,,,,,,,,,,,,,,,,,,,,"29.56","34","36",,"-RA:02 |RA |RA","+0.02","8","93","29.57","FEW:02 7 SCT:04 11 BKN:07 33","29.54","7.00","35","230",,"7",,,,,,,,,,,,,,,,,,,,,,,,,,,,,,,,,,,,,"MET12802/02/20 21:51:01 METAR KJFK 030251Z 23006KT 7SM -RA FEW007 SCT011 BKN033 02/01 A2956 RMK AO2 SLP015 6//// T00220011 58007 PNO $","FM-15","7",,,,,,,,,,,,,,,,,,,,,,,,,,,,"2009-05-01"
"74486094789","2020-02-02T22:00:00","FM-12","4",,"ESE","1.5","mi","TEMP, PRECIP, SNOW",,,"PSY, SRG, SNOWBOARD",,,"FAA CWO",,,,,,,,,,,,,,,,,,,,,,,,,,,,"34","36",,"||RA","+0.02","8","93","29.57","8","29.53","6.84","35","230",,"7",,,,,,,,,,,,,,,,,,,,,,,,,,,,,,,,,,,,,"SYN07074486 31361 62306 10022 20011 39999 40015 58007 761// 90251 555 90303=","FM-12","4",,,,,,,,,,,,,,,,,,,,,,,,,,,,"2009-05-01"
"74486094789","2020-02-02T22:51:00","FM-15","7",,"ESE","1.5","mi","TEMP, PRECIP, SNOW",,,"PSY, SRG, SNOWBOARD",,,"FAA CWO",,,,,,,,,,,,,,,,,,,,,,,,,,,"29.56","34","36",,"-RA:02 |RA |RA",,,"93","29.57","SCT:04 7 OVC:08 31","29.54","8.00","35","250",,"8",,,,,,,,,,,,,,,,,,,,,,,,,,,,,,,,,,,,,"MET10902/02/20 22:51:01 METAR KJFK 030351Z 25007KT 8SM -RA SCT007 OVC031 02/01 A2956 RMK AO2 SLP015 T00220011 PNO $","FM-15","7",,,,,,,,,,,,,,,,,,,,,,,,,,,,"2009-05-01"
"74486094789","2020-02-02T23:51:00","FM-15","7",,"ESE","1.5","mi","TEMP, PRECIP, SNOW",,,"PSY, SRG, SNOWBOARD",,,"FAA CWO",,,,,,,,,,,,,,,,,,,,,,,,,,,"29.58","35","37",,"-RA:02 |RA |RA",,,"93","29.59","SCT:04 7 OVC:08 31","29.56","8.00","36","250",,"9",,,,,,,,,,,,,,,,,,,,,,,,,,,,,,,,,,,,,"MET13202/02/20 23:51:02 METAR KJFK 030451Z 25008KT 8SM -RA SCT007 OVC031 03/02 A2958 RMK AO2 SLP022 SCT007 V BKN T00280017 400671017 PNO $","FM-15","7",,,,,,,,,,,,,,,,,,,,,,,,,,,,"2009-05-01"
"74486094789","2020-02-02T23:59:00","SOD  ","6",,"ESE","1.5","mi","TEMP, PRECIP, SNOW",,,"PSY, SRG, SNOWBOARD",,,"FAA CWO",,,,"33","37","83","29.61","29.59","36","10.0","0","3.9","28","44","29","240","29","0.01","0","0.0","240","25","RA BR",,,,,,,,,,,,,,,,,,,,,,,,,,,,,,,,,,,,,,,,,,,,,,,,,,,,,,,,"SOD75324 HR PRECIPITATION (IN): 0.01 SNOW DEPTH (IN):0     24 HR SNOWFALL (IN):0.0  WEATHER(CODE):1  24 HR MAX TEMP (F): 4424 HR MIN TEMP (F): 29AVERAGE STATION PRESSURE:29.585 MINIMUM SEA LEVEL PRESSURE:29.60 TIME OF OCCURRENCE:0541 PEAK WIND SPEED (MPH): 29 PEAK WIND DIR (DEG):240 PEAK WIND TIME (LST):      FASTEST 2MIN SPEED (MPH): 25FASTEST 2MIN DIR (DEG):240 FASTEST 2MIN TIME (LST):     AVERAGE WIND SPEED (MPH):10.0 24 HR AVG TEMP (F): 37DEPART FROM NORMAL:  4  HEATING DEGREE DAYS: 28 COOLING DEGREE DAYS:  0 LATEST DAY MAX TEMP (0700-1900 LST):44( LATEST NIGHT MIN TEMP(1900-0800 LST):37 HOURLY INCREMENTAL PRECIPITATION VALUES (IN):    0.01 0.00 0.00 T    T    M    M    M    0.00 0.00 0.00 0.00 0.00 0.00 0.00 M    M    M    M    M    M    M    M","SOD  ","6",,,,,,,,,,,,,,,,,,,,,,,,,"0704","1714",,"2009-05-01"
"74486094789","2020-02-03T00:51:00","FM-15","7",,"ESE","1.5","mi","TEMP, PRECIP, SNOW",,,"PSY, SRG, SNOWBOARD",,,"FAA CWO",,,,,,,,,,,,,,,,,,,,,,,,,,,"29.57","35","37",,,"-0.01","0","93","29.58","FEW:02 8 FEW:02 30 OVC:08 70","29.54","10.00","36","250",,"10",,,,,,,,,,,,,,,,,,,,,,,,,,,,,,,,,,,,,"MET14802/03/20 00:51:02 METAR KJFK 030551Z 25009KT 10SM FEW008 FEW030 OVC070 03/02 A2957 RMK AO2 RAE41 SLP018 6//// T00280017 10028 20022 50003 PNO $ (JC)","FM-15","7",,,,,,,,,,,,,,,,,,,,,,,,,,,,"2009-05-01"
"74486094789","2020-02-03T01:00:00","FM-12","4",,"ESE","1.5","mi","TEMP, PRECIP, SNOW",,,"PSY, SRG, SNOWBOARD",,,"FAA CWO",,,,,,,,,,,,,,,,,,,,,,,,,,,,"35","37",,,"0.01","9","93","29.58","8","29.54","9.94","36","250",,"10",,,,,,,,,,,,,,,,,,,,,,,,,,,,,,,,,,,,,"SYN06474486 32366 82509 10028 20017 30002 40018 50003 90551 555 90306=","FM-12","4",,,,,,,,,,,,,,,,,,,,,,,,,,,,"2009-05-01"
"74486094789","2020-02-03T01:51:00","FM-15","7",,"ESE","1.5","mi","TEMP, PRECIP, SNOW",,,"PSY, SRG, SNOWBOARD",,,"FAA CWO",,,,,,,,,,,,,,,,,,,,,,,,,,,"29.61","35","38",,,,,"89","29.62","OVC:08 50","29.59","10.00","37","250",,"11",,,,,,,,,,,,,,,,,,,,,,,,,,,,,,,,,,,,,"MET10402/03/20 01:51:02 METAR KJFK 030651Z 25010KT 10SM OVC050 03/02 A2961 RMK AO2 SLP032 T00330017 PNO $ (JC)","FM-15","7",,,,,,,,,,,,,,,,,,,,,,,,,,,,"2009-05-01"
"74486094789","2020-02-03T02:51:00","FM-15","7",,"ESE","1.5","mi","TEMP, PRECIP, SNOW",,,"PSY, SRG, SNOWBOARD",,,"FAA CWO",,,,,,,,,,,,,,,,,,,,,,,,,,,"29.62","35","38","0.00",,,,"89","29.63","SCT:04 50 OVC:08 75","29.59","10.00","37","260",,"9",,,,,,,,,,,,,,,,,,,,,,,,,,,,,,,,,,,,,"MET10702/03/20 02:51:02 METAR KJFK 030751Z 26008KT 10SM SCT050 OVC075 03/02 A2962 RMK AO2 SLP035 T00330017 $ (JC)","FM-15","7",,,,,,,,,,,,,,,,,,,,,,,,,,,,"2009-05-01"
"74486094789","2020-02-03T03:51:00","FM-15","7",,"ESE","1.5","mi","TEMP, PRECIP, SNOW",,,"PSY, SRG, SNOWBOARD",,,"FAA CWO",,,,,,,,,,,,,,,,,,,,,,,,,,,"29.64","35","39","0.00",,"-0.07","1","86","29.65","FEW:02 50 BKN:07 80","29.62","10.00","37","260",,"10",,,,,,,,,,,,,,,,,,,,,,,,,,,,,,,,,,,,,"MET11902/03/20 03:51:02 METAR KJFK 030851Z 26009KT 10SM FEW050 BKN080 04/02 A2964 RMK AO2 SLP042 6//// T00390017 51024 $ (JC)","FM-15","7",,,,,,,,,,,,,,,,,,,,,,,,,,,,"2009-05-01"
"74486094789","2020-02-03T04:00:00","FM-12","4",,"ESE","1.5","mi","TEMP, PRECIP, SNOW",,,"PSY, SRG, SNOWBOARD",,,"FAA CWO",,,,,,,,,,,,,,,,,,,,,,,,,,,,"35","39",,,"-0.07","1","86","29.65","57","29.61","9.94","37","260",,"10",,,,,,,,,,,,,,,,,,,,,,,,,,,,,,,,,,,,,"SYN06474486 32766 62609 10039 20017 30026 40042 51024 90851 555 90309=","FM-12","4",,,,,,,,,,,,,,,,,,,,,,,,,,,,"2009-05-01"
"74486094789","2020-02-03T04:51:00","FM-15","7",,"ESE","1.5","mi","TEMP, PRECIP, SNOW",,,"PSY, SRG, SNOWBOARD",,,"FAA CWO",,,,,,,,,,,,,,,,,,,,,,,,,,,"29.68","35","39","0.00",,,,"86","29.70","BKN:07 48","29.65","10.00","37","240",,"11",,,,,,,,,,,,,,,,,,,,,,,,,,,,,,,,,,,,,"MET10702/03/20 04:51:02 METAR KJFK 030951Z 24010KT 10SM BKN048 04/02 A2968 RMK AO2 PRESRR SLP056 T00390017 $ (JC)","FM-15","7",,,,,,,,,,,,,,,,,,,,,,,,,,,,"2009-05-01"
"74486094789","2020-02-03T05:51:00","FM-15","7",,"ESE","1.5","mi","TEMP, PRECIP, SNOW",,,"PSY, SRG, SNOWBOARD",,,"FAA CWO",,,,,,,,,,,,,,,,,,,,,,,,,,,"29.72","36","39","0.00",,,,"89","29.73","BKN:07 49","29.70","10.00","38","230",,"10",,,,,,,,,,,,,,,,,,,,,,,,,,,,,,,,,,,,,"MET10002/03/20 05:51:02 METAR KJFK 031051Z 23009KT 10SM BKN049 04/02 A2972 RMK AO2 SLP069 T00390022 $ (JC)","FM-15","7",,,,,,,,,,,,,,,,,,,,,,,,,,,,"2009-05-01"
"74486094789","2020-02-03T06:51:00","FM-15","7",,"ESE","1.5","mi","TEMP, PRECIP, SNOW",,,"PSY, SRG, SNOWBOARD",,,"FAA CWO",,,,,,,,,,,,,,,,,,,,,,,,,,,"29.77","37","39","0.00",,"-0.13","3","93","29.78","BKN:07 42","29.75","7.00","38","240",,"13",,,,,,,,,,,,,,,,,,,,,,,,,,,,,,,,,,,,,"MET12902/03/20 06:51:02 METAR KJFK 031151Z 24011KT 7SM BKN042 04/03 A2977 RMK AO2 SLP086 6//// 7//// T00390028 10044 20028 53044 $ (JC)","FM-15","7",,,,,,,,,,,,,,,,,,,,,,,,,,,,"2009-05-01"
"74486094789","2020-02-03T07:00:00","FM-12","4",,"ESE","1.5","mi","TEMP, PRECIP, SNOW",,,"PSY, SRG, SNOWBOARD",,,"FAA CWO",,,,,,,,,,,,,,,,,,,,,,,,,,,,"37","39",,,"-0.13","3","93","29.78","41","29.74","6.84","38","240",,"13",,,,,,,,,,,,,,,,,,,,,,,,,,,,,,,,,,,,,"SYN08074486 32661 62411 10039 20028 30070 40086 53044 91151 333 10067 20022 555 90312=","FM-12","4",,,,,,,,,,,,,,,,,,,,,,,,,,,,"2009-05-01"
"74486094789","2020-02-03T07:51:00","FM-15","7",,"ESE","1.5","mi","TEMP, PRECIP, SNOW",,,"PSY, SRG, SNOWBOARD",,,"FAA CWO",,,,,,,,,,,,,,,,,,,,,,,,,,,"29.81","37","40","0.00",,,,"89","29.83","BKN:07 40","29.78","8.00","39","240",,"13",,,,,,,,,,,,,,,,,,,,,,,,,,,,,,,,,,,,,"MET09902/03/20 07:51:02 METAR KJFK 031251Z 24011KT 8SM BKN040 04/03 A2981 RMK AO2 SLP100 T00440028 $ (BH)","FM-15","7",,,,,,,,,,,,,,,,,,,,,,,,,,,,"2009-05-01"
"74486094789","2020-02-03T08:51:00","FM-15","7",,"ESE","1.5","mi","TEMP, PRECIP, SNOW",,,"PSY, SRG, SNOWBOARD",,,"FAA CWO",,,,,,,,,,,,,,,,,,,,,,,,,,,"29.85","37","41","0.00",,,,"86","29.86","BKN:07 44","29.83","10.00","39","240",,"20",,,,,,,,,,,,,,,,,,,,,,,,,,,,,,,,,,,,,"MET10002/03/20 08:51:02 METAR KJFK 031351Z 24017KT 10SM BKN044 05/03 A2985 RMK AO2 SLP113 T00500028 $ (BH)","FM-15","7",,,,,,,,,,,,,,,,,,,,,,,,,,,,"2009-05-01"
"74486094789","2020-02-03T09:51:00","FM-15","7",,"ESE","1.5","mi","TEMP, PRECIP, SNOW",,,"PSY, SRG, SNOWBOARD",,,"FAA CWO",,,,,,,,,,,,,,,,,,,,,,,,,,,"29.88","38","42","0.00",,"-0.11","1","85","29.89","BKN:07 44","29.85","10.00","40","240",,"16",,,,,,,,,,,,,,,,,,,,,,,,,,,,,,,,,,,,,"MET10602/03/20 09:51:02 METAR KJFK 031451Z 24014KT 10SM BKN044 06/03 A2988 RMK AO2 SLP123 T00560033 51037 $ (BH)","FM-15","7",,,,,,,,,,,,,,,,,,,,,,,,,,,,"2009-05-01"
"74486094789","2020-02-03T10:00:00","FM-12","4",,"ESE","1.5","mi","TEMP, PRECIP, SNOW",,,"PSY, SRG, SNOWBOARD",,,"FAA CWO",,,,,,,,,,,,,,,,,,,,,,,,,,,,"38","42",,,"-0.11","1","85","29.89","41","29.85","9.94","40","240",,"16",,,,,,,,,,,,,,,,,,,,,,,,,,,,,,,,,,,,,"SYN06474486 32666 62414 10056 20033 30107 40123 51037 91451 555 90315=","FM-12","4",,,,,,,,,,,,,,,,,,,,,,,,,,,,"2009-05-01"
"74486094789","2020-02-03T10:51:00","FM-15","7",,"ESE","1.5","mi","TEMP, PRECIP, SNOW",,,"PSY, SRG, SNOWBOARD",,,"FAA CWO",,,,,,,,,,,,,,,,,,,,,,,,,,,"29.89","38","45","0.00",,,,"77","29.91","BKN:07 45","29.87","10.00","42","230",,"14",,,,,,,,,,,,,,,,,,,,,,,,,,,,,,,,,,,,,"MET10002/03/20 10:51:02 METAR KJFK 031551Z 23012KT 10SM BKN045 07/03 A2989 RMK AO2 SLP127 T00720033 $ (BH)","FM-15","7",,,,,,,,,,,,,,,,,,,,,,,,,,,,"2009-05-01"
"74486094789","2020-02-03T11:51:00","FM-15","7",,"ESE","1.5","mi","TEMP, PRECIP, SNOW",,,"PSY, SRG, SNOWBOARD",,,"FAA CWO",,,,,,,,,,,,,,,,,,,,,,,,,,,"29.89","37","50","0.00",,,,"61","29.91","SCT:04 37 BKN:07 46","29.87","10.00","44","230",,"14",,,,,,,,,,,,,,,,,,,,,,,,,,,,,,,,,,,,,"MET10702/03/20 11:51:02 METAR KJFK 031651Z 23012KT 10SM SCT037 BKN046 10/03 A2989 RMK AO2 SLP127 T01000028 $ (BH)","FM-15","7",,,,,,,,,,,,,,,,,,,,,,,,,,,,"2009-05-01"
"74486094789","2020-02-03T12:51:00","FM-15","7",,"ESE","1.5","mi","TEMP, PRECIP, SNOW",,,"PSY, SRG, SNOWBOARD",,,"FAA CWO",,,,,,,,,,,,,,,,,,,,,,,,,,,"29.88","36","52","0.00",,"+0.02","8","55","29.88","SCT:04 39","29.85","10.00","45","250",,"13",,,,,,,,,,,,,,,,,,,,,,,,,,,,,,,,,,,,,"MET11602/03/20 12:51:02 METAR KJFK 031751Z 25011KT 10SM SCT039 11/02 A2988 RMK AO2 SLP117 T01110022 10111 20039 58007 (BH)","FM-15","7",,,,,,,,,,,,,,,,,,,,,,,,,,,,"2009-05-01"
"74486094789","2020-02-03T13:00:00","FM-12","4",,"ESE","1.5","mi","TEMP, PRECIP, SNOW",,,"PSY, SRG, SNOWBOARD",,,"FAA CWO",,,,,,,,,,,,,,,,,,,,,,,,,,,,"36","52",,,"+0.02","8","55","29.88","41","29.85","9.94","45","250",,"13",,,,,,,,,,,,,,,,,,,,,,,,,,,,,,,,,,,,,"SYN08074486 32666 42511 10111 20022 30107 40117 58007 91751 333 10111 20022 555 90318=","FM-12","4",,,,,,,,,,,,,,,,,,,,,,,,,,,,"2009-05-01"
"74486094789","2020-02-03T13:51:00","FM-15","7",,"ESE","1.5","mi","TEMP, PRECIP, SNOW",,,"PSY, SRG, SNOWBOARD",,,"FAA CWO",,,,,,,,,,,,,,,,,,,,,,,,,,,"29.86","36","53","0.00",,,,"52","29.85","FEW:02 42 FEW:02 250","29.83","10.00","45","230",,"11",,,,,,,,,,,,,,,,,,,,,,,,,,,,,,,,,,,,,"MET10502/03/20 13:51:02 METAR KJFK 031851Z 23010KT 10SM FEW042 FEW250 12/02 A2986 RMK AO2 SLP110 T01170022 (BH)","FM-15","7",,,,,,,,,,,,,,,,,,,,,,,,,,,,"2009-05-01"
"74486094789","2020-02-03T14:51:00","FM-15","7",,"ESE","1.5","mi","TEMP, PRECIP, SNOW",,,"PSY, SRG, SNOWBOARD",,,"FAA CWO",,,,,,,,,,,,,,,,,,,,,,,,,,,"29.85","37","53","0.00",,,,"55","29.85","FEW:02 250","29.83","10.00","46","210",,"13",,,,,,,,,,,,,,,,,,,,,,,,,,,,,,,,,,,,,"MET09802/03/20 14:51:02 METAR KJFK 031951Z 21011KT 10SM FEW250 12/03 A2985 RMK AO2 SLP108 T01170028 (RR)","FM-15","7",,,,,,,,,,,,,,,,,,,,,,,,,,,,"2009-05-01"
"74486094789","2020-02-03T15:51:00","FM-15","7",,"ESE","1.5","mi","TEMP, PRECIP, SNOW",,,"PSY, SRG, SNOWBOARD",,,"FAA CWO",,,,,,,,,,,,,,,,,,,,,,,,,,,"29.84","37","53","0.00",,"+0.04","6","55","29.84","FEW:02 250","29.82","10.00","46","180",,"9",,,,,,,,,,,,,,,,,,,,,,,,,,,,,,,,,,,,,"MET10402/03/20 15:51:02 METAR KJFK 032051Z 18008KT 10SM FEW250 12/03 A2984 RMK AO2 SLP106 T01170028 56012 (RR)","FM-15","7",,,,,,,,,,,,,,,,,,,,,,,,,,,,"2009-05-01"
"74486094789","2020-02-03T16:00:00","FM-12","4",,"ESE","1.5","mi","TEMP, PRECIP, SNOW",,,"PSY, SRG, SNOWBOARD",,,"FAA CWO",,,,,,,,,,,,,,,,,,,,,,,,,,,,"37","53",,,"+0.04","6","55","29.84",,"29.81","9.94","46","180",,"9",,,,,,,,,,,,,,,,,,,,,,,,,,,,,,,,,,,,,"SYN06474486 32966 21808 10117 20028 30094 40106 56012 92051 555 90321=","FM-12","4",,,,,,,,,,,,,,,,,,,,,,,,,,,,"2009-05-01"
"74486094789","2020-02-03T16:51:00","FM-15","7",,"ESE","1.5","mi","TEMP, PRECIP, SNOW",,,"PSY, SRG, SNOWBOARD",,,"FAA CWO",,,,,,,,,,,,,,,,,,,,,,,,,,,"29.87","37","48","0.00",,,,"66","29.87","FEW:02 250","29.85","10.00","43","180",,"7",,,,,,,,,,,,,,,,,,,,,,,,,,,,,,,,,,,,,"MET09802/03/20 16:51:02 METAR KJFK 032151Z 18006KT 10SM FEW250 09/03 A2987 RMK AO2 SLP114 T00890028 (RR)","FM-15","7",,,,,,,,,,,,,,,,,,,,,,,,,,,,"2009-05-01"
"74486094789","2020-02-03T17:51:00","FM-15","7",,"ESE","1.5","mi","TEMP, PRECIP, SNOW",,,"PSY, SRG, SNOWBOARD",,,"FAA CWO",,,,,,,,,,,,,,,,,,,,,,,,,,,"29.89","36","47","0.00",,,,"66","29.88","FEW:02 250","29.87","10.00","42","220",,"8",,,,,,,,,,,,,,,,,,,,,,,,,,,,,,,,,,,,,"MET09802/03/20 17:51:02 METAR KJFK 032251Z 22007KT 10SM FEW250 08/02 A2989 RMK AO2 SLP120 T00830022 (RR)","FM-15","7",,,,,,,,,,,,,,,,,,,,,,,,,,,,"2009-05-01"
"74486094789","2020-02-03T18:51:00","FM-15","7",,"ESE","1.5","mi","TEMP, PRECIP, SNOW",,,"PSY, SRG, SNOWBOARD",,,"FAA CWO",,,,,,,,,,,,,,,,,,,,,,,,,,,"29.90","35","48","0.00",,"-0.05","1","61","29.89","SCT:04 250","29.88","10.00","42","210",,"9",,,,,,,,,,,,,,,,,,,,,,,,,,,,,,,,,,,,,"MET11602/03/20 18:51:02 METAR KJFK 032351Z 21008KT 10SM SCT250 09/02 A2990 RMK AO2 SLP123 T00890017 10128 20072 51018 (RR)","FM-15","7",,,,,,,,,,,,,,,,,,,,,,,,,,,,"2009-05-01"
"74486094789","2020-02-03T19:00:00","FM-12","4",,"ESE","1.5","mi","TEMP, PRECIP, SNOW",,,"PSY, SRG, SNOWBOARD",,,"FAA CWO",,,,,,,,,,,,,,,,,,,,,,,,,,,,"35","48",,,"-0.05","1","61","29.89",,"29.87","9.94","42","210",,"9",,,,,,,,,,,,,,,,,,,,,,,,,,,,,,,,,,,,,"SYN08074486 32966 42108 10089 20017 30114 40123 51018 92351 333 10128 20028 555 90400=","FM-12","4",,,,,,,,,,,,,,,,,,,,,,,,,,,,"2009-05-01"
"74486094789","2020-02-03T19:51:00","FM-15","7",,"ESE","1.5","mi","TEMP, PRECIP, SNOW",,,"PSY, SRG, SNOWBOARD",,,"FAA CWO",,,,,,,,,,,,,,,,,,,,,,,,,,,"29.89","35","46","0.00",,,,"66","29.88","FEW:02 220 SCT:04 250","29.87","10.00","41","130",,"5",,,,,,,,,,,,,,,,,,,,,,,,,,,,,,,,,,,,,"MET10002/03/20 19:51:01 METAR KJFK 040051Z 13004KT 10SM FEW220 SCT250 08/02 A2989 RMK AO2 SLP120 T00780017","FM-15","7",,,,,,,,,,,,,,,,,,,,,,,,,,,,"2009-05-01"
"74486094789","2020-02-03T20:51:00","FM-15","7",,"ESE","1.5","mi","TEMP, PRECIP, SNOW",,,"PSY, SRG, SNOWBOARD",,,"FAA CWO",,,,,,,,,,,,,,,,,,,,,,,,,,,"29.89","37","44","0.00",,,,"76","29.88","SCT:04 250","29.87","10.00","41","000",,"0",,,,,,,,,,,,,,,,,,,,,,,,,,,,,,,,,,,,,"MET09302/03/20 20:51:01 METAR KJFK 040151Z 00000KT 10SM SCT250 07/03 A2989 RMK AO2 SLP119 T00670028","FM-15","7",,,,,,,,,,,,,,,,,,,,,,,,,,,,"2009-05-01"
"74486094789","2020-02-03T21:51:00","FM-15","7",,"ESE","1.5","mi","TEMP, PRECIP, SNOW",,,"PSY, SRG, SNOWBOARD",,,"FAA CWO",,,,,,,,,,,,,,,,,,,,,,,,,,,"29.88","39","44","0.00",,"+0.01","6","83","29.88","SCT:04 200 BKN:07 250","29.85","10.00","42","180",,"9",,,,,,,,,,,,,,,,,,,,,,,,,,,,,,,,,,,,,"MET10602/03/20 21:51:01 METAR KJFK 040251Z 18008KT 10SM SCT200 BKN250 07/04 A2988 RMK AO2 SLP119 T00670039 56005","FM-15","7",,,,,,,,,,,,,,,,,,,,,,,,,,,,"2009-05-01"
"74486094789","2020-02-03T22:00:00","FM-12","4",,"ESE","1.5","mi","TEMP, PRECIP, SNOW",,,"PSY, SRG, SNOWBOARD",,,"FAA CWO",,,,,,,,,,,,,,,,,,,,,,,,,,,,"39","44",,,"+0.01","6","83","29.88",,"29.85","9.94","42","180",,"9",,,,,,,,,,,,,,,,,,,,,,,,,,,,,,,,,,,,,"SYN06474486 32966 61808 10067 20039 30107 40119 56005 90251 555 90403=","FM-12","4",,,,,,,,,,,,,,,,,,,,,,,,,,,,"2009-05-01"
"74486094789","2020-02-03T22:51:00","FM-15","7",,"ESE","1.5","mi","TEMP, PRECIP, SNOW",,,"PSY, SRG, SNOWBOARD",,,"FAA CWO",,,,,,,,,,,,,,,,,,,,,,,,,,,"29.87","37","43","0.00",,,,"80","29.87","BKN:07 220","29.85","10.00","40","160",,"6",,,,,,,,,,,,,,,,,,,,,,,,,,,,,,,,,,,,,"MET09302/03/20 22:51:01 METAR KJFK 040351Z 16005KT 10SM BKN220 06/03 A2987 RMK AO2 SLP114 T00610028","FM-15","7",,,,,,,,,,,,,,,,,,,,,,,,,,,,"2009-05-01"
"74486094789","2020-02-03T23:51:00","FM-15","7",,"ESE","1.5","mi","TEMP, PRECIP, SNOW",,,"PSY, SRG, SNOWBOARD",,,"FAA CWO",,,,,,,,,,,,,,,,,,,,,,,,,,,"29.86","39","44","0.00",,,,"83","29.86","SCT:04 220 BKN:07 260","29.83","10.00","42","170",,"6",,,,,,,,,,,,,,,,,,,,,,,,,,,,,,,,,,,,,"MET11002/03/20 23:51:02 METAR KJFK 040451Z 17005KT 10SM SCT220 BKN260 07/04 A2986 RMK AO2 SLP112 T00670039 401280022","FM-15","7",,,,,,,,,,,,,,,,,,,,,,,,,,,,"2009-05-01"
"74486094789","2020-02-03T23:59:00","SOD  ","6",,"ESE","1.5","mi","TEMP, PRECIP, SNOW",,,"PSY, SRG, SNOWBOARD",,,"FAA CWO",,,,"37","46","75","29.81","29.76","41","10.3","0","12.8","19","55","36","230","24","0.00","0","0.0","240","20",,,,,,,,,,,,,,,,,,,,,,,,,,,,,,,,,,,,,,,,,,,,,,,,,,,,,,,,,"SOD73924 HR PRECIPITATION (IN): 0.00 SNOW DEPTH (IN):0     24 HR SNOWFALL (IN):0.0  24 HR MAX TEMP (F): 5524 HR MIN TEMP (F): 36AVERAGE STATION PRESSURE:29.760 MINIMUM SEA LEVEL PRESSURE:29.84 TIME OF OCCURRENCE:1606 PEAK WIND SPEED (MPH): 24 PEAK WIND DIR (DEG):230 PEAK WIND TIME (LST):      FASTEST 2MIN SPEED (MPH): 20FASTEST 2MIN DIR (DEG):240 FASTEST 2MIN TIME (LST):     AVERAGE WIND SPEED (MPH):10.3 24 HR AVG TEMP (F): 46DEPART FROM NORMAL: 13  HEATING DEGREE DAYS: 19 COOLING DEGREE DAYS:  0 LATEST DAY MAX TEMP (0700-1900 LST):55  LATEST NIGHT MIN TEMP(1900-0800 LST):36 HOURLY INCREMENTAL PRECIPITATION VALUES (IN):    M    0.00 0.00 0.00 0.00 0.00 0.00 0.00 0.00 0.00 0.00 0.00 0.00 0.00 0.00 0.00 0.00 0.00 0.00 0.00 0.00 0.00 0.00","SOD  ","6",,,,,,,,,,,,,,,,,,,,,,,,,"0703","1715",,"2009-05-01"
"74486094789","2020-02-04T00:51:00","FM-15","7",,"ESE","1.5","mi","TEMP, PRECIP, SNOW",,,"PSY, SRG, SNOWBOARD",,,"FAA CWO",,,,,,,,,,,,,,,,,,,,,,,,,,,"29.83","39","41","0.00",,"+0.05","8","93","29.83","BKN:07 240","29.80","10.00","40","080",,"5",,,,,,,,,,,,,,,,,,,,,,,,,,,,,,,,,,,,,"MET11602/04/20 00:51:02 METAR KJFK 040551Z 08004KT 10SM BKN240 05/04 A2983 RMK AO2 SLP101 T00500039 10094 20050 58017 (JC)","FM-15","7",,,,,,,,,,,,,,,,,,,,,,,,,,,,"2009-05-01"
"74486094789","2020-02-04T01:00:00","FM-12","4",,"ESE","1.5","mi","TEMP, PRECIP, SNOW",,,"PSY, SRG, SNOWBOARD",,,"FAA CWO",,,,,,,,,,,,,,,,,,,,,,,,,,,,"39","41",,,"+0.05","8","93","29.83",,"29.80","9.94","40","080",,"5",,,,,,,,,,,,,,,,,,,,,,,,,,,,,,,,,,,,,"SYN08074486 32966 60804 10050 20039 30090 40101 58017 90551 333 10094 20028 555 90406=","FM-12","4",,,,,,,,,,,,,,,,,,,,,,,,,,,,"2009-05-01"
"74486094789","2020-02-04T01:51:00","FM-15","7",,"ESE","1.5","mi","TEMP, PRECIP, SNOW",,,"PSY, SRG, SNOWBOARD",,,"FAA CWO",,,,,,,,,,,,,,,,,,,,,,,,,,,"29.82","39","42","0.00",,,,"89","29.82","BKN:07 230","29.80","10.00","41","060",,"5",,,,,,,,,,,,,,,,,,,,,,,,,,,,,,,,,,,,,"MET09802/04/20 01:51:02 METAR KJFK 040651Z 06004KT 10SM BKN230 06/04 A2982 RMK AO2 SLP098 T00560039 (JC)","FM-15","7",,,,,,,,,,,,,,,,,,,,,,,,,,,,"2009-05-01"
"74486094789","2020-02-04T02:51:00","FM-15","7",,"ESE","1.5","mi","TEMP, PRECIP, SNOW",,,"PSY, SRG, SNOWBOARD",,,"FAA CWO",,,,,,,,,,,,,,,,,,,,,,,,,,,"29.81","38","40","0.00",,,,"93","29.81","OVC:08 210","29.78","10.00","39","060",,"6",,,,,,,,,,,,,,,,,,,,,,,,,,,,,,,,,,,,,"MET09802/04/20 02:51:02 METAR KJFK 040751Z 06005KT 10SM OVC210 04/03 A2981 RMK AO2 SLP094 T00440033 (JC)","FM-15","7",,,,,,,,,,,,,,,,,,,,,,,,,,,,"2009-05-01"
"74486094789","2020-02-04T03:51:00","FM-15","7",,"ESE","1.5","mi","TEMP, PRECIP, SNOW",,,"PSY, SRG, SNOWBOARD",,,"FAA CWO",,,,,,,,,,,,,,,,,,,,,,,,,,,"29.80","40","41","0.00",,"+0.03","6","96","29.80","OVC:08 180","29.78","10.00","41","010",,"7",,,,,,,,,,,,,,,,,,,,,,,,,,,,,,,,,,,,,"MET10402/04/20 03:51:02 METAR KJFK 040851Z 01006KT 10SM OVC180 05/04 A2980 RMK AO2 SLP091 T00500044 56010 (JC)","FM-15","7",,,,,,,,,,,,,,,,,,,,,,,,,,,,"2009-05-01"
"74486094789","2020-02-04T04:00:00","FM-12","4",,"ESE","1.5","mi","TEMP, PRECIP, SNOW",,,"PSY, SRG, SNOWBOARD",,,"FAA CWO",,,,,,,,,,,,,,,,,,,,,,,,,,,,"40","41",,,"+0.03","6","96","29.80",,"29.77","9.94","41","010",,"7",,,,,,,,,,,,,,,,,,,,,,,,,,,,,,,,,,,,,"SYN06474486 32966 80106 10050 20044 30080 40091 56010 90851 555 90409=","FM-12","4",,,,,,,,,,,,,,,,,,,,,,,,,,,,"2009-05-01"
"74486094789","2020-02-04T04:51:00","FM-15","7",,"ESE","1.5","mi","TEMP, PRECIP, SNOW",,,"PSY, SRG, SNOWBOARD",,,"FAA CWO",,,,,,,,,,,,,,,,,,,,,,,,,,,"29.81","40","43","0.00",,,,"89","29.81","OVC:08 150","29.78","10.00","42","330",,"3",,,,,,,,,,,,,,,,,,,,,,,,,,,,,,,,,,,,,"MET09802/04/20 04:51:02 METAR KJFK 040951Z 33003KT 10SM OVC150 06/04 A2981 RMK AO2 SLP095 T00610044 (JC)","FM-15","7",,,,,,,,,,,,,,,,,,,,,,,,,,,,"2009-05-01"
"74486094789","2020-02-04T05:51:00","FM-15","7",,"ESE","1.5","mi","TEMP, PRECIP, SNOW",,,"PSY, SRG, SNOWBOARD",,,"FAA CWO",,,,,,,,,,,,,,,,,,,,,,,,,,,"29.77","40","43","0.00",,,,"89","29.77","OVC:08 120","29.75","10.00","42","020",,"10",,,,,,,,,,,,,,,,,,,,,,,,,,,,,,,,,,,,,"MET09802/04/20 05:51:02 METAR KJFK 041051Z 02009KT 10SM OVC120 06/04 A2977 RMK AO2 SLP082 T00610044 (JC)","FM-15","7",,,,,,,,,,,,,,,,,,,,,,,,,,,,"2009-05-01"
"74486094789","2020-02-04T06:22:00","FM-16","7",,"ESE","1.5","mi","TEMP, PRECIP, SNOW",,,"PSY, SRG, SNOWBOARD",,,"FAA CWO",,,,,,,,,,,,,,,,,,,,,,,,,,,"29.85","40","43",,,,,"89",,"SCT:04 9 BKN:07 75 OVC:08 110","29.83","10.00","42","000",,"0",,,,,,,,,,,,,,,,,,,,,,,,,,,,,,,,,,,,,"MET11202/04/20 06:22:02 SPECI KJFK 041122Z 00000KT 10SM SCT009 BKN075 OVC110 06/04 A2985 RMK AO2 PRESRR T00610044 (BH)","FM-16","7",,,,,,,,,,,,,,,,,,,,,,,,,,,,"2009-05-01"
"74486094789","2020-02-04T06:51:00","FM-15","7",,"ESE","1.5","mi","TEMP, PRECIP, SNOW",,,"PSY, SRG, SNOWBOARD",,,"FAA CWO",,,,,,,,,,,,,,,,,,,,,,,,,,,"29.84","40","43","T","-RA:02 |RA |RA","-0.04","3","89","29.83","FEW:02 9 BKN:07 85 OVC:08 110","29.82","10.00","42","320",,"8",,,,,,,,,,,,,,,,,,,,,,,,,,,,,,,,,,,,,"MET15202/04/20 06:51:02 METAR KJFK 041151Z 32007KT 10SM -RA FEW009 BKN085 OVC110 06/04 A2984 RMK AO2 RAB38 SLP103 P0000 60000 T00610044 10067 20039 53012 (BH)","FM-15","7",,,,,,,,,,,,,,,,,,,,,,,,,,,,"2009-05-01"
"74486094789","2020-02-04T07:00:00","FM-12","4",,"ESE","1.5","mi","TEMP, PRECIP, SNOW",,,"PSY, SRG, SNOWBOARD",,,"FAA CWO",,,,,,,,,,,,,,,,,,,,,,,,,,,,"40","43",,"||RA","-0.04","3","89","29.83","8","29.81","9.94","42","320",,"8",,,,,,,,,,,,,,,,,,,,,,,,,,,,,,,,,,,,,"SYN09274486 11366 83207 10061 20044 30094 40103 53012 69901 761// 91151 333 10128 20039 555 90412=","FM-12","4",,,,,,,,,,,,,,,,,,,,,,,,,,,,"2009-05-01"
"74486094789","2020-02-04T07:51:00","FM-15","7",,"ESE","1.5","mi","TEMP, PRECIP, SNOW",,,"PSY, SRG, SNOWBOARD",,,"FAA CWO",,,,,,,,,,,,,,,,,,,,,,,,,,,"29.83","41","44","T","-RA:02 |RA |RA",,,"89","29.83","FEW:02 12 BKN:07 80 OVC:08 95","29.80","9.00","43","320",,"6",,,,,,,,,,,,,,,,,,,,,,,,,,,,,,,,,,,,,"MET12102/04/20 07:51:02 METAR KJFK 041251Z 32005KT 9SM -RA FEW012 BKN080 OVC095 07/05 A2983 RMK AO2 SLP100 P0000 T00670050 (BH)","FM-15","7",,,,,,,,,,,,,,,,,,,,,,,,,,,,"2009-05-01"
"74486094789","2020-02-04T08:51:00","FM-15","7",,"ESE","1.5","mi","TEMP, PRECIP, SNOW",,,"PSY, SRG, SNOWBOARD",,,"FAA CWO",,,,,,,,,,,,,,,,,,,,,,,,,,,"29.85","41","44","T","-RA:02 |RA |RA",,,"89","29.85","FEW:02 12 SCT:04 75 OVC:08 90","29.83","9.00","43","210",,"3",,,,,,,,,,,,,,,,,,,,,,,,,,,,,,,,,,,,,"MET12102/04/20 08:51:02 METAR KJFK 041351Z 21003KT 9SM -RA FEW012 SCT075 OVC090 07/05 A2985 RMK AO2 SLP108 P0000 T00670050 (BH)","FM-15","7",,,,,,,,,,,,,,,,,,,,,,,,,,,,"2009-05-01"
"74486094789","2020-02-04T09:51:00","FM-15","7",,"ESE","1.5","mi","TEMP, PRECIP, SNOW",,,"PSY, SRG, SNOWBOARD",,,"FAA CWO",,,,,,,,,,,,,,,,,,,,,,,,,,,"29.86","41","44","T","-RA:02 |RA |RA","-0.02","3","89","29.85","FEW:02 75 OVC:08 100","29.83","10.00","43","250",,"3",,,,,,,,,,,,,,,,,,,,,,,,,,,,,,,,,,,,,"MET13802/04/20 09:51:02 METAR KJFK 041451Z 25003KT 10SM -RA FEW075 OVC100 07/05 A2986 RMK AO2 RAE1359B27 SLP110 P0000 60000 T00670050 53006 (BH)","FM-15","7",,,,,,,,,,,,,,,,,,,,,,,,,,,,"2009-05-01"
"74486094789","2020-02-04T10:00:00","FM-12","4",,"ESE","1.5","mi","TEMP, PRECIP, SNOW",,,"PSY, SRG, SNOWBOARD",,,"FAA CWO",,,,,,,,,,,,,,,,,,,,,,,,,,,,"41","44",,"||RA","-0.02","3","89","29.85","74","29.83","9.94","43","250",,"3",,,,,,,,,,,,,,,,,,,,,,,,,,,,,,,,,,,,,"SYN07674486 11866 82503 10067 20050 30100 40110 53006 69907 761// 91451 555 90415=","FM-12","4",,,,,,,,,,,,,,,,,,,,,,,,,,,,"2009-05-01"
"74486094789","2020-02-04T10:51:00","FM-15","7",,"ESE","1.5","mi","TEMP, PRECIP, SNOW",,,"PSY, SRG, SNOWBOARD",,,"FAA CWO",,,,,,,,,,,,,,,,,,,,,,,,,,,"29.86","43","46","T","-RA:02 |RA |RA",,,"89","29.85","FEW:02 65 OVC:08 85","29.83","10.00","45","250",,"5",,,,,,,,,,,,,,,,,,,,,,,,,,,,,,,,,,,,,"MET11502/04/20 10:51:02 METAR KJFK 041551Z 25004KT 10SM -RA FEW065 OVC085 08/06 A2986 RMK AO2 SLP110 P0000 T00780061 (BH)","FM-15","7",,,,,,,,,,,,,,,,,,,,,,,,,,,,"2009-05-01"
"74486094789","2020-02-04T11:51:00","FM-15","7",,"ESE","1.5","mi","TEMP, PRECIP, SNOW",,,"PSY, SRG, SNOWBOARD",,,"FAA CWO",,,,,,,,,,,,,,,,,,,,,,,,,,,"29.83","43","47","T",,,,"86","29.83","FEW:02 70 BKN:07 90 OVC:08 140","29.80","10.00","45","240",,"6",,,,,,,,,,,,,,,,,,,,,,,,,,,,,,,,,,,,,"MET12402/04/20 11:51:02 METAR KJFK 041651Z 24005KT 10SM FEW070 BKN090 OVC140 08/06 A2983 RMK AO2 RAE08 SLP101 P0000 T00830061 (BH)","FM-15","7",,,,,,,,,,,,,,,,,,,,,,,,,,,,"2009-05-01"
"74486094789","2020-02-04T12:51:00","FM-15","7",,"ESE","1.5","mi","TEMP, PRECIP, SNOW",,,"PSY, SRG, SNOWBOARD",,,"FAA CWO",,,,,,,,,,,,,,,,,,,,,,,,,,,"29.79","43","47","T","-RA:02 |RA |RA","+0.06","8","86","29.79","BKN:07 80 OVC:08 140","29.77","10.00","45","210",,"8",,,,,,,,,,,,,,,,,,,,,,,,,,,,,,,,,,,,,"MET14502/04/20 12:51:02 METAR KJFK 041751Z 21007KT 10SM -RA BKN080 OVC140 08/06 A2979 RMK AO2 RAB41 SLP088 P0000 60000 T00830061 10089 20061 58022 (BH)","FM-15","7",,,,,,,,,,,,,,,,,,,,,,,,,,,,"2009-05-01"
"74486094789","2020-02-04T13:00:00","FM-12","4",,"ESE","1.5","mi","TEMP, PRECIP, SNOW",,,"PSY, SRG, SNOWBOARD",,,"FAA CWO",,,,,,,,,,,,,,,,,,,,,,,,,,,,"43","47",,"||RA","+0.06","8","86","29.79","74","29.76","9.94","45","210",,"8",,,,,,,,,,,,,,,,,,,,,,,,,,,,,,,,,,,,,"SYN09274486 11866 82107 10083 20061 30077 40088 58022 69901 761// 91751 333 10089 20061 555 90418=","FM-12","4",,,,,,,,,,,,,,,,,,,,,,,,,,,,"2009-05-01"
"74486094789","2020-02-04T13:51:00","FM-15","7",,"ESE","1.5","mi","TEMP, PRECIP, SNOW",,,"PSY, SRG, SNOWBOARD",,,"FAA CWO",,,,,,,,,,,,,,,,,,,,,,,,,,,"29.76","44","49","T",,,,"83","29.76","SCT:04 80 BKN:07 140 OVC:08 220","29.74","10.00","47","230",,"7",,,,,,,,,,,,,,,,,,,,,,,,,,,,,,,,,,,,,"MET13202/04/20 13:51:02 METAR KJFK 041851Z 23006KT 10SM SCT080 BKN140 OVC220 09/07 A2976 RMK AO2 RAE1752B09E21 SLP079 P0000 T00940067 (BH)","FM-15","7",,,,,,,,,,,,,,,,,,,,,,,,,,,,"2009-05-01"
"74486094789","2020-02-04T14:51:00","FM-15","7",,"ESE","1.5","mi","TEMP, PRECIP, SNOW",,,"PSY, SRG, SNOWBOARD",,,"FAA CWO",,,,,,,,,,,,,,,,,,,,,,,,,,,"29.77","46","51","0.00",,,,"83","29.76","FEW:02 80 BKN:07 130 BKN:07 250","29.75","10.00","49","240",,"8",,,,,,,,,,,,,,,,,,,,,,,,,,,,,,,,,,,,,"MET11202/04/20 14:51:02 METAR KJFK 041951Z 24007KT 10SM FEW080 BKN130 BKN250 11/08 A2977 RMK AO2 SLP079 T01060078 (RR)","FM-15","7",,,,,,,,,,,,,,,,,,,,,,,,,,,,"2009-05-01"
"74486094789","2020-02-04T15:51:00","FM-15","6",,"ESE","1.5","mi","TEMP, PRECIP, SNOW",,,"PSY, SRG, SNOWBOARD",,,"FAA CWO",,,,,,,,,,,,,,,,,,,,,,,,,,,"29.77","46","53","0.00",,"+0.03","6","77","29.76","FEW:02 70 BKN:07 130 BKN:07 250","29.75","10.00","49","230",,"9",,,,,,,,,,,,,,,,,,,,,,,,,,,,,,,,,,,,,"MET12402/04/20 15:51:02 METAR KJFK 042051Z 23008KT 10SM FEW070 BKN130 BKN250 12/08 A2977 RMK AO2 SLP079 60000 T01170078 56009 (RR)","FM-15","6",,,,,,,,,,,,,,,,,,,,,,,,,,,,"2009-05-01"
"74486094789","2020-02-04T16:51:00","FM-15","7",,"ESE","1.5","mi","TEMP, PRECIP, SNOW",,,"PSY, SRG, SNOWBOARD",,,"FAA CWO",,,,,,,,,,,,,,,,,,,,,,,,,,,"29.77","46","51","0.00",,,,"83","29.77","FEW:02 60 BKN:07 110 BKN:07 130","29.75","10.00","49","220",,"5",,,,,,,,,,,,,,,,,,,,,,,,,,,,,,,,,,,,,"MET11202/04/20 16:51:02 METAR KJFK 042151Z 22004KT 10SM FEW060 BKN110 BKN130 11/08 A2977 RMK AO2 SLP082 T01060078 (RR)","FM-15","7",,,,,,,,,,,,,,,,,,,,,,,,,,,,"2009-05-01"
"74486094789","2020-02-04T17:51:00","FM-15","7",,"ESE","1.5","mi","TEMP, PRECIP, SNOW",,,"PSY, SRG, SNOWBOARD",,,"FAA CWO",,,,,,,,,,,,,,,,,,,,,,,,,,,"29.80","44","48","0.00",,,,"86","29.80","SCT:04 110 BKN:07 140 BKN:07 250","29.78","10.00","46","200",,"5",,,,,,,,,,,,,,,,,,,,,,,,,,,,,,,,,,,,,"MET11202/04/20 17:51:02 METAR KJFK 042251Z 20004KT 10SM SCT110 BKN140 BKN250 09/07 A2980 RMK AO2 SLP091 T00890067 (RR)","FM-15","7",,,,,,,,,,,,,,,,,,,,,,,,,,,,"2009-05-01"
"74486094789","2020-02-04T18:51:00","FM-15","7",,"ESE","1.5","mi","TEMP, PRECIP, SNOW",,,"PSY, SRG, SNOWBOARD",,,"FAA CWO",,,,,,,,,,,,,,,,,,,,,,,,,,,"29.81","45","51","0.00",,"-0.04","1","80","29.80","FEW:02 60 BKN:07 100 BKN:07 130","29.78","10.00","48","150",,"5",,,,,,,,,,,,,,,,,,,,,,,,,,,,,,,,,,,,,"MET13602/04/20 18:51:02 METAR KJFK 042351Z 15004KT 10SM FEW060 BKN100 BKN130 11/07 A2981 RMK AO2 SLP093 60000 T01060072 10117 20083 51014 (RR)","FM-15","7",,,,,,,,,,,,,,,,,,,,,,,,,,,,"2009-05-01"
"74486094789","2020-02-04T19:00:00","FM-12","4",,"ESE","1.5","mi","TEMP, PRECIP, SNOW",,,"PSY, SRG, SNOWBOARD",,,"FAA CWO",,,,,,,,,,,,,,,,,,,,,,,,,,,,"45","51",,,"-0.04","1","80","29.80","57","29.78","9.94","48","150",,"5",,,,,,,,,,,,,,,,,,,,,,,,,,,,,,,,,,,,,"SYN08674486 12766 81504 10106 20072 30084 40093 51014 69901 92351 333 10117 20039 555 90500=","FM-12","4",,,,,,,,,,,,,,,,,,,,,,,,,,,,"2009-05-01"
"74486094789","2020-02-04T19:51:00","FM-15","7",,"ESE","1.5","mi","TEMP, PRECIP, SNOW",,,"PSY, SRG, SNOWBOARD",,,"FAA CWO",,,,,,,,,,,,,,,,,,,,,,,,,,,"29.80","45","50","0.00",,,,"83","29.79","BKN:07 65 OVC:08 95","29.78","10.00","48","000",,"0",,,,,,,,,,,,,,,,,,,,,,,,,,,,,,,,,,,,,"MET10002/04/20 19:51:01 METAR KJFK 050051Z 00000KT 10SM BKN065 OVC095 10/07 A2980 RMK AO2 SLP089 T01000072","FM-15","7",,,,,,,,,,,,,,,,,,,,,,,,,,,,"2009-05-01"
"74486094789","2020-02-04T20:51:00","FM-15","7",,"ESE","1.5","mi","TEMP, PRECIP, SNOW",,,"PSY, SRG, SNOWBOARD",,,"FAA CWO",,,,,,,,,,,,,,,,,,,,,,,,,,,"29.79","47","50","0.02","-RA:02 |RA |RA",,,"89","29.79","BKN:07 50 OVC:08 65","29.77","10.00","48","130",,"3",,,,,,,,,,,,,,,,,,,,,,,,,,,,,,,,,,,,,"MET11602/04/20 20:51:01 METAR KJFK 050151Z 13003KT 10SM -RA BKN050 OVC065 10/08 A2979 RMK AO2 RAB13 SLP089 P0001 T01000083","FM-15","7",,,,,,,,,,,,,,,,,,,,,,,,,,,,"2009-05-01"
"74486094789","2020-02-04T21:51:00","FM-15","7",,"ESE","1.5","mi","TEMP, PRECIP, SNOW",,,"PSY, SRG, SNOWBOARD",,,"FAA CWO",,,,,,,,,,,,,,,,,,,,,,,,,,,"29.80","47","50","T","-RA:02 |RA |RA","+0.01","5","89","29.79","OVC:08 48","29.78","10.00","48","210",,"3",,,,,,,,,,,,,,,,,,,,,,,,,,,,,,,,,,,,,"MET12502/04/20 21:51:01 METAR KJFK 050251Z 21003KT 10SM -RA OVC048 10/08 A2980 RMK AO2 CIG 041 W SLP089 P0001 60002 T01000083 55003","FM-15","7",,,,,,,,,,,,,,,,,,,,,,,,,,,,"2009-05-01"
"74486094789","2020-02-04T22:00:00","FM-12","4",,"ESE","1.5","mi","TEMP, PRECIP, SNOW",,,"PSY, SRG, SNOWBOARD",,,"FAA CWO",,,,,,,,,,,,,,,,,,,,,,,,,,,,"47","50",,"||RA","+0.01","5","89","29.79","41","29.77","9.94","48","210",,"3",,,,,,,,,,,,,,,,,,,,,,,,,,,,,,,,,,,,,"SYN07674486 11666 82103 10100 20083 30080 40089 55003 69957 761// 90251 555 90503=","FM-12","4",,,,,,,,,,,,,,,,,,,,,,,,,,,,"2009-05-01"
"74486094789","2020-02-04T22:51:00","FM-15","7",,"ESE","1.5","mi","TEMP, PRECIP, SNOW",,,"PSY, SRG, SNOWBOARD",,,"FAA CWO",,,,,,,,,,,,,,,,,,,,,,,,,,,"29.78","48","50","0.01","-RA:02 |RA |RA",,,"93","29.78","OVC:08 48","29.75","10.00","49","000",,"0",,,,,,,,,,,,,,,,,,,,,,,,,,,,,,,,,,,,,"MET11202/04/20 22:51:01 METAR KJFK 050351Z 00000KT 10SM -RA OVC048 10/09 A2978 RMK AO2 RAE23B44 SLP084 P0000 T01000089","FM-15","7",,,,,,,,,,,,,,,,,,,,,,,,,,,,"2009-05-01"
"74486094789","2020-02-04T23:51:00","FM-15","7",,"ESE","1.5","mi","TEMP, PRECIP, SNOW",,,"PSY, SRG, SNOWBOARD",,,"FAA CWO",,,,,,,,,,,,,,,,,,,,,,,,,,,"29.78","47","49","T",,,,"93","29.78","OVC:08 46","29.75","10.00","48","000",,"0",,,,,,,,,,,,,,,,,,,,,,,,,,,,,,,,,,,,,"MET11502/04/20 23:51:02 METAR KJFK 050451Z 00000KT 10SM OVC046 09/08 A2978 RMK AO2 RAE09 SLP083 P0001 T00940083 401170039","FM-15","7",,,,,,,,,,,,,,,,,,,,,,,,,,,,"2009-05-01"
"74486094789","2020-02-04T23:59:00","SOD  ","6",,"ESE","1.5","mi","TEMP, PRECIP, SNOW",,,"PSY, SRG, SNOWBOARD",,,"FAA CWO",,,,"43","46","87","29.80","29.79","45","5.0","0","12.7","19","53","39","190","16","0.03","0","0.0","190","14","RA",,,,,,,,,,,,,,,,,,,,,,,,,,,,,,,,,,,,,,,,,,,,,,,,,,,,,,,,"SOD73624 HR PRECIPITATION (IN): 0.03 SNOW DEPTH (IN):0     24 HR SNOWFALL (IN):0.0  24 HR MAX TEMP (F): 5324 HR MIN TEMP (F): 39AVERAGE STATION PRESSURE:29.790 MINIMUM SEA LEVEL PRESSURE:29.76 TIME OF OCCURRENCE:2331 PEAK WIND SPEED (MPH): 16 PEAK WIND DIR (DEG):190 PEAK WIND TIME (LST):      FASTEST 2MIN SPEED (MPH): 14FASTEST 2MIN DIR (DEG):190 FASTEST 2MIN TIME (LST):     AVERAGE WIND SPEED (MPH): 5.0 24 HR AVG TEMP (F): 46DEPART FROM NORMAL: 13  HEATING DEGREE DAYS: 19 COOLING DEGREE DAYS:  0 LATEST DAY MAX TEMP (0700-1900 LST):53  LATEST NIGHT MIN TEMP(1900-0800 LST):39 HOURLY INCREMENTAL PRECIPITATION VALUES (IN):.00 0.00 0.00 0.00 0.00 0.00 T    T    T    T    T    T    T    T    0.00 0.00 0.00 0.00 0.00 0.00 0.02 T    0.01 T","SOD  ","6",,,,,,,,,,,,,,,,,,,,,,,,,"0702","1716",,"2009-05-01"
"74486094789","2020-02-05T00:51:00","FM-15","7",,"ESE","1.5","mi","TEMP, PRECIP, SNOW",,,"PSY, SRG, SNOWBOARD",,,"FAA CWO",,,,,,,,,,,,,,,,,,,,,,,,,,,"29.78","48","51","0.00",,"+0.01","5","89","29.78","BKN:07 41 OVC:08 75","29.75","10.00","49","350","26","23",,,,,,,,,,,,,,,,,,,,,,,,,,,,,,,,,,,,,"MET13202/05/20 00:51:02 METAR KJFK 050551Z 35020G23KT 10SM BKN041 OVC075 11/09 A2978 RMK AO2 SLP085 60003 T01060089 10106 20089 55004 (JC)","FM-15","7",,,,,,,,,,,,,,,,,,,,,,,,,,,,"2009-05-01"
"74486094789","2020-02-05T01:00:00","FM-12","4",,"ESE","1.5","mi","TEMP, PRECIP, SNOW",,,"PSY, SRG, SNOWBOARD",,,"FAA CWO",,,,,,,,,,,,,,,,,,,,,,,,,,,,"48","51",,,"+0.01","5","89","29.78","41","29.75","9.94","49","350",,"23",,,,,,,,,,,,,,,,,,,,,,,,,,,,,,,,,,,,,"SYN09274486 12666 83520 10106 20089 30073 40085 55004 69981 90551 333 10106 20039 91023 555 90506=","FM-12","4",,,,,,,,,,,,,,,,,,,,,,,,,,,,"2009-05-01"
"74486094789","2020-02-05T01:22:00","FM-16","7",,"ESE","1.5","mi","TEMP, PRECIP, SNOW",,,"PSY, SRG, SNOWBOARD",,,"FAA CWO",,,,,,,,,,,,,,,,,,,,,,,,,,,"29.80","45","49","T","-RA:02 |RA |RA",,,"86",,"BKN:07 15 OVC:08 39","29.78","10.00","47","360",,"21",,,,,,,,,,,,,,,,,,,,,,,,,,,,,,,,,,,,,"MET11402/05/20 01:22:02 SPECI KJFK 050622Z 36018KT 10SM -RA BKN015 OVC039 09/07 A2980 RMK AO2 RAB14 P0000 T00940072 (JC)","FM-16","7",,,,,,,,,,,,,,,,,,,,,,,,,,,,"2009-05-01"
"74486094789","2020-02-05T01:51:00","FM-15","7",,"ESE","1.5","mi","TEMP, PRECIP, SNOW",,,"PSY, SRG, SNOWBOARD",,,"FAA CWO",,,,,,,,,,,,,,,,,,,,,,,,,,,"29.81","43","46","T",,,,"89","29.81","OVC:08 18","29.78","10.00","45","360",,"18",,,,,,,,,,,,,,,,,,,,,,,,,,,,,,,,,,,,,"MET11302/05/20 01:51:02 METAR KJFK 050651Z 36016KT 10SM OVC018 08/06 A2981 RMK AO2 RAB14E41 SLP095 P0000 T00780061 (JC)","FM-15","7",,,,,,,,,,,,,,,,,,,,,,,,,,,,"2009-05-01"
"74486094789","2020-02-05T02:01:00","FM-16","7",,"ESE","1.5","mi","TEMP, PRECIP, SNOW",,,"PSY, SRG, SNOWBOARD",,,"FAA CWO",,,,,,,,,,,,,,,,,,,,,,,,,,,"29.81","43","46",,,,,"89",,"FEW:02 9 OVC:08 20","29.78","10.00","45","010",,"13",,,,,,,,,,,,,,,,,,,,,,,,,,,,,,,,,,,,,"MET09802/05/20 02:01:02 SPECI KJFK 050701Z 01011KT 10SM FEW009 OVC020 08/06 A2981 RMK AO2 T00780061 (JC)","FM-16","7",,,,,,,,,,,,,,,,,,,,,,,,,,,,"2009-05-01"
"74486094789","2020-02-05T02:49:00","FM-16","6",,"ESE","1.5","mi","TEMP, PRECIP, SNOW",,,"PSY, SRG, SNOWBOARD",,,"FAA CWO",,,,,,,,,,,,,,,,,,,,,,,,,,,"29.85","39","43",,,,,"87",,"OVC:08 11","29.83","10.00","41","360","26","20",,,,,,,,,,,,,,,,,,,,,,,,,,,,,,,,,,,,,"MET10402/05/20 02:49:02 SPECI KJFK 050749Z 36017G23KT 10SM OVC011 06/04 A2985 RMK AO2 RAB14E26 P0000 FIBI (JC)","FM-16","6",,,,,,,,,,,,,,,,,,,,,,,,,,,,"2009-05-01"
"74486094789","2020-02-05T02:51:00","FM-15","7",,"ESE","1.5","mi","TEMP, PRECIP, SNOW",,,"PSY, SRG, SNOWBOARD",,,"FAA CWO",,,,,,,,,,,,,,,,,,,,,,,,,,,"29.85","39","43","T",,,,"86","29.85","BKN:07 11 OVC:08 25","29.83","10.00","41","350","26","21",,,,,,,,,,,,,,,,,,,,,,,,,,,,,,,,,,,,,"MET12302/05/20 02:51:02 METAR KJFK 050751Z 35018G23KT 10SM BKN011 OVC025 06/04 A2985 RMK AO2 RAB14E26 SLP108 P0000 T00610039 (JC)","FM-15","7",,,,,,,,,,,,,,,,,,,,,,,,,,,,"2009-05-01"
"74486094789","2020-02-05T03:51:00","FM-15","7",,"ESE","1.5","mi","TEMP, PRECIP, SNOW",,,"PSY, SRG, SNOWBOARD",,,"FAA CWO",,,,,,,,,,,,,,,,,,,,,,,,,,,"29.86","35","41","0.00",,"-0.08","1","79","29.86","BKN:07 14 OVC:08 25","29.83","10.00","38","360","29","18",,,,,,,,,,,,,,,,,,,,,,,,,,,,,,,,,,,,,"MET12002/05/20 03:51:02 METAR KJFK 050851Z 36016G25KT 10SM BKN014 OVC025 05/02 A2986 RMK AO2 SLP111 60000 T00500017 51026 (JC)","FM-15","7",,,,,,,,,,,,,,,,,,,,,,,,,,,,"2009-05-01"
"74486094789","2020-02-05T04:00:00","FM-12","4",,"ESE","1.5","mi","TEMP, PRECIP, SNOW",,,"PSY, SRG, SNOWBOARD",,,"FAA CWO",,,,,,,,,,,,,,,,,,,,,,,,,,,,"35","41",,,"-0.08","1","79","29.86","15","29.83","9.94","38","360",,"18",,,,,,,,,,,,,,,,,,,,,,,,,,,,,,,,,,,,,"SYN08074486 12466 83616 10050 20017 30100 40111 51026 69907 90851 333 91025 555 90509=","FM-12","4",,,,,,,,,,,,,,,,,,,,,,,,,,,,"2009-05-01"
"74486094789","2020-02-05T04:51:00","FM-15","7",,"ESE","1.5","mi","TEMP, PRECIP, SNOW",,,"PSY, SRG, SNOWBOARD",,,"FAA CWO",,,,,,,,,,,,,,,,,,,,,,,,,,,"29.91","35","39","T","-RA:02 |RA |RA",,,"86","29.91","SCT:04 14 OVC:08 25","29.88","10.00","37","010",,"16",,,,,,,,,,,,,,,,,,,,,,,,,,,,,,,,,,,,,"MET12302/05/20 04:51:02 METAR KJFK 050951Z 01014KT 10SM -RA SCT014 OVC025 04/02 A2991 RMK AO2 RAB24 SLP128 P0000 T00390017 $ (JC)","FM-15","7",,,,,,,,,,,,,,,,,,,,,,,,,,,,"2009-05-01"
"74486094789","2020-02-05T05:36:00","FM-16","7",,"ESE","1.5","mi","TEMP, PRECIP, SNOW",,,"PSY, SRG, SNOWBOARD",,,"FAA CWO",,,,,,,,,,,,,,,,,,,,,,,,,,,"29.92","35","40",,,,,"83",,"FEW:02 14 OVC:08 30","29.90","10.00","38","020",,"10",,,,,,,,,,,,,,,,,,,,,,,,,,,,,,,,,,,,,"MET11002/05/20 05:36:02 SPECI KJFK 051036Z 02009KT 10SM FEW014 OVC030 04/02 A2992 RMK AO2 RAE20 T00440017 PNO $ (JC)","FM-16","7",,,,,,,,,,,,,,,,,,,,,,,,,,,,"2009-05-01"
"74486094789","2020-02-05T05:51:00","FM-15","7",,"ESE","1.5","mi","TEMP, PRECIP, SNOW",,,"PSY, SRG, SNOWBOARD",,,"FAA CWO",,,,,,,,,,,,,,,,,,,,,,,,,,,"29.93","35","40","T",,,,"83","29.92","FEW:02 14 OVC:08 31","29.91","10.00","38","020",,"9",,,,,,,,,,,,,,,,,,,,,,,,,,,,,,,,,,,,,"MET11702/05/20 05:51:02 METAR KJFK 051051Z 02008KT 10SM FEW014 OVC031 04/02 A2993 RMK AO2 SLP133 RAE20 T00440017 PNO $ (JC)","FM-15","7",,,,,,,,,,,,,,,,,,,,,,,,,,,,"2009-05-01"
"74486094789","2020-02-05T06:51:00","FM-15","7",,"ESE","1.5","mi","TEMP, PRECIP, SNOW",,,"PSY, SRG, SNOWBOARD",,,"FAA CWO",,,,,,,,,,,,,,,,,,,,,,,,,,,"29.95","34","39","0.00",,,,"81",,"FEW:02 15 BKN:07 33 OVC:08 80","29.93","10.00","37","010",,"13",,,,,,,,,,,,,,,,,,,,,,,,,,,,,,,,,,,,,"MET08602/05/20 06:51:02 METAR KJFK 051151Z 01011KT 10SM FEW015 BKN033 OVC080 04/01 A2995 RMK","FM-15","7",,,,,,,,,,,,,,,,,,,,,,,,,,,,"2009-05-01"
"74486094789","2020-02-05T07:00:00","FM-12","4",,"ESE","1.5","mi","TEMP, PRECIP, SNOW",,,"PSY, SRG, SNOWBOARD",,,"FAA CWO",,,,,,,,,,,,,,,,,,,,,,,,,,,,"34","39",,,,,"81",,"15","29.92","9.94","37","010",,"13",,,,,,,,,,,,,,,,,,,,,,,,,,,,,,,,,,,,,"SYN06274486 32466 80111 10040 20010 30131 91151 333 10117 555 90512=","FM-12","4",,,,,,,,,,,,,,,,,,,,,,,,,,,,"2009-05-01"
"74486094789","2020-02-05T07:51:00","FM-15","7",,"ESE","1.5","mi","TEMP, PRECIP, SNOW",,,"PSY, SRG, SNOWBOARD",,,"FAA CWO",,,,,,,,,,,,,,,,,,,,,,,,,,,"30.00","30","39","0.00",,,,"70",,"BKN:07 35 OVC:08 80","29.98","10.00","35","360",,"10",,,,,,,,,,,,,,,,,,,,,,,,,,,,,,,,,,,,,"MET08802/05/20 07:51:02 METAR KJFK 051251Z 36009KT 10SM BKN035 OVC080 04/M01 A3000 RMK VCSH SW","FM-15","7",,,,,,,,,,,,,,,,,,,,,,,,,,,,"2009-05-01"
"74486094789","2020-02-05T08:51:00","FM-15","7",,"ESE","1.5","mi","TEMP, PRECIP, SNOW",,,"PSY, SRG, SNOWBOARD",,,"FAA CWO",,,,,,,,,,,,,,,,,,,,,,,,,,,"30.04","30","41","T","-RA:02 |RA |RA",,,"65","30.04","FEW:02 22 OVC:08 42","30.01","10.00","37","360",,"11",,,,,,,,,,,,,,,,,,,,,,,,,,,,,,,,,,,,,"MET12402/05/20 08:51:02 METAR KJFK 051351Z 36010KT 10SM -RA FEW022 OVC042 05/M01 A3004 RMK AO2 RAB25 SLP172 P0000 T00501011 $ (BH)","FM-15","7",,,,,,,,,,,,,,,,,,,,,,,,,,,,"2009-05-01"
"74486094789","2020-02-05T09:51:00","FM-15","7",,"ESE","1.5","mi","TEMP, PRECIP, SNOW",,,"PSY, SRG, SNOWBOARD",,,"FAA CWO",,,,,,,,,,,,,,,,,,,,,,,,,,,"30.04","32","41","T",,,,"70","30.04","FEW:02 25 OVC:08 48","30.01","10.00","37","020",,"10",,,,,,,,,,,,,,,,,,,,,,,,,,,,,,,,,,,,,"MET12502/05/20 09:51:02 METAR KJFK 051451Z 02009KT 10SM FEW025 OVC048 05/00 A3004 RMK AO2 RAE18 SLP173 P0000 60000 T00500000 $ (BH)","FM-15","7",,,,,,,,,,,,,,,,,,,,,,,,,,,,"2009-05-01"
"74486094789","2020-02-05T10:00:00","FM-12","4",,"ESE","1.5","mi","TEMP, PRECIP, SNOW",,,"PSY, SRG, SNOWBOARD",,,"FAA CWO",,,,,,,,,,,,,,,,,,,,,,,,,,,,"32","41",,,,,"70","30.04","26","30.01","9.94","37","020",,"10",,,,,,,,,,,,,,,,,,,,,,,,,,,,,,,,,,,,,"SYN06474486 12566 80209 10050 20000 30161 40173 69907 91451 555 90515=","FM-12","4",,,,,,,,,,,,,,,,,,,,,,,,,,,,"2009-05-01"
"74486094789","2020-02-05T10:51:00","FM-15","7",,"ESE","1.5","mi","TEMP, PRECIP, SNOW",,,"PSY, SRG, SNOWBOARD",,,"FAA CWO",,,,,,,,,,,,,,,,,,,,,,,,,,,"30.06","30","41","0.00",,,,"65","30.06","FEW:02 25 OVC:08 49","30.03","10.00","37","040",,"8",,,,,,,,,,,,,,,,,,,,,,,,,,,,,,,,,,,,,"MET12102/05/20 10:51:02 METAR KJFK 051551Z 04007KT 10SM FEW025 OVC049 05/M01 A3006 RMK AO2 RAB36E49 SLP179 T00501011 PNO $ (BH)","FM-15","7",,,,,,,,,,,,,,,,,,,,,,,,,,,,"2009-05-01"
"74486094789","2020-02-05T11:51:00","FM-15","7",,"ESE","1.5","mi","TEMP, PRECIP, SNOW",,,"PSY, SRG, SNOWBOARD",,,"FAA CWO",,,,,,,,,,,,,,,,,,,,,,,,,,,"30.05","28","42","0.00",,,,"58","30.05","FEW:02 32 OVC:08 50","30.03","10.00","36","360",,"10",,,,,,,,,,,,,,,,,,,,,,,,,,,,,,,,,,,,,"MET11902/05/20 11:51:02 METAR KJFK 051651Z 36009KT 10SM FEW032 OVC050 06/M02 A3005 RMK AO2 PRESFR SLP176 T00561022 PNO $ (BH)","FM-15","7",,,,,,,,,,,,,,,,,,,,,,,,,,,,"2009-05-01"
"74486094789","2020-02-05T12:51:00","FM-15","7",,"ESE","1.5","mi","TEMP, PRECIP, SNOW",,,"PSY, SRG, SNOWBOARD",,,"FAA CWO",,,,,,,,,,,,,,,,,,,,,,,,,,,"30.05","27","42","0.00",,"-0.00","0","55","30.04","FEW:02 35 OVC:08 50","30.03","10.00","36","030",,"8",,,,,,,,,,,,,,,,,,,,,,,,,,,,,,,,,,,,,"MET12002/05/20 12:51:02 METAR KJFK 051751Z 03007KT 10SM FEW035 OVC050 06/M03 A3005 RMK AO2 SLP174 6//// T00561028 50001 $ (BH)","FM-15","7",,,,,,,,,,,,,,,,,,,,,,,,,,,,"2009-05-01"
"74486094789","2020-02-05T13:00:00","FM-12","4",,"ESE","1.5","mi","TEMP, PRECIP, SNOW",,,"PSY, SRG, SNOWBOARD",,,"FAA CWO",,,,,,,,,,,,,,,,,,,,,,,,,,,,"27","42",,,"0.00","9","55","30.04","41","30.02","9.94","36","030",,"8",,,,,,,,,,,,,,,,,,,,,,,,,,,,,,,,,,,,,"SYN06474486 32666 80307 10056 21028 30165 40174 50001 91751 555 90518=","FM-12","4",,,,,,,,,,,,,,,,,,,,,,,,,,,,"2009-05-01"
"74486094789","2020-02-05T13:51:00","FM-15","7",,"ESE","1.5","mi","TEMP, PRECIP, SNOW",,,"PSY, SRG, SNOWBOARD",,,"FAA CWO",,,,,,,,,,,,,,,,,,,,,,,,,,,"30.05","26","42","0.00",,,,"53","30.05","FEW:02 35 OVC:08 48","30.03","10.00","36","040",,"7",,,,,,,,,,,,,,,,,,,,,,,,,,,,,,,,,,,,,"MET10802/05/20 13:51:02 METAR KJFK 051851Z 04006KT 10SM FEW035 OVC048 06/M03 A3005 RMK AO2 SLP176 T00561033 $ (BH)","FM-15","7",,,,,,,,,,,,,,,,,,,,,,,,,,,,"2009-05-01"
"74486094789","2020-02-05T14:51:00","FM-15","7",,"ESE","1.5","mi","TEMP, PRECIP, SNOW",,,"PSY, SRG, SNOWBOARD",,,"FAA CWO",,,,,,,,,,,,,,,,,,,,,,,,,,,"30.05","25","41","0.00",,,,"53","30.05","FEW:02 35 OVC:08 47","30.03","10.00","35","040",,"7",,,,,,,,,,,,,,,,,,,,,,,,,,,,,,,,,,,,,"MET10802/05/20 14:51:02 METAR KJFK 051951Z 04006KT 10SM FEW035 OVC047 05/M04 A3005 RMK AO2 SLP177 T00501039 $ (RR)","FM-15","7",,,,,,,,,,,,,,,,,,,,,,,,,,,,"2009-05-01"
"74486094789","2020-02-05T15:51:00","FM-15","7",,"ESE","1.5","mi","TEMP, PRECIP, SNOW",,,"PSY, SRG, SNOWBOARD",,,"FAA CWO",,,,,,,,,,,,,,,,,,,,,,,,,,,"30.06","23","41","0.00",,"-0.01","3","49","30.06","BKN:07 50 OVC:08 70","30.03","10.00","34","050",,"6",,,,,,,,,,,,,,,,,,,,,,,,,,,,,,,,,,,,,"MET11402/05/20 15:51:02 METAR KJFK 052051Z 05005KT 10SM BKN050 OVC070 05/M05 A3006 RMK AO2 SLP180 T00501050 53005 $ (RR)","FM-15","7",,,,,,,,,,,,,,,,,,,,,,,,,,,,"2009-05-01"
"74486094789","2020-02-05T16:00:00","FM-12","4",,"ESE","1.5","mi","TEMP, PRECIP, SNOW",,,"PSY, SRG, SNOWBOARD",,,"FAA CWO",,,,,,,,,,,,,,,,,,,,,,,,,,,,"23","41",,,"-0.01","3","49","30.06","57","30.03","9.94","34","050",,"6",,,,,,,,,,,,,,,,,,,,,,,,,,,,,,,,,,,,,"SYN06474486 32766 80505 10050 21050 30168 40180 53005 92051 555 90521=","FM-12","4",,,,,,,,,,,,,,,,,,,,,,,,,,,,"2009-05-01"
"74486094789","2020-02-05T16:51:00","FM-15","7",,"ESE","1.5","mi","TEMP, PRECIP, SNOW",,,"PSY, SRG, SNOWBOARD",,,"FAA CWO",,,,,,,,,,,,,,,,,,,,,,,,,,,"30.08","21","41","0.00",,,,"45","30.08","FEW:02 35 OVC:08 50","30.06","10.00","34","050",,"8",,,,,,,,,,,,,,,,,,,,,,,,,,,,,,,,,,,,,"MET10802/05/20 16:51:02 METAR KJFK 052151Z 05007KT 10SM FEW035 OVC050 05/M06 A3008 RMK AO2 SLP185 T00501061 $ (RR)","FM-15","7",,,,,,,,,,,,,,,,,,,,,,,,,,,,"2009-05-01"
"74486094789","2020-02-05T17:51:00","FM-15","7",,"ESE","1.5","mi","TEMP, PRECIP, SNOW",,,"PSY, SRG, SNOWBOARD",,,"FAA CWO",,,,,,,,,,,,,,,,,,,,,,,,,,,"30.07","17","41","0.00",,,,"38","30.07","OVC:08 55","30.04","10.00","33","040",,"7",,,,,,,,,,,,,,,,,,,,,,,,,,,,,,,,,,,,,"MET09902/05/20 17:51:02 METAR KJFK 052251Z 04006KT 10SM OVC055 05/M08 A3007 RMK AO2 SLP182 T00501083 (RR)","FM-15","7",,,,,,,,,,,,,,,,,,,,,,,,,,,,"2009-05-01"
"74486094789","2020-02-05T18:51:00","FM-15","7",,"ESE","1.5","mi","TEMP, PRECIP, SNOW",,,"PSY, SRG, SNOWBOARD",,,"FAA CWO",,,,,,,,,,,,,,,,,,,,,,,,,,,"30.08","17","40","0.00",,"-0.01","1","40","30.07","OVC:08 50","30.06","10.00","32","060",,"9",,,,,,,,,,,,,,,,,,,,,,,,,,,,,,,,,,,,,"MET10502/05/20 18:51:02 METAR KJFK 052351Z 06008KT 10SM OVC050 04/M08 A3008 RMK AO2 SLP184 T00441083 51005 (RR)","FM-15","7",,,,,,,,,,,,,,,,,,,,,,,,,,,,"2009-05-01"
"74486094789","2020-02-05T19:00:00","FM-12","4",,"ESE","1.5","mi","TEMP, PRECIP, SNOW",,,"PSY, SRG, SNOWBOARD",,,"FAA CWO",,,,,,,,,,,,,,,,,,,,,,,,,,,,"17","40",,,"-0.01","1","40","30.07","57","30.05","9.94","32","060",,"9",,,,,,,,,,,,,,,,,,,,,,,,,,,,,,,,,,,,,"SYN06474486 32766 80608 10044 21083 30175 40184 51005 92351 555 90600=","FM-12","4",,,,,,,,,,,,,,,,,,,,,,,,,,,,"2009-05-01"
"74486094789","2020-02-05T19:51:00","FM-15","7",,"ESE","1.5","mi","TEMP, PRECIP, SNOW",,,"PSY, SRG, SNOWBOARD",,,"FAA CWO",,,,,,,,,,,,,,,,,,,,,,,,,,,"30.09","18","40","0.00",,,,"41","30.09","BKN:07 44 OVC:08 60","30.06","10.00","32","060",,"8",,,,,,,,,,,,,,,,,,,,,,,,,,,,,,,,,,,,,"MET10102/05/20 19:51:01 METAR KJFK 060051Z 06007KT 10SM BKN044 OVC060 04/M08 A3009 RMK AO2 SLP188 T00441078","FM-15","7",,,,,,,,,,,,,,,,,,,,,,,,,,,,"2009-05-01"
"74486094789","2020-02-05T20:51:00","FM-15","7",,"ESE","1.5","mi","TEMP, PRECIP, SNOW",,,"PSY, SRG, SNOWBOARD",,,"FAA CWO",,,,,,,,,,,,,,,,,,,,,,,,,,,"30.06","19","40","0.00",,,,"43","30.06","OVC:08 42","30.03","10.00","33","060",,"8",,,,,,,,,,,,,,,,,,,,,,,,,,,,,,,,,,,,,"MET09402/05/20 20:51:01 METAR KJFK 060151Z 06007KT 10SM OVC042 04/M07 A3006 RMK AO2 SLP180 T00441072","FM-15","7",,,,,,,,,,,,,,,,,,,,,,,,,,,,"2009-05-01"
"74486094789","2020-02-05T21:51:00","FM-15","7",,"ESE","1.5","mi","TEMP, PRECIP, SNOW",,,"PSY, SRG, SNOWBOARD",,,"FAA CWO",,,,,,,,,,,,,,,,,,,,,,,,,,,"30.05","22","39","0.00",,"+0.03","8","50","30.05","BKN:07 46 OVC:08 60","30.03","10.00","33","070",,"7",,,,,,,,,,,,,,,,,,,,,,,,,,,,,,,,,,,,,"MET10702/05/20 21:51:01 METAR KJFK 060251Z 07006KT 10SM BKN046 OVC060 04/M06 A3005 RMK AO2 SLP175 T00391056 58009","FM-15","7",,,,,,,,,,,,,,,,,,,,,,,,,,,,"2009-05-01"
"74486094789","2020-02-05T22:00:00","FM-12","4",,"ESE","1.5","mi","TEMP, PRECIP, SNOW",,,"PSY, SRG, SNOWBOARD",,,"FAA CWO",,,,,,,,,,,,,,,,,,,,,,,,,,,,"22","39",,,"+0.03","8","50","30.05","41","30.02","9.94","33","070",,"7",,,,,,,,,,,,,,,,,,,,,,,,,,,,,,,,,,,,,"SYN06474486 32666 80706 10039 21056 30165 40175 58009 90251 555 90603=","FM-12","4",,,,,,,,,,,,,,,,,,,,,,,,,,,,"2009-05-01"
"74486094789","2020-02-05T22:51:00","FM-15","7",,"ESE","1.5","mi","TEMP, PRECIP, SNOW",,,"PSY, SRG, SNOWBOARD",,,"FAA CWO",,,,,,,,,,,,,,,,,,,,,,,,,,,"30.01","22","39","0.00",,,,"50","30.01","OVC:08 38","29.98","10.00","33","080",,"6",,,,,,,,,,,,,,,,,,,,,,,,,,,,,,,,,,,,,"MET09402/05/20 22:51:01 METAR KJFK 060351Z 08005KT 10SM OVC038 04/M06 A3001 RMK AO2 SLP161 T00391056","FM-15","7",,,,,,,,,,,,,,,,,,,,,,,,,,,,"2009-05-01"
"74486094789","2020-02-05T23:51:00","FM-15","7",,"ESE","1.5","mi","TEMP, PRECIP, SNOW",,,"PSY, SRG, SNOWBOARD",,,"FAA CWO",,,,,,,,,,,,,,,,,,,,,,,,,,,"29.96","26","39","T","-RA:02 |RA |RA",,,"60","29.96","SCT:04 21 OVC:08 35","29.93","10.00","34","080",,"9",,,,,,,,,,,,,,,,,,,,,,,,,,,,,,,,,,,,,"MET11702/05/20 23:51:02 METAR KJFK 060451Z 08008KT 10SM -RA SCT021 OVC035 04/M03 A2996 RMK AO2 RAB49 SLP145 P0000 T00391033","FM-15","7",,,,,,,,,,,,,,,,,,,,,,,,,,,,"2009-05-01"
"74486094789","2020-02-05T23:59:00","SOD  ","6",,"ESE","1.5","mi","TEMP, PRECIP, SNOW",,,"PSY, SRG, SNOWBOARD",,,"FAA CWO",,,,"28","45","61","29.98","29.94","36","9.8","0","11.5","20","51","39","350","29","T","0","0.0","340","24","RA",,,,,,,,,,,,,,,,,,,,,,,,,,,,,,,,,,,,,,,,,,,,,,,,,,,,,,,,"SOD78024 HR PRECIPITATION (IN):    T SNOW DEPTH (IN):0     24 HR SNOWFALL (IN):0.0  WEATHER(CODE):1  24 HR MAX TEMP (F): 5124 HR MIN TEMP (F): 39AVERAGE STATION PRESSURE:29.940 MINIMUM SEA LEVEL PRESSURE:29.75 TIME OF OCCURRENCE:0008 PEAK WIND SPEED (MPH): 29 PEAK WIND DIR (DEG):350 PEAK WIND TIME (LST):      FASTEST 2MIN SPEED (MPH): 24FASTEST 2MIN DIR (DEG):340 FASTEST 2MIN TIME (LST):     AVERAGE WIND SPEED (MPH): 9.8 24 HR AVG TEMP (F): 45DEPART FROM NORMAL: 11  SKY COVER SR-SS (TENTHS): 1HEATING DEGREE DAYS: 20 COOLING DEGREE DAYS:  0 LATEST DAY MAX TEMP (0700-1900 LST):42  LATEST NIGHT MIN TEMP(1900-0800 LST):39 HOURLY INCREMENTAL PRECIPITATION VALUES (IN):.00 T    T    0.00 T    T    0.00 0.00 T    T    0.00 0.00 0.00 0.00 0.00 0.00 0.00 0.00 0.00 0.00 0.00 0.00 0.00 T","SOD  ","6",,,,,,,,,,,,,,,,,,,,,,,,,"0701","1718",,"2009-05-01"
"74486094789","2020-02-06T00:15:00","FM-16","7",,"ESE","1.5","mi","TEMP, PRECIP, SNOW",,,"PSY, SRG, SNOWBOARD",,,"FAA CWO",,,,,,,,,,,,,,,,,,,,,,,,,,,"29.95","30","38","T","-RA:02 |RA |RA",,,"73",,"BKN:07 21 OVC:08 34","29.93","10.00","35","090",,"10",,,,,,,,,,,,,,,,,,,,,,,,,,,,,,,,,,,,,"MET10902/06/20 00:15:02 SPECI KJFK 060515Z 09009KT 10SM -RA BKN021 OVC034 03/M01 A2995 RMK AO2 P0000 T00331011 (JC)","FM-16","7",,,,,,,,,,,,,,,,,,,,,,,,,,,,"2009-05-01"
"74486094789","2020-02-06T00:42:00","FM-16","7",,"ESE","1.5","mi","TEMP, PRECIP, SNOW",,,"PSY, SRG, SNOWBOARD",,,"FAA CWO",,,,,,,,,,,,,,,,,,,,,,,,,,,"29.93","33","37","0.01","RA:02 BR:1 |RA |RA",,,"86",,"BKN:07 12 OVC:08 26","29.91","5.00","35","070",,"7",,,,,,,,,,,,,,,,,,,,,,,,,,,,,,,,,,,,,"MET10902/06/20 00:42:02 SPECI KJFK 060542Z 07006KT 5SM RA BR BKN012 OVC026 03/01 A2993 RMK AO2 P0001 T00280006 (JC)","FM-16","7",,,,,,,,,,,,,,,,,,,,,,,,,,,,"2009-05-01"
"74486094789","2020-02-06T00:51:00","FM-15","7",,"ESE","1.5","mi","TEMP, PRECIP, SNOW",,,"PSY, SRG, SNOWBOARD",,,"FAA CWO",,,,,,,,,,,,,,,,,,,,,,,,,,,"29.93","34","37","0.05s","RA:02 BR:1 |RA |RA","+0.12","6","89","29.93","BKN:07 14 OVC:08 26","29.91","5.00","36","070",,"6",,,,,,,,,,,,,,,,,,,,,,,,,,,,,,,,,,,,,"MET14002/06/20 00:51:02 METAR KJFK 060551Z 07005KT 5SM RA BR BKN014 OVC026 03/01 A2993 RMK AO2 SLP134 P0004 60004 T00280011 10044 20028 56041 (JC)","FM-15","7",,,,,,,,,,,,,,,,,,,,,,,,,,,,"2009-05-01"
"74486094789","2020-02-06T01:00:00","FM-12","4",,"ESE","1.5","mi","TEMP, PRECIP, SNOW",,,"PSY, SRG, SNOWBOARD",,,"FAA CWO",,,,,,,,,,,,,,,,,,,,,,,,,,,,"34","37",,"||RA","+0.12","6","89","29.93","15","29.90","4.97","36","070",,"6",,,,,,,,,,,,,,,,,,,,,,,,,,,,,,,,,,,,,"SYN08674486 11458 80705 10028 20011 30124 40134 56041 60011 763// 90551 333 96010 555 90606=","FM-12","4",,,,,,,,,,,,,,,,,,,,,,,,,,,,"2009-05-01"
"74486094789","2020-02-06T01:40:00","FM-16","7",,"ESE","1.5","mi","TEMP, PRECIP, SNOW",,,"PSY, SRG, SNOWBOARD",,,"FAA CWO",,,,,,,,,,,,,,,,,,,,,,,,,,,"29.91","37","38","0.13","RA:02 BR:1 |RA |RA",,,"97",,"BKN:07 8 OVC:08 29","29.88","5.00","38","090",,"9",,,,,,,,,,,,,,,,,,,,,,,,,,,,,,,,,,,,,"MET10902/06/20 01:40:02 SPECI KJFK 060640Z 09008KT 5SM RA BR BKN008 OVC029 03/03 A2991 RMK AO2 P0013 T00330028 (JC)","FM-16","7",,,,,,,,,,,,,,,,,,,,,,,,,,,,"2009-05-01"
"74486094789","2020-02-06T01:51:00","FM-15","7",,"ESE","1.5","mi","TEMP, PRECIP, SNOW",,,"PSY, SRG, SNOWBOARD",,,"FAA CWO",,,,,,,,,,,,,,,,,,,,,,,,,,,"29.92","37","38","0.18","+RA:02 BR:1 |RA |RA",,,"97","29.91","OVC:08 7","29.90","5.00","38","080",,"8",,,,,,,,,,,,,,,,,,,,,,,,,,,,,,,,,,,,,"MET11002/06/20 01:51:02 METAR KJFK 060651Z 08007KT 5SM +RA BR OVC007 03/03 A2992 RMK AO2 SLP130 P0016 T00330028 (JC)","FM-15","7",,,,,,,,,,,,,,,,,,,,,,,,,,,,"2009-05-01"
"74486094789","2020-02-06T02:51:00","FM-15","7",,"ESE","1.5","mi","TEMP, PRECIP, SNOW",,,"PSY, SRG, SNOWBOARD",,,"FAA CWO",,,,,,,,,,,,,,,,,,,,,,,,,,,"29.86","37","38","0.20","RA:02 BR:1 |RA |RA",,,"97","29.86","BKN:07 7 BKN:07 22 OVC:08 55","29.83","5.00","38","110",,"9",,,,,,,,,,,,,,,,,,,,,,,,,,,,,,,,,,,,,"MET12302/06/20 02:51:02 METAR KJFK 060751Z 11008KT 5SM RA BR BKN007 BKN022 OVC055 03/03 A2986 RMK AO2 SLP112 P0021 T00330028 (JC)","FM-15","7",,,,,,,,,,,,,,,,,,,,,,,,,,,,"2009-05-01"
"74486094789","2020-02-06T03:51:00","FM-15","7",,"ESE","1.5","mi","TEMP, PRECIP, SNOW",,,"PSY, SRG, SNOWBOARD",,,"FAA CWO",,,,,,,,,,,,,,,,,,,,,,,,,,,"29.82","38","39","0.11","RA:02 BR:1 |RA |RA","+0.11","8","96","29.81","OVC:08 7","29.80","4.00","39","080",,"7",,,,,,,,,,,,,,,,,,,,,,,,,,,,,,,,,,,,,"MET12102/06/20 03:51:02 METAR KJFK 060851Z 08006KT 4SM RA BR OVC007 04/03 A2982 RMK AO2 SLP096 P0012 60049 T00390033 58038 (JC)","FM-15","7",,,,,,,,,,,,,,,,,,,,,,,,,,,,"2009-05-01"
"74486094789","2020-02-06T04:00:00","FM-12","4",,"ESE","1.5","mi","TEMP, PRECIP, SNOW",,,"PSY, SRG, SNOWBOARD",,,"FAA CWO",,,,,,,,,,,,,,,,,,,,,,,,,,,,"38","39",,"||RA","+0.11","8","96","29.81","8","29.79","3.73","39","080",,"7",,,,,,,,,,,,,,,,,,,,,,,,,,,,,,,,,,,,,"SYN08674486 11356 80806 10039 20033 30087 40096 58038 60127 763// 90851 333 96010 555 90609=","FM-12","4",,,,,,,,,,,,,,,,,,,,,,,,,,,,"2009-05-01"
"74486094789","2020-02-06T04:51:00","FM-15","7",,"ESE","1.5","mi","TEMP, PRECIP, SNOW",,,"PSY, SRG, SNOWBOARD",,,"FAA CWO",,,,,,,,,,,,,,,,,,,,,,,,,,,"29.72","39","41","0.04",,,,"93","29.72","OVC:08 6","29.70","10.00","40","090",,"15",,,,,,,,,,,,,,,,,,,,,,,,,,,,,,,,,,,,,"MET11702/06/20 04:51:02 METAR KJFK 060951Z 09013KT 10SM OVC006 05/04 A2972 RMK AO2 RAE48 PRESFR SLP065 P0005 T00500039 (JC)","FM-15","7",,,,,,,,,,,,,,,,,,,,,,,,,,,,"2009-05-01"
"74486094789","2020-02-06T05:51:00","FM-15","7",,"ESE","1.5","mi","TEMP, PRECIP, SNOW",,,"PSY, SRG, SNOWBOARD",,,"FAA CWO",,,,,,,,,,,,,,,,,,,,,,,,,,,"29.75","40","42","0.02","-RA:02 BR:1 |RA |RA",,,"92","29.75","OVC:08 6","29.72","6.00","41","020",,"11",,,,,,,,,,,,,,,,,,,,,,,,,,,,,,,,,,,,,"MET11602/06/20 05:51:02 METAR KJFK 061051Z 02010KT 6SM -RA BR OVC006 06/04 A2975 RMK AO2 RAB28 SLP073 P0001 T00560044 (JC)","FM-15","7",,,,,,,,,,,,,,,,,,,,,,,,,,,,"2009-05-01"
"74486094789","2020-02-06T06:14:00","FM-16","7",,"ESE","1.5","mi","TEMP, PRECIP, SNOW",,,"PSY, SRG, SNOWBOARD",,,"FAA CWO",,,,,,,,,,,,,,,,,,,,,,,,,,,"29.73","40","41","0.03","-RA:02 BR:1 |RA |RA",,,"96",,"BKN:07 6 OVC:08 14","29.70","2.50","41","030",,"11",,,,,,,,,,,,,,,,,,,,,,,,,,,,,,,,,,,,,"MET11402/06/20 06:14:02 SPECI KJFK 061114Z 03010KT 2 1/2SM -RA BR BKN006 OVC014 05/04 A2973 RMK AO2 P0003 T00500044 (BH)","FM-16","7",,,,,,,,,,,,,,,,,,,,,,,,,,,,"2009-05-01"
"74486094789","2020-02-06T06:51:00","FM-15","7",,"ESE","1.5","mi","TEMP, PRECIP, SNOW",,,"PSY, SRG, SNOWBOARD",,,"FAA CWO",,,,,,,,,,,,,,,,,,,,,,,,,,,"29.71","40","41","0.04","-RA:02 BR:1 |RA |RA","+0.11","6","96","29.70","BKN:07 5 OVC:08 14","29.69","2.00","41","040",,"9",,,,,,,,,,,,,,,,,,,,,,,,,,,,,,,,,,,,,"MET15702/06/20 06:51:02 METAR KJFK 061151Z 04008KT 2SM -RA BR BKN005 OVC014 05/04 A2971 RMK AO2 SFC VIS 3 SLP058 P0005 60060 7//// T00500044 10056 20028 56038 (BH)","FM-15","7",,,,,,,,,,,,,,,,,,,,,,,,,,,,"2009-05-01"
"74486094789","2020-02-06T07:00:00","FM-12","4",,"ESE","1.5","mi","TEMP, PRECIP, SNOW",,,"PSY, SRG, SNOWBOARD",,,"FAA CWO",,,,,,,,,,,,,,,,,,,,,,,,,,,,"40","41",,"||RA","+0.11","6","96","29.70","5","29.68","1.99","41","040",,"9",,,,,,,,,,,,,,,,,,,,,,,,,,,,,,,,,,,,,"SYN09274486 11232 80408 10050 20044 30050 40058 56038 60151 761// 91151 333 20028 96010 555 90612=","FM-12","4",,,,,,,,,,,,,,,,,,,,,,,,,,,,"2009-05-01"
"74486094789","2020-02-06T07:31:00","FM-16","7",,"ESE","1.5","mi","TEMP, PRECIP, SNOW",,,"PSY, SRG, SNOWBOARD",,,"FAA CWO",,,,,,,,,,,,,,,,,,,,,,,,,,,"29.67","39","40","0.01","-RA:02 BR:1 |RA |RA",,,"97",,"OVC:08 4","29.65","2.00","40","030",,"9",,,,,,,,,,,,,,,,,,,,,,,,,,,,,,,,,,,,,"MET11702/06/20 07:31:02 SPECI KJFK 061231Z 03008KT 2SM -RA BR OVC004 04/04 A2967 RMK AO2 SFC VIS 2 1/2 P0001 T00440039 (BH)","FM-16","7",,,,,,,,,,,,,,,,,,,,,,,,,,,,"2009-05-01"
"74486094789","2020-02-06T07:51:00","FM-15","7",,"ESE","1.5","mi","TEMP, PRECIP, SNOW",,,"PSY, SRG, SNOWBOARD",,,"FAA CWO",,,,,,,,,,,,,,,,,,,,,,,,,,,"29.65","40","41","0.01","-DZ:01 BR:1 |DZ |DZ",,,"96","29.65","BKN:07 5 OVC:08 12","29.62","2.00","41","050",,"11",,,,,,,,,,,,,,,,,,,,,,,,,,,,,,,,,,,,,"MET13802/06/20 07:51:02 METAR KJFK 061251Z 05010KT 2SM -DZ BR BKN005 OVC012 05/04 A2965 RMK AO2 SFC VIS 3 RAE49DZB49 SLP041 P0001 T00500044 (BH)","FM-15","7",,,,,,,,,,,,,,,,,,,,,,,,,,,,"2009-05-01"
"74486094789","2020-02-06T08:51:00","FM-15","7",,"ESE","1.5","mi","TEMP, PRECIP, SNOW",,,"PSY, SRG, SNOWBOARD",,,"FAA CWO",,,,,,,,,,,,,,,,,,,,,,,,,,,"29.68","40","42","T","-DZ:01 BR:1 |DZ |DZ",,,"92","29.68","OVC:08 5","29.65","2.50","41","350",,"7",,,,,,,,,,,,,,,,,,,,,,,,,,,,,,,,,,,,,"MET12402/06/20 08:51:02 METAR KJFK 061351Z 35006KT 2 1/2SM -DZ BR OVC005 06/04 A2968 RMK AO2 SFC VIS 4 SLP051 P0000 T00560044 (BH)","FM-15","7",,,,,,,,,,,,,,,,,,,,,,,,,,,,"2009-05-01"
"74486094789","2020-02-06T09:51:00","FM-15","7",,"ESE","1.5","mi","TEMP, PRECIP, SNOW",,,"PSY, SRG, SNOWBOARD",,,"FAA CWO",,,,,,,,,,,,,,,,,,,,,,,,,,,"29.66","40","41","T","-DZ:01 BR:1 |DZ |DZ","+0.04","6","96","29.66","OVC:08 5","29.64","2.50","41","360",,"9",,,,,,,,,,,,,,,,,,,,,,,,,,,,,,,,,,,,,"MET12602/06/20 09:51:02 METAR KJFK 061451Z 36008KT 2 1/2SM -DZ BR OVC005 05/04 A2966 RMK AO2 SLP044 P0000 60001 T00500044 56015 (BH)","FM-15","7",,,,,,,,,,,,,,,,,,,,,,,,,,,,"2009-05-01"
"74486094789","2020-02-06T10:00:00","FM-12","4",,"ESE","1.5","mi","TEMP, PRECIP, SNOW",,,"PSY, SRG, SNOWBOARD",,,"FAA CWO",,,,,,,,,,,,,,,,,,,,,,,,,,,,"40","41",,"||DZ","+0.04","6","96","29.66","5","29.63","2.49","41","360",,"9",,,,,,,,,,,,,,,,,,,,,,,,,,,,,,,,,,,,,"SYN08674486 11240 83608 10050 20044 30033 40044 56015 69937 751// 91451 333 96010 555 90615=","FM-12","4",,,,,,,,,,,,,,,,,,,,,,,,,,,,"2009-05-01"
"74486094789","2020-02-06T10:00:00","FM-16","7",,"ESE","1.5","mi","TEMP, PRECIP, SNOW",,,"PSY, SRG, SNOWBOARD",,,"FAA CWO",,,,,,,,,,,,,,,,,,,,,,,,,,,"29.66","40","41","T","-DZ:01 BR:1 |DZ |DZ",,,"96",,"OVC:08 4","29.64","2.50","41","020",,"11",,,,,,,,,,,,,,,,,,,,,,,,,,,,,,,,,,,,,"MET11702/06/20 10:00:02 SPECI KJFK 061500Z 02010KT 2 1/2SM -DZ BR OVC004 05/04 A2966 RMK AO2 SFC VIS 4 P0000 T00500044 (BH)","FM-16","7",,,,,,,,,,,,,,,,,,,,,,,,,,,,"2009-05-01"
"74486094789","2020-02-06T10:51:00","FM-15","7",,"ESE","1.5","mi","TEMP, PRECIP, SNOW",,,"PSY, SRG, SNOWBOARD",,,"FAA CWO",,,,,,,,,,,,,,,,,,,,,,,,,,,"29.65","41","42","T","BR:1 ||",,,"96","29.65","OVC:08 4","29.62","2.50","42","020",,"7",,,,,,,,,,,,,,,,,,,,,,,,,,,,,,,,,,,,,"MET13402/06/20 10:51:02 METAR KJFK 061551Z 02006KT 2 1/2SM BR OVC004 06/05 A2965 RMK AO2 SFC VIS 5 DZE25RAB25E37 SLP039 P0000 T00560050 (BH)","FM-15","7",,,,,,,,,,,,,,,,,,,,,,,,,,,,"2009-05-01"
"74486094789","2020-02-06T11:49:00","FM-16","6",,"ESE","1.5","mi","TEMP, PRECIP, SNOW",,,"PSY, SRG, SNOWBOARD",,,"FAA CWO",,,,,,,,,,,,,,,,,,,,,,,,,,,"29.60","41","43",,"-DZ:01 BR:1 |DZ |DZ",,,"93",,"X:10 0 OVC:08 4","29.57","1.00","42","040",,"7",,,,,,,,,,,,,,,,,,,,,,,,,,,,,,,,,,,,,"MET14802/06/20 11:49:02 SPECI KJFK 061649Z 04006KT 1SM R04R/P6000FT -DZ BR FEW000 OVC004 06/05 A2960 RMK AO2 SFC VIS 1 3/4 DZB40 BR FEW000 P0000 FIBI (BH)","FM-16","6",,,,,,,,,,,,,,,,,,,,,,,,,,,,"2009-05-01"
"74486094789","2020-02-06T11:51:00","FM-15","7",,"ESE","1.5","mi","TEMP, PRECIP, SNOW",,,"PSY, SRG, SNOWBOARD",,,"FAA CWO",,,,,,,,,,,,,,,,,,,,,,,,,,,"29.60","41","43","T","-DZ:01 BR:1 |DZ |DZ",,,"93","29.59","X:10 0 OVC:08 4","29.57","1.00","42","040",,"7",,,,,,,,,,,,,,,,,,,,,,,,,,,,,,,,,,,,,"MET16002/06/20 11:51:02 METAR KJFK 061651Z 04006KT 1SM R04R/P6000FT -DZ BR FEW000 OVC004 06/05 A2960 RMK AO2 SFC VIS 1 3/4 DZB40 SLP022 BR FEW000 P0000 T00610050 (BH)","FM-15","7",,,,,,,,,,,,,,,,,,,,,,,,,,,,"2009-05-01"
"74486094789","2020-02-06T12:51:00","FM-15","7",,"ESE","1.5","mi","TEMP, PRECIP, SNOW",,,"PSY, SRG, SNOWBOARD",,,"FAA CWO",,,,,,,,,,,,,,,,,,,,,,,,,,,"29.58","42","43","0.01","-DZ:01 BR:1 |DZ |DZ","+0.08","6","97","29.58","OVC:08 4","29.56","1.00","43","360",,"6",,,,,,,,,,,,,,,,,,,,,,,,,,,,,,,,,,,,,"MET16802/06/20 12:51:02 METAR KJFK 061751Z 36005KT 1SM R04R/5500VP6000FT -DZ BR OVC004 06/06 A2958 RMK AO2 SFC VIS 2 1/2 SLP017 P0000 60001 T00610056 10061 20044 56027 $ (BH)","FM-15","7",,,,,,,,,,,,,,,,,,,,,,,,,,,,"2009-05-01"
"74486094789","2020-02-06T13:00:00","FM-12","4",,"ESE","1.5","mi","TEMP, PRECIP, SNOW",,,"PSY, SRG, SNOWBOARD",,,"FAA CWO",,,,,,,,,,,,,,,,,,,,,,,,,,,,"42","43",,"||DZ","+0.08","6","97","29.58","5","29.55","0.99","43","360",,"6",,,,,,,,,,,,,,,,,,,,,,,,,,,,,,,,,,,,,"SYN09274486 11216 83605 10061 20056 30006 40017 56027 69931 751// 91751 333 10061 96010 555 90618=","FM-12","4",,,,,,,,,,,,,,,,,,,,,,,,,,,,"2009-05-01"
"74486094789","2020-02-06T13:51:00","FM-15","7",,"ESE","1.5","mi","TEMP, PRECIP, SNOW",,,"PSY, SRG, SNOWBOARD",,,"FAA CWO",,,,,,,,,,,,,,,,,,,,,,,,,,,"29.55","42","43","T","-DZ:01 BR:1 |DZ |DZ",,,"97","29.55","OVC:08 4","29.52","1.00","43","040",,"3",,,,,,,,,,,,,,,,,,,,,,,,,,,,,,,,,,,,,"MET13502/06/20 13:51:02 METAR KJFK 061851Z 04003KT 1SM R04R/P6000FT -DZ BR OVC004 06/06 A2955 RMK AO2 SFC VIS 3 SLP008 P0001 T00610056 $ (BH)","FM-15","7",,,,,,,,,,,,,,,,,,,,,,,,,,,,"2009-05-01"
"74486094789","2020-02-06T14:46:00","FM-16","7",,"ESE","1.5","mi","TEMP, PRECIP, SNOW",,,"PSY, SRG, SNOWBOARD",,,"FAA CWO",,,,,,,,,,,,,,,,,,,,,,,,,,,"29.53","43","43","T","BR:1 |s |",,,"100",,"OVC:08 4","29.51","0.50","43","030",,"6",,,,,,,,,,,,,,,,,,,,,,,,,,,,,,,,,,,,,"MET12202/06/20 14:46:02 SPECI KJFK 061946Z 03005KT 1/2SM R04R/P6000FT BR OVC004 06/06 A2953 RMK AO2 SFC VIS 5 DZE46 P0000 $ (RR)","FM-16","7",,,,,,,,,,,,,,,,,,,,,,,,,,,,"2009-05-01"
"74486094789","2020-02-06T14:51:00","FM-15","7",,"ESE","1.5","mi","TEMP, PRECIP, SNOW",,,"PSY, SRG, SNOWBOARD",,,"FAA CWO",,,,,,,,,,,,,,,,,,,,,,,,,,,"29.53","42","43","T","BR:1 |s |",,,"97","29.53","OVC:08 4","29.51","0.50","43","040",,"6",,,,,,,,,,,,,,,,,,,,,,,,,,,,,,,,,,,,,"MET13902/06/20 14:51:02 METAR KJFK 061951Z 04005KT 1/2SM R04R/P6000FT BR OVC004 06/06 A2953 RMK AO2 SFC VIS 5 DZE46 SLP001 P0000 T00610056 $ (RR)","FM-15","7",,,,,,,,,,,,,,,,,,,,,,,,,,,,"2009-05-01"
"74486094789","2020-02-06T15:51:00","FM-15","7",,"ESE","1.5","mi","TEMP, PRECIP, SNOW",,,"PSY, SRG, SNOWBOARD",,,"FAA CWO",,,,,,,,,,,,,,,,,,,,,,,,,,,"29.53","41","42","T","-RA:02 BR:1 |s RA s |RA s","+0.02","6","96","29.53","OVC:08 4","29.51","0.50","42","020",,"7",,,,,,,,,,,,,,,,,,,,,,,,,,,,,,,,,,,,,"MET15502/06/20 15:51:02 METAR KJFK 062051Z 02006KT 1/2SM R04R/P6000FT -RA BR OVC004 06/05 A2953 RMK AO2 SFC VIS 5 RAB45 SLP001 P0000 60001 T00560050 56007 $ (RR)","FM-15","7",,,,,,,,,,,,,,,,,,,,,,,,,,,,"2009-05-01"
"74486094789","2020-02-06T16:00:00","FM-12","4",,"ESE","1.5","mi","TEMP, PRECIP, SNOW",,,"PSY, SRG, SNOWBOARD",,,"FAA CWO",,,,,,,,,,,,,,,,,,,,,,,,,,,,"41","42",,"||RA","+0.02","6","96","29.53","5","29.50","0.50","42","020",,"7",,,,,,,,,,,,,,,,,,,,,,,,,,,,,,,,,,,,,"SYN08674486 11208 80206 10056 20050 39989 40001 56007 69937 761// 92051 333 96010 555 90621=","FM-12","4",,,,,,,,,,,,,,,,,,,,,,,,,,,,"2009-05-01"
"74486094789","2020-02-06T16:51:00","FM-15","7",,"ESE","1.5","mi","TEMP, PRECIP, SNOW",,,"PSY, SRG, SNOWBOARD",,,"FAA CWO",,,,,,,,,,,,,,,,,,,,,,,,,,,"29.52","40","41","0.01","-RA:02 BR:1 |s RA s |RA s",,,"96","29.52","OVC:08 4","29.49","0.50","41","020",,"8",,,,,,,,,,,,,,,,,,,,,,,,,,,,,,,,,,,,,"MET13702/06/20 16:51:02 METAR KJFK 062151Z 02007KT 1/2SM R04R/P6000FT -RA BR OVC004 05/04 A2952 RMK AO2 SFC VIS 4 SLP995 P0001 T00500044 $ (RR)","FM-15","7",,,,,,,,,,,,,,,,,,,,,,,,,,,,"2009-05-01"
"74486094789","2020-02-06T17:51:00","FM-15","7",,"ESE","1.5","mi","TEMP, PRECIP, SNOW",,,"PSY, SRG, SNOWBOARD",,,"FAA CWO",,,,,,,,,,,,,,,,,,,,,,,,,,,"29.49","39","40","0.03","-RA:02 BR:1 |s RA s |RA s",,,"97","29.49","OVC:08 4","29.47","0.50","40","050",,"9",,,,,,,,,,,,,,,,,,,,,,,,,,,,,,,,,,,,,"MET14402/06/20 17:51:02 METAR KJFK 062251Z 05008KT 1/2SM R04R/P6000FT -RA BR OVC004 04/04 A2949 RMK AO2 SFC VIS 5 PRESFR SLP987 P0002 T00440039 $ (RR)","FM-15","7",,,,,,,,,,,,,,,,,,,,,,,,,,,,"2009-05-01"
"74486094789","2020-02-06T18:38:00","FM-16","7",,"ESE","1.5","mi","TEMP, PRECIP, SNOW",,,"PSY, SRG, SNOWBOARD",,,"FAA CWO",,,,,,,,,,,,,,,,,,,,,,,,,,,"29.48","38","40","0.01","-RA:02 |RA |RA",,,"93",,"OVC:08 4","29.46","2.00","39","020",,"8",,,,,,,,,,,,,,,,,,,,,,,,,,,,,,,,,,,,,"MET12102/06/20 18:38:02 SPECI KJFK 062338Z 02007KT 2SM -RA OVC004 04/03 A2948 RMK AO2 SFC VIS 7 RAE12B38 P0001 T00440033 $ (RR)","FM-16","7",,,,,,,,,,,,,,,,,,,,,,,,,,,,"2009-05-01"
"74486094789","2020-02-06T18:51:00","FM-15","7",,"ESE","1.5","mi","TEMP, PRECIP, SNOW",,,"PSY, SRG, SNOWBOARD",,,"FAA CWO",,,,,,,,,,,,,,,,,,,,,,,,,,,"29.49","38","40","T","-RA:02 |RA |RA","+0.05","6","93","29.49","OVC:08 4","29.47","2.00","39","020",,"9",,,,,,,,,,,,,,,,,,,,,,,,,,,,,,,,,,,,,"MET15202/06/20 18:51:02 METAR KJFK 062351Z 02008KT 2SM -RA OVC004 04/03 A2949 RMK AO2 SFC VIS 8 RAE12B38 SLP985 P0001 60005 T00440033 10061 20044 56016 $ (RR)","FM-15","7",,,,,,,,,,,,,,,,,,,,,,,,,,,,"2009-05-01"
"74486094789","2020-02-06T19:00:00","FM-12","4",,"ESE","1.5","mi","TEMP, PRECIP, SNOW",,,"PSY, SRG, SNOWBOARD",,,"FAA CWO",,,,,,,,,,,,,,,,,,,,,,,,,,,,"38","40",,"||RA","+0.05","6","93","29.49","5","29.46","1.99","39","020",,"9",,,,,,,,,,,,,,,,,,,,,,,,,,,,,,,,,,,,,"SYN09274486 11232 80208 10044 20033 39975 49985 56016 60011 761// 92351 333 10061 20028 555 90700=","FM-12","4",,,,,,,,,,,,,,,,,,,,,,,,,,,,"2009-05-01"
"74486094789","2020-02-06T19:16:00","FM-16","7",,"ESE","1.5","mi","TEMP, PRECIP, SNOW",,,"PSY, SRG, SNOWBOARD",,,"FAA CWO",,,,,,,,,,,,,,,,,,,,,,,,,,,"29.51","38","39","T","-RA:02 |RA |RA",,,"96",,"OVC:08 5","29.49","2.00","39","360",,"7",,,,,,,,,,,,,,,,,,,,,,,,,,,,,,,,,,,,,"MET10702/06/20 19:16:01 SPECI KJFK 070016Z 36006KT 2SM -RA OVC005 04/03 A2951 RMK AO2 SFC VIS 9 P0000 T00390033 $","FM-16","7",,,,,,,,,,,,,,,,,,,,,,,,,,,,"2009-05-01"
"74486094789","2020-02-06T19:46:00","FM-16","7",,"ESE","1.5","mi","TEMP, PRECIP, SNOW",,,"PSY, SRG, SNOWBOARD",,,"FAA CWO",,,,,,,,,,,,,,,,,,,,,,,,,,,"29.50","37","39","T","-RA:02 |RA |RA",,,"93",,"OVC:08 5","29.48","3.00","38","030",,"9",,,,,,,,,,,,,,,,,,,,,,,,,,,,,,,,,,,,,"MET09702/06/20 19:46:01 SPECI KJFK 070046Z 03008KT 3SM -RA OVC005 04/03 A2950 RMK AO2 SFC VIS 9 P0000 $","FM-16","7",,,,,,,,,,,,,,,,,,,,,,,,,,,,"2009-05-01"
"74486094789","2020-02-06T19:51:00","FM-15","7",,"ESE","1.5","mi","TEMP, PRECIP, SNOW",,,"PSY, SRG, SNOWBOARD",,,"FAA CWO",,,,,,,,,,,,,,,,,,,,,,,,,,,"29.49","38","39","T","-RA:02 |RA |RA",,,"96","29.49","OVC:08 5","29.47","3.00","39","030",,"10",,,,,,,,,,,,,,,,,,,,,,,,,,,,,,,,,,,,,"MET11402/06/20 19:51:01 METAR KJFK 070051Z 03009KT 3SM -RA OVC005 04/03 A2949 RMK AO2 SFC VIS 9 SLP986 P0000 T00390033 $","FM-15","7",,,,,,,,,,,,,,,,,,,,,,,,,,,,"2009-05-01"
"74486094789","2020-02-06T20:51:00","FM-15","7",,"ESE","1.5","mi","TEMP, PRECIP, SNOW",,,"PSY, SRG, SNOWBOARD",,,"FAA CWO",,,,,,,,,,,,,,,,,,,,,,,,,,,"29.48","37","38","T","BR:1 ||",,,"97","29.48","OVC:08 5","29.46","3.00","38","050",,"7",,,,,,,,,,,,,,,,,,,,,,,,,,,,,,,,,,,,,"MET11902/06/20 20:51:01 METAR KJFK 070151Z 05006KT 3SM BR OVC005 03/03 A2948 RMK AO2 SFC VIS 6 RAE21 SLP982 P0000 T00330028 $","FM-15","7",,,,,,,,,,,,,,,,,,,,,,,,,,,,"2009-05-01"
"74486094789","2020-02-06T21:40:00","FM-16","7",,"ESE","1.5","mi","TEMP, PRECIP, SNOW",,,"PSY, SRG, SNOWBOARD",,,"FAA CWO",,,,,,,,,,,,,,,,,,,,,,,,,,,"29.45","38","39","T","-RA:02 BR:1 |RA |RA",,,"96",,"OVC:08 4","29.43","2.00","39","080",,"8",,,,,,,,,,,,,,,,,,,,,,,,,,,,,,,,,,,,,"MET12302/06/20 21:40:01 SPECI KJFK 070240Z 08007KT 2SM -RA BR OVC004 04/03 A2945 RMK AO2 SFC VIS 5 RAB32 PRESFR P0000 T00390033 $","FM-16","7",,,,,,,,,,,,,,,,,,,,,,,,,,,,"2009-05-01"
"74486094789","2020-02-06T21:51:00","FM-15","7",,"ESE","1.5","mi","TEMP, PRECIP, SNOW",,,"PSY, SRG, SNOWBOARD",,,"FAA CWO",,,,,,,,,,,,,,,,,,,,,,,,,,,"29.41","37","39","T","BR:1 ||","+0.07","8","93","29.41","OVC:08 4","29.39","2.00","38","090",,"11",,,,,,,,,,,,,,,,,,,,,,,,,,,,,,,,,,,,,"MET14102/06/20 21:51:01 METAR KJFK 070251Z 09010KT 2SM BR OVC004 04/03 A2941 RMK AO2 SFC VIS 5 RAB32E49 PRESFR SLP960 P0000 60000 T00390028 58025 $","FM-15","7",,,,,,,,,,,,,,,,,,,,,,,,,,,,"2009-05-01"
"74486094789","2020-02-06T22:00:00","FM-12","4",,"ESE","1.5","mi","TEMP, PRECIP, SNOW",,,"PSY, SRG, SNOWBOARD",,,"FAA CWO",,,,,,,,,,,,,,,,,,,,,,,,,,,,"37","39",,,"+0.07","8","93","29.41","5","29.38","1.99","38","090",,"11",,,,,,,,,,,,,,,,,,,,,,,,,,,,,,,,,,,,,"SYN07674486 11232 80910 10039 20028 39948 49960 58025 69907 710// 90251 555 90703=","FM-12","4",,,,,,,,,,,,,,,,,,,,,,,,,,,,"2009-05-01"
"74486094789","2020-02-06T22:49:00","FM-16","6",,"ESE","1.5","mi","TEMP, PRECIP, SNOW",,,"PSY, SRG, SNOWBOARD",,,"FAA CWO",,,,,,,,,,,,,,,,,,,,,,,,,,,"29.44","37","39",,,,,"93",,"OVC:08 5","29.41","2.00","38","000",,"0",,,,,,,,,,,,,,,,,,,,,,,,,,,,,,,,,,,,,"MET09702/06/20 22:49:03 SPECI KJFK 070349Z 00000KT 2SM OVC005 04/03 A2944 RMK AO2 SFC VIS 7 $ FIBI (RR)","FM-16","6",,,,,,,,,,,,,,,,,,,,,,,,,,,,"2009-05-01"
"74486094789","2020-02-06T22:51:00","FM-15","7",,"ESE","1.5","mi","TEMP, PRECIP, SNOW",,,"PSY, SRG, SNOWBOARD",,,"FAA CWO",,,,,,,,,,,,,,,,,,,,,,,,,,,"29.44","38","40","0.00",,,,"93","29.44","OVC:08 5","29.41","2.00","39","000",,"0",,,,,,,,,,,,,,,,,,,,,,,,,,,,,,,,,,,,,"MET10402/06/20 22:51:01 METAR KJFK 070351Z 00000KT 2SM OVC005 04/03 A2944 RMK AO2 SFC VIS 7 SLP970 T00440033 $","FM-15","7",,,,,,,,,,,,,,,,,,,,,,,,,,,,"2009-05-01"
"74486094789","2020-02-06T23:51:00","FM-15","7",,"ESE","1.5","mi","TEMP, PRECIP, SNOW",,,"PSY, SRG, SNOWBOARD",,,"FAA CWO",,,,,,,,,,,,,,,,,,,,,,,,,,,"29.44","38","40","T","-RA:02 BR:1 |RA |RA",,,"93","29.44","OVC:08 5","29.41","2.50","39","350",,"8",,,,,,,,,,,,,,,,,,,,,,,,,,,,,,,,,,,,,"MET13702/06/20 23:51:02 METAR KJFK 070451Z 35007KT 2 1/2SM -RA BR OVC005 04/03 A2944 RMK AO2 SFC VIS 4 RAB42 SLP969 P0000 T00440033 400610028 $","FM-15","7",,,,,,,,,,,,,,,,,,,,,,,,,,,,"2009-05-01"
"74486094789","2020-02-06T23:59:00","SOD  ","6",,"ESE","1.5","mi","TEMP, PRECIP, SNOW",,,"PSY, SRG, SNOWBOARD",,,"FAA CWO",,,,"39","40","95","29.62","29.65","40","8.0","0","6.4","25","43","37","110","24","0.70","0","0.0","100","21","RA DZ BR",,,,,,,,,,,,,,,,,,,,,,,,,,,,,,,,,,,,,,,,,,,,,,,,,,,,,,,,"SOD78024 HR PRECIPITATION (IN): 0.70 SNOW DEPTH (IN):0     24 HR SNOWFALL (IN):0.0  WEATHER(CODE):1  24 HR MAX TEMP (F): 4324 HR MIN TEMP (F): 37AVERAGE STATION PRESSURE:29.650 MINIMUM SEA LEVEL PRESSURE:29.36 TIME OF OCCURRENCE:2205 PEAK WIND SPEED (MPH): 24 PEAK WIND DIR (DEG):110 PEAK WIND TIME (LST):      FASTEST 2MIN SPEED (MPH): 21FASTEST 2MIN DIR (DEG):100 FASTEST 2MIN TIME (LST):     AVERAGE WIND SPEED (MPH): 8.0 24 HR AVG TEMP (F): 40DEPART FROM NORMAL:  6  SKY COVER SR-SS (TENTHS): 1HEATING DEGREE DAYS: 25 COOLING DEGREE DAYS:  0 LATEST DAY MAX TEMP (0700-1900 LST):43  LATEST NIGHT MIN TEMP(1900-0800 LST):37 HOURLY INCREMENTAL PRECIPITATION VALUES (IN):.05 0.18 0.20 0.11 0.04 0.02 0.04 0.01 T    T    T    T    0.01 T    T    T    0.01 0.03 T    T    T    T    0.00 T","SOD  ","6",,,,,,,,,,,,,,,,,,,,,,,,,"0700","1719",,"2009-05-01"
"74486094789","2020-02-07T00:12:00","FM-16","7",,"ESE","1.5","mi","TEMP, PRECIP, SNOW",,,"PSY, SRG, SNOWBOARD",,,"FAA CWO",,,,,,,,,,,,,,,,,,,,,,,,,,,"29.42","39","40","T","-RA:02 BR:1 |RA |RA",,,"97",,"OVC:08 4","29.39","2.50","40","020",,"7",,,,,,,,,,,,,,,,,,,,,,,,,,,,,,,,,,,,,"MET10902/07/20 00:12:02 SPECI KJFK 070512Z 02006KT 2 1/2SM -RA BR OVC004 04/04 A2942 RMK AO2 P0000 T00440039 $ (JC)","FM-16","7",,,,,,,,,,,,,,,,,,,,,,,,,,,,"2009-05-01"
"74486094789","2020-02-07T00:51:00","FM-15","7",,"ESE","1.5","mi","TEMP, PRECIP, SNOW",,,"PSY, SRG, SNOWBOARD",,,"FAA CWO",,,,,,,,,,,,,,,,,,,,,,,,,,,"29.39","38","39","0.02s","-RA:02 BR:1 |RA |RA","+0.02","8","96","29.39","OVC:08 4","29.36","2.00","39","030",,"7",,,,,,,,,,,,,,,,,,,,,,,,,,,,,,,,,,,,,"MET15702/07/20 00:51:02 METAR KJFK 070551Z 03006KT 2SM -RA BR OVC004 04/03 A2939 RMK AO2 SFC VIS 2 1/2 PRESFR SLP952 P0001 60001 T00390033 10044 20033 58007 $ (JC)","FM-15","7",,,,,,,,,,,,,,,,,,,,,,,,,,,,"2009-05-01"
"74486094789","2020-02-07T01:00:00","FM-12","4",,"ESE","1.5","mi","TEMP, PRECIP, SNOW",,,"PSY, SRG, SNOWBOARD",,,"FAA CWO",,,,,,,,,,,,,,,,,,,,,,,,,,,,"38","39",,"||RA","+0.02","8","96","29.39","5","29.36","1.99","39","030",,"7",,,,,,,,,,,,,,,,,,,,,,,,,,,,,,,,,,,,,"SYN09874486 11232 80306 10039 20033 39941 49952 58007 69931 761// 90551 333 10056 20028 96010 555 90706=","FM-12","4",,,,,,,,,,,,,,,,,,,,,,,,,,,,"2009-05-01"
"74486094789","2020-02-07T01:51:00","FM-15","7",,"ESE","1.5","mi","TEMP, PRECIP, SNOW",,,"PSY, SRG, SNOWBOARD",,,"FAA CWO",,,,,,,,,,,,,,,,,,,,,,,,,,,"29.38","38","39","0.03","-RA:02 BR:1 |RA |RA",,,"96","29.38","OVC:08 4","29.36","2.00","39","010",,"8",,,,,,,,,,,,,,,,,,,,,,,,,,,,,,,,,,,,,"MET12202/07/20 01:51:02 METAR KJFK 070651Z 01007KT 2SM -RA BR OVC004 04/03 A2938 RMK AO2 SFC VIS 3 SLP950 P0003 T00390033 $ (JC)","FM-15","7",,,,,,,,,,,,,,,,,,,,,,,,,,,,"2009-05-01"
"74486094789","2020-02-07T02:51:00","FM-15","7",,"ESE","1.5","mi","TEMP, PRECIP, SNOW",,,"PSY, SRG, SNOWBOARD",,,"FAA CWO",,,,,,,,,,,,,,,,,,,,,,,,,,,"29.36","38","39","0.03","-RA:02 BR:1 |RA |RA",,,"96","29.36","OVC:08 4","29.34","2.00","39","060",,"7",,,,,,,,,,,,,,,,,,,,,,,,,,,,,,,,,,,,,"MET12202/07/20 02:51:02 METAR KJFK 070751Z 06006KT 2SM -RA BR OVC004 04/03 A2936 RMK AO2 SFC VIS 4 SLP941 P0004 T00390033 $ (JC)","FM-15","7",,,,,,,,,,,,,,,,,,,,,,,,,,,,"2009-05-01"
"74486094789","2020-02-07T03:51:00","FM-15","7",,"ESE","1.5","mi","TEMP, PRECIP, SNOW",,,"PSY, SRG, SNOWBOARD",,,"FAA CWO",,,,,,,,,,,,,,,,,,,,,,,,,,,"29.31","39","40","0.04","-RA:02 BR:1 |RA |RA","+0.08","8","97","29.31","OVC:08 4","29.28","2.00","40","070",,"9",,,,,,,,,,,,,,,,,,,,,,,,,,,,,,,,,,,,,"MET14102/07/20 03:51:02 METAR KJFK 070851Z 07008KT 2SM -RA BR OVC004 04/04 A2931 RMK AO2 SFC VIS 5 PRESFR SLP924 P0004 60011 T00440039 58028 $ (JC)","FM-15","7",,,,,,,,,,,,,,,,,,,,,,,,,,,,"2009-05-01"
"74486094789","2020-02-07T04:00:00","FM-12","4",,"ESE","1.5","mi","TEMP, PRECIP, SNOW",,,"PSY, SRG, SNOWBOARD",,,"FAA CWO",,,,,,,,,,,,,,,,,,,,,,,,,,,,"39","40",,"||RA","+0.08","8","97","29.31","5","29.28","1.99","40","070",,"9",,,,,,,,,,,,,,,,,,,,,,,,,,,,,,,,,,,,,"SYN08674486 11232 80708 10044 20039 39914 49924 58028 60037 761// 90851 333 96010 555 90709=","FM-12","4",,,,,,,,,,,,,,,,,,,,,,,,,,,,"2009-05-01"
"74486094789","2020-02-07T04:29:00","FM-16","7",,"ESE","1.5","mi","TEMP, PRECIP, SNOW",,,"PSY, SRG, SNOWBOARD",,,"FAA CWO",,,,,,,,,,,,,,,,,,,,,,,,,,,"29.26","39","40","T","-RA:02 BR:1 |RA |RA",,,"97",,"OVC:08 3","29.23","0.75","40","090",,"10",,,,,,,,,,,,,,,,,,,,,,,,,,,,,,,,,,,,,"MET13002/07/20 04:29:02 SPECI KJFK 070929Z 09009KT 3/4SM R04R/P6000FT -RA BR OVC003 04/04 A2926 RMK AO2 SFC VIS 5 P0000 T00440039 $ (JC)","FM-16","7",,,,,,,,,,,,,,,,,,,,,,,,,,,,"2009-05-01"
"74486094789","2020-02-07T04:51:00","FM-15","7",,"ESE","1.5","mi","TEMP, PRECIP, SNOW",,,"PSY, SRG, SNOWBOARD",,,"FAA CWO",,,,,,,,,,,,,,,,,,,,,,,,,,,"29.25","40","41","T","BR:1 ||",,,"96","29.25","OVC:08 3","29.23","0.75","41","090",,"10",,,,,,,,,,,,,,,,,,,,,,,,,,,,,,,,,,,,,"MET13902/07/20 04:51:02 METAR KJFK 070951Z 09009KT 3/4SM R04R/P6000FT BR OVC003 05/04 A2925 RMK AO2 SFC VIS 5 RAE33 SLP904 P0000 T00500044 $ (JC)","FM-15","7",,,,,,,,,,,,,,,,,,,,,,,,,,,,"2009-05-01"
"74486094789","2020-02-07T05:51:00","FM-15","7",,"ESE","1.5","mi","TEMP, PRECIP, SNOW",,,"PSY, SRG, SNOWBOARD",,,"FAA CWO",,,,,,,,,,,,,,,,,,,,,,,,,,,"29.17","41","42","T","-DZ:01 BR:1 |DZ |DZ",,,"96","29.17","OVC:08 2","29.15","0.75","42","070",,"9",,,,,,,,,,,,,,,,,,,,,,,,,,,,,,,,,,,,,"MET15102/07/20 05:51:02 METAR KJFK 071051Z 07008KT 3/4SM R04R/5000V6000FT -DZ BR OVC002 06/05 A2917 RMK AO2 SFC VIS 1 1/4 DZB42 SLP877 P0000 T00560050 $ (JC)","FM-15","7",,,,,,,,,,,,,,,,,,,,,,,,,,,,"2009-05-01"
"74486094789","2020-02-07T06:51:00","FM-15","7",,"ESE","1.5","mi","TEMP, PRECIP, SNOW",,,"PSY, SRG, SNOWBOARD",,,"FAA CWO",,,,,,,,,,,,,,,,,,,,,,,,,,,"29.12","42","42","0.01","-DZ:01 BR:1 |s DZ s |DZ s","+0.19","6","100","29.12","VV:09 2","29.10","0.25","42","060",,"7",,,,,,,,,,,,,,,,,,,,,,,,,,,,,,,,,,,,,"MET17202/07/20 06:51:02 METAR KJFK 071151Z 06006KT 1/4SM R04R/2600V3500FT -DZ BR VV002 06/06 A2912 RMK AO2 SFC VIS 3/4 SLP860 P0001 60012 70019 T00560056 10056 20039 56064 $ (BH)","FM-15","7",,,,,,,,,,,,,,,,,,,,,,,,,,,,"2009-05-01"
"74486094789","2020-02-07T07:00:00","FM-12","4",,"ESE","1.5","mi","TEMP, PRECIP, SNOW",,,"PSY, SRG, SNOWBOARD",,,"FAA CWO",,,,,,,,,,,,,,,,,,,,,,,,,,,,"42","42",,"||DZ","+0.19","6","100","29.12",,"29.09","0.25","42","060",,"7",,,,,,,,,,,,,,,,,,,,,,,,,,,,,,,,,,,,,"SYN10474486 11104 /0606 10056 20056 39850 49860 56064 60031 751// 91151 333 10061 20033 70048 96010 555 90712=","FM-12","4",,,,,,,,,,,,,,,,,,,,,,,,,,,,"2009-05-01"
"74486094789","2020-02-07T07:51:00","FM-15","7",,"ESE","1.5","mi","TEMP, PRECIP, SNOW",,,"PSY, SRG, SNOWBOARD",,,"FAA CWO",,,,,,,,,,,,,,,,,,,,,,,,,,,"29.08","43","43","0.02","-DZ:01 BR:1 |s DZ s |DZ s",,,"100","29.08","VV:09 2","29.05","0.25","43","040",,"8",,,,,,,,,,,,,,,,,,,,,,,,,,,,,,,,,,,,,"MET14202/07/20 07:51:02 METAR KJFK 071251Z 04007KT 1/4SM R04R/2800V5500FT -DZ BR VV002 06/06 A2908 RMK AO2 SFC VIS 3/4 SLP847 P0002 T00610061 $ (BH)","FM-15","7",,,,,,,,,,,,,,,,,,,,,,,,,,,,"2009-05-01"
"74486094789","2020-02-07T08:51:00","FM-15","7",,"ESE","1.5","mi","TEMP, PRECIP, SNOW",,,"PSY, SRG, SNOWBOARD",,,"FAA CWO",,,,,,,,,,,,,,,,,,,,,,,,,,,"29.04","44","45","0.02","-RA:02 FG:2 |FG RA |RA",,,"97","29.03","VV:09 2","29.02","0.25","45","090",,"5",,,,,,,,,,,,,,,,,,,,,,,,,,,,,,,,,,,,,"MET15802/07/20 08:51:02 METAR KJFK 071351Z 09004KT 1/4SM R04R/2000V3500FT -RA FG VV002 07/07 A2904 RMK AO2 SFC VIS 1/2 DZE43RAB43 PRESFR SLP832 P0001 T00720067 (BH)","FM-15","7",,,,,,,,,,,,,,,,,,,,,,,,,,,,"2009-05-01"
"74486094789","2020-02-07T09:02:00","FM-16","7",,"ESE","1.5","mi","TEMP, PRECIP, SNOW",,,"PSY, SRG, SNOWBOARD",,,"FAA CWO",,,,,,,,,,,,,,,,,,,,,,,,,,,"29.02","45","45","0.02","-RA:02 BR:1 |s RA s |RA s",,,"100",,"VV:09 3","29.00","0.25","45","100",,"6",,,,,,,,,,,,,,,,,,,,,,,,,,,,,,,,,,,,,"MET14002/07/20 09:02:02 SPECI KJFK 071402Z 10005KT 1/4SM R04R/1600V2000FT -RA BR VV003 07/07 A2902 RMK AO2 SFC VIS 3/4 PRESFR P0002 T00720072 (BH)","FM-16","7",,,,,,,,,,,,,,,,,,,,,,,,,,,,"2009-05-01"
"74486094789","2020-02-07T09:12:00","FM-16","7",,"ESE","1.5","mi","TEMP, PRECIP, SNOW",,,"PSY, SRG, SNOWBOARD",,,"FAA CWO",,,,,,,,,,,,,,,,,,,,,,,,,,,"29.00","46","46","0.03","-RA:02 FG:2 |FG RA |RA",,,"100",,"VV:09 3","28.97","0.25","46","110",,"8",,,,,,,,,,,,,,,,,,,,,,,,,,,,,,,,,,,,,"MET14002/07/20 09:12:02 SPECI KJFK 071412Z 11007KT 1/4SM R04R/1600V2400FT -RA FG VV003 08/08 A2900 RMK AO2 SFC VIS 1/2 PRESFR P0003 T00780078 (BH)","FM-16","7",,,,,,,,,,,,,,,,,,,,,,,,,,,,"2009-05-01"
"74486094789","2020-02-07T09:51:00","FM-15","7",,"ESE","1.5","mi","TEMP, PRECIP, SNOW",,,"PSY, SRG, SNOWBOARD",,,"FAA CWO",,,,,,,,,,,,,,,,,,,,,,,,,,,"28.96","49","49","0.06","-RA:02 BR:1 |s RA s |RA s","+0.16","8","100","28.96","X:10 0 OVC:08 3","28.94","0.25","49","160",,"8",,,,,,,,,,,,,,,,,,,,,,,,,,,,,,,,,,,,,"MET17902/07/20 09:51:02 METAR KJFK 071451Z 16007KT 1/4SM R04R/4500VP6000FT -RA BR SCT000 OVC003 09/09 A2896 RMK AO2 SFC VIS 1 SLP807 WRM FROPA BR SCT000 P0006 60009 T00940094 58053 (BH)","FM-15","7",,,,,,,,,,,,,,,,,,,,,,,,,,,,"2009-05-01"
"74486094789","2020-02-07T10:00:00","FM-12","4",,"ESE","1.5","mi","TEMP, PRECIP, SNOW",,,"PSY, SRG, SNOWBOARD",,,"FAA CWO",,,,,,,,,,,,,,,,,,,,,,,,,,,,"49","49",,"||RA","+0.16","8","100","28.96","2","28.93","0.25","49","160",,"8",,,,,,,,,,,,,,,,,,,,,,,,,,,,,,,,,,,,,"SYN08674486 11104 81607 10094 20094 39796 49807 58053 60027 761// 91451 333 96010 555 90715=","FM-12","4",,,,,,,,,,,,,,,,,,,,,,,,,,,,"2009-05-01"
"74486094789","2020-02-07T10:49:00","FM-16","6",,"ESE","1.5","mi","TEMP, PRECIP, SNOW",,,"PSY, SRG, SNOWBOARD",,,"FAA CWO",,,,,,,,,,,,,,,,,,,,,,,,,,,"28.88","52","52",,"BR:1 |s |",,,"100",,"X:10 0 OVC:08 2","28.86","0.12","52","180","34","29",,,,,,,,,,,,,,,,,,,,,,,,,,,,,,,,,,,,,"MET17102/07/20 10:49:02 SPECI KJFK 071549Z 18025G30KT 1/8SM R04R/4000V4500FT BR FEW000 OVC002 11/11 A2888 RMK AO2 PK WND 18030/1549 SFC VIS 1 1/2 RAE18 BR FEW000 P0003 FIBI (BH)","FM-16","6",,,,,,,,,,,,,,,,,,,,,,,,,,,,"2009-05-01"
"74486094789","2020-02-07T10:51:00","FM-15","7",,"ESE","1.5","mi","TEMP, PRECIP, SNOW",,,"PSY, SRG, SNOWBOARD",,,"FAA CWO",,,,,,,,,,,,,,,,,,,,,,,,,,,"28.88","51","51","0.02","BR:1 |s |",,,"100","28.88","X:10 0 OVC:08 2","28.86","0.12","51","180","36","31",,,,,,,,,,,,,,,,,,,,,,,,,,,,,,,,,,,,,"MET19002/07/20 10:51:02 METAR KJFK 071551Z 18027G31KT 1/8SM R04R/4000V4500FT BR FEW000 OVC002 11/11 A2888 RMK AO2 PK WND 18031/1551 SFC VIS 1 1/2 RAE18 PRESFR SLP780 BR FEW000 P0003 T01060106 (BH)","FM-15","7",,,,,,,,,,,,,,,,,,,,,,,,,,,,"2009-05-01"
"74486094789","2020-02-07T11:15:00","FM-16","7",,"ESE","1.5","mi","TEMP, PRECIP, SNOW",,,"PSY, SRG, SNOWBOARD",,,"FAA CWO",,,,,,,,,,,,,,,,,,,,,,,,,,,"28.84","52","52",,"BR:1 |s |",,,"100",,"BKN:07 2 BKN:07 22 BKN:07 50","28.82","0.25","52","180","39","29",,,,,,,,,,,,,,,,,,,,,,,,,,,,,,,,,,,,,"MET16002/07/20 11:15:02 SPECI KJFK 071615Z 18025G34KT 1/4SM R04R/P6000FT BR BKN002 BKN022 BKN050 11/11 A2884 RMK AO2 PK WND 18034/1559 SFC VIS 5 PRESFR T01110111 (BH)","FM-16","7",,,,,,,,,,,,,,,,,,,,,,,,,,,,"2009-05-01"
"74486094789","2020-02-07T11:51:00","FM-15","7",,"ESE","1.5","mi","TEMP, PRECIP, SNOW",,,"PSY, SRG, SNOWBOARD",,,"FAA CWO",,,,,,,,,,,,,,,,,,,,,,,,,,,"28.85","50","50","0.03","-RA:02 BR:1 |RA |RA",,,"100",,"BKN:07 3 BKN:07 17 OVC:08 46","28.83","6.00","50","200","44","36",,,,,,,,,,,,,,,,,,,,,,,,,,,,,,,,,,,,,"MET17102/07/20 11:51:02 METAR KJFK 071651Z 20031G38KT 6SM R04R/3000VP6000FT -RA BR BKN003 BKN017 OVC046 10/10 A2885 RMK AO2 PK WND 19038/1645 RAB41 SLP769 P0001 T01000100 $ (BH)","FM-15","7",,,,,,,,,,,,,,,,,,,,,,,,,,,,"2009-05-01"
"74486094789","2020-02-07T11:58:00","FM-16","7",,"ESE","1.5","mi","TEMP, PRECIP, SNOW",,,"PSY, SRG, SNOWBOARD",,,"FAA CWO",,,,,,,,,,,,,,,,,,,,,,,,,,,,"50","51","0.02","|RA |RA",,,"96",,"FEW:02 5 BKN:07 27 BKN:07 60","28.81","9.00","50","210","44","28",,,,,,,,,,,,,,,,,,,,,,,,,,,,,,,,,,,,,"MET13702/07/20 11:58:02 SPECI KJFK 071658Z 21024G38KT 9SM -RA FEW005 BKN027 BKN060 11/10 A2883 RMK AO2 PK WND 21037/1652 P0002 T01060100 $ (BH)","FM-16","7",,,,,,,,,,,,,,,,,,,,,,,,,,,,"2009-05-01"
"74486094789","2020-02-07T12:22:00","FM-16","7",,"ESE","1.5","mi","TEMP, PRECIP, SNOW",,,"PSY, SRG, SNOWBOARD",,,"FAA CWO",,,,,,,,,,,,,,,,,,,,,,,,,,,"28.83","49","53","0.02",,,,"86",,"SCT:04 24 BKN:07 90 BKN:07 170","28.81","10.00","51","230","36","26",,,,,,,,,,,,,,,,,,,,,,,,,,,,,,,,,,,,,"MET14002/07/20 12:22:02 SPECI KJFK 071722Z 23023G31KT 10SM SCT024 BKN090 BKN170 12/09 A2883 RMK AO2 PK WND 21037/1652 RAE08 P0002 T01170094 $ (BH)","FM-16","7",,,,,,,,,,,,,,,,,,,,,,,,,,,,"2009-05-01"
"74486094789","2020-02-07T12:51:00","FM-15","7",,"ESE","1.5","mi","TEMP, PRECIP, SNOW",,,"PSY, SRG, SNOWBOARD",,,"FAA CWO",,,,,,,,,,,,,,,,,,,,,,,,,,,"28.87","47","53","T",,"+0.09","5","80","28.87","SCT:04 25 BKN:07 32 BKN:07 110","28.84","10.00","50","240","49","40",,,,,,,,,,,,,,,,,,,,,,,,,,,,,,,,,,,,,"MET18402/07/20 12:51:02 METAR KJFK 071751Z 24035G43KT 10SM SCT025 BKN032 BKN110 12/08 A2887 RMK AO2 PK WND 24043/1747 RAE08B30E37 PRESRR SLP778 P0002 60015 T01170083 10122 20056 55029 $ (BH)","FM-15","7",,,,,,,,,,,,,,,,,,,,,,,,,,,,"2009-05-01"
"74486094789","2020-02-07T13:00:00","FM-12","4",,"ESE","1.5","mi","TEMP, PRECIP, SNOW",,,"PSY, SRG, SNOWBOARD",,,"FAA CWO",,,,,,,,,,,,,,,,,,,,,,,,,,,,"47","53",,,"+0.09","5","80","28.87","26","28.84","9.94","50","240",,"40",,,,,,,,,,,,,,,,,,,,,,,,,,,,,,,,,,,,,"SYN09274486 12566 62435 10117 20083 39765 49778 55029 60041 91751 333 10122 20044 91043 555 90718=","FM-12","4",,,,,,,,,,,,,,,,,,,,,,,,,,,,"2009-05-01"
"74486094789","2020-02-07T13:51:00","FM-15","7",,"ESE","1.5","mi","TEMP, PRECIP, SNOW",,,"PSY, SRG, SNOWBOARD",,,"FAA CWO",,,,,,,,,,,,,,,,,,,,,,,,,,,"28.99","41","49","T",,,,"74","28.99","SCT:04 29 BKN:07 47 BKN:07 70","28.97","10.00","45","260","47","33",,,,,,,,,,,,,,,,,,,,,,,,,,,,,,,,,,,,,"MET15702/07/20 13:51:02 METAR KJFK 071851Z 26029G41KT 10SM SCT029 BKN047 BKN070 09/05 A2899 RMK AO2 PK WND 25051/1810 RAB30E51 PRESRR SLP817 P0000 T00940050 $ (BH)","FM-15","7",,,,,,,,,,,,,,,,,,,,,,,,,,,,"2009-05-01"
"74486094789","2020-02-07T14:34:00","FM-16","7",,"ESE","1.5","mi","TEMP, PRECIP, SNOW",,,"PSY, SRG, SNOWBOARD",,,"FAA CWO",,,,,,,,,,,,,,,,,,,,,,,,,,,"29.08","36","46",,,,,"68",,"SCT:04 28 BKN:07 60 BKN:07 75","29.05","10.00","42","260","51","38",,,,,,,,,,,,,,,,,,,,,,,,,,,,,,,,,,,,,"MET14202/07/20 14:34:02 SPECI KJFK 071934Z 26033G44KT 10SM SCT028 BKN060 BKN075 08/02 A2908 RMK AO2 PK WND 27049/1923 PRESRR VCSH W T00780022 $ (RR)","FM-16","7",,,,,,,,,,,,,,,,,,,,,,,,,,,,"2009-05-01"
"74486094789","2020-02-07T14:51:00","FM-15","7",,"ESE","1.5","mi","TEMP, PRECIP, SNOW",,,"PSY, SRG, SNOWBOARD",,,"FAA CWO",,,,,,,,,,,,,,,,,,,,,,,,,,,"29.10","35","44","T","-RA:02 |RA |RA",,,"71","29.10","SCT:04 28 BKN:07 55 BKN:07 80","29.08","10.00","40","270","46","32",,,,,,,,,,,,,,,,,,,,,,,,,,,,,,,,,,,,,"MET15802/07/20 14:51:02 METAR KJFK 071951Z 27028G40KT 10SM -RA SCT028 BKN055 BKN080 07/02 A2910 RMK AO2 PK WND 27049/1923 RAB44 PRESRR SLP855 P0000 T00670017 $ (RR)","FM-15","7",,,,,,,,,,,,,,,,,,,,,,,,,,,,"2009-05-01"
"74486094789","2020-02-07T15:51:00","FM-15","7",,"ESE","1.5","mi","TEMP, PRECIP, SNOW",,,"PSY, SRG, SNOWBOARD",,,"FAA CWO",,,,,,,,,,,,,,,,,,,,,,,,,,,"29.22","32","40","T",,"-0.35","3","73","29.22","SCT:04 24 BKN:07 30 BKN:07 45","29.20","10.00","37","270","43","32",,,,,,,,,,,,,,,,,,,,,,,,,,,,,,,,,,,,,"MET15902/07/20 15:51:02 METAR KJFK 072051Z 27028G37KT 10SM SCT024 BKN030 BKN045 04/00 A2922 RMK AO2 PK WND 27041/1958 RAE40 SLP896 P0000 60000 T00440000 53118 $ (RR)","FM-15","7",,,,,,,,,,,,,,,,,,,,,,,,,,,,"2009-05-01"
"74486094789","2020-02-07T16:00:00","FM-12","4",,"ESE","1.5","mi","TEMP, PRECIP, SNOW",,,"PSY, SRG, SNOWBOARD",,,"FAA CWO",,,,,,,,,,,,,,,,,,,,,,,,,,,,"32","40",,,"-0.35","3","73","29.22","26","29.19","9.94","37","270",,"32",,,,,,,,,,,,,,,,,,,,,,,,,,,,,,,,,,,,,"SYN08074486 12566 62728 10044 20000 39884 49896 53118 69907 92051 333 91037 555 90721=","FM-12","4",,,,,,,,,,,,,,,,,,,,,,,,,,,,"2009-05-01"
"74486094789","2020-02-07T16:51:00","FM-15","7",,"ESE","1.5","mi","TEMP, PRECIP, SNOW",,,"PSY, SRG, SNOWBOARD",,,"FAA CWO",,,,,,,,,,,,,,,,,,,,,,,,,,,"29.31","28","38","T",,,,"68","29.31","SCT:04 29 BKN:07 37 BKN:07 80","29.28","10.00","34","270","38","28",,,,,,,,,,,,,,,,,,,,,,,,,,,,,,,,,,,,,"MET17402/07/20 16:51:02 METAR KJFK 072151Z 27024G33KT 10SM SCT029 BKN037 BKN080 03/M02 A2931 RMK AO2 PK WND 27035/2118 RAB2057E12 PRESRR SLP925 VCSH E AND SW P0000 T00331022 $ (RR)","FM-15","7",,,,,,,,,,,,,,,,,,,,,,,,,,,,"2009-05-01"
"74486094789","2020-02-07T17:51:00","FM-15","7",,"ESE","1.5","mi","TEMP, PRECIP, SNOW",,,"PSY, SRG, SNOWBOARD",,,"FAA CWO",,,,,,,,,,,,,,,,,,,,,,,,,,,"29.39","21","37","0.00",,,,"52","29.39","SCT:04 37 BKN:07 55 BKN:07 90","29.36","10.00","31","270","48","34",,,,,,,,,,,,,,,,,,,,,,,,,,,,,,,,,,,,,"MET14302/07/20 17:51:02 METAR KJFK 072251Z 27030G42KT 10SM SCT037 BKN055 BKN090 03/M06 A2939 RMK AO2 PK WND 28042/2248 PRESRR SLP953 T00281061 $ (RR)","FM-15","7",,,,,,,,,,,,,,,,,,,,,,,,,,,,"2009-05-01"
"74486094789","2020-02-07T18:51:00","FM-15","7",,"ESE","1.5","mi","TEMP, PRECIP, SNOW",,,"PSY, SRG, SNOWBOARD",,,"FAA CWO",,,,,,,,,,,,,,,,,,,,,,,,,,,"29.46","23","36","0.00",,"-0.24","1","59","29.46","BKN:07 39","29.44","10.00","31","280","36","22",,,,,,,,,,,,,,,,,,,,,,,,,,,,,,,,,,,,,"MET14602/07/20 18:51:02 METAR KJFK 072351Z 28019G31KT 10SM BKN039 02/M05 A2946 RMK AO2 PK WND 27039/2315 SLP976 60000 T00221050 10117 20022 51081 $ (RR)","FM-15","7",,,,,,,,,,,,,,,,,,,,,,,,,,,,"2009-05-01"
"74486094789","2020-02-07T19:00:00","FM-12","4",,"ESE","1.5","mi","TEMP, PRECIP, SNOW",,,"PSY, SRG, SNOWBOARD",,,"FAA CWO",,,,,,,,,,,,,,,,,,,,,,,,,,,,"23","36",,,"-0.24","1","59","29.46","41","29.43","9.94","31","280",,"22",,,,,,,,,,,,,,,,,,,,,,,,,,,,,,,,,,,,,"SYN09274486 12666 62819 10022 21050 39965 49976 51081 69901 92351 333 10122 20022 91031 555 90800=","FM-12","4",,,,,,,,,,,,,,,,,,,,,,,,,,,,"2009-05-01"
"74486094789","2020-02-07T19:51:00","FM-15","7",,"ESE","1.5","mi","TEMP, PRECIP, SNOW",,,"PSY, SRG, SNOWBOARD",,,"FAA CWO",,,,,,,,,,,,,,,,,,,,,,,,,,,"29.53","22","36","0.00",,,,"57","29.53","BKN:07 40","29.51","10.00","31","280","33","22",,,,,,,,,,,,,,,,,,,,,,,,,,,,,,,,,,,,,"MET12402/07/20 19:51:01 METAR KJFK 080051Z 28019G29KT 10SM BKN040 02/M06 A2953 RMK AO2 PK WND 27034/2355 PRESRR SLP999 T00221056 $","FM-15","7",,,,,,,,,,,,,,,,,,,,,,,,,,,,"2009-05-01"
"74486094789","2020-02-07T20:51:00","FM-15","7",,"ESE","1.5","mi","TEMP, PRECIP, SNOW",,,"PSY, SRG, SNOWBOARD",,,"FAA CWO",,,,,,,,,,,,,,,,,,,,,,,,,,,"29.58","21","36","0.00",,,,"55","29.58","OVC:08 38","29.56","10.00","31","280",,"16",,,,,,,,,,,,,,,,,,,,,,,,,,,,,,,,,,,,,"MET11402/07/20 20:51:01 METAR KJFK 080151Z 28014KT 10SM OVC038 02/M06 A2958 RMK AO2 PK WND 29029/0115 SLP018 T00221061 $","FM-15","7",,,,,,,,,,,,,,,,,,,,,,,,,,,,"2009-05-01"
"74486094789","2020-02-07T21:51:00","FM-15","7",,"ESE","1.5","mi","TEMP, PRECIP, SNOW",,,"PSY, SRG, SNOWBOARD",,,"FAA CWO",,,,,,,,,,,,,,,,,,,,,,,,,,,"29.64","20","36","0.00",,"-0.18","1","52","29.64","BKN:07 45","29.62","10.00","30","290","33","17",,,,,,,,,,,,,,,,,,,,,,,,,,,,,,,,,,,,,"MET12302/07/20 21:51:01 METAR KJFK 080251Z 29015G29KT 10SM BKN045 02/M07 A2964 RMK AO2 PK WND 28030/0207 SLP038 T00221067 51062 $","FM-15","7",,,,,,,,,,,,,,,,,,,,,,,,,,,,"2009-05-01"
"74486094789","2020-02-07T22:00:00","FM-12","4",,"ESE","1.5","mi","TEMP, PRECIP, SNOW",,,"PSY, SRG, SNOWBOARD",,,"FAA CWO",,,,,,,,,,,,,,,,,,,,,,,,,,,,"20","36",,,"-0.18","1","52","29.64","41","29.61","9.94","30","290",,"17",,,,,,,,,,,,,,,,,,,,,,,,,,,,,,,,,,,,,"SYN07474486 32666 62915 10022 21067 30026 40038 51062 90251 333 91029 555 90803=","FM-12","4",,,,,,,,,,,,,,,,,,,,,,,,,,,,"2009-05-01"
"74486094789","2020-02-07T22:51:00","FM-15","7",,"ESE","1.5","mi","TEMP, PRECIP, SNOW",,,"PSY, SRG, SNOWBOARD",,,"FAA CWO",,,,,,,,,,,,,,,,,,,,,,,,,,,"29.71","15","34","0.00",,,,"46","29.71","BKN:07 49 OVC:08 65","29.69","10.00","28","290","40","25",,,,,,,,,,,,,,,,,,,,,,,,,,,,,,,,,,,,,"MET12402/07/20 22:51:01 METAR KJFK 080351Z 29022G35KT 10SM BKN049 OVC065 01/M09 A2971 RMK AO2 PK WND 30035/0344 SLP060 T00111094 $","FM-15","7",,,,,,,,,,,,,,,,,,,,,,,,,,,,"2009-05-01"
"74486094789","2020-02-07T23:51:00","FM-15","7",,"ESE","1.5","mi","TEMP, PRECIP, SNOW",,,"PSY, SRG, SNOWBOARD",,,"FAA CWO",,,,,,,,,,,,,,,,,,,,,,,,,,,"29.77","15","33","0.00",,,,"47","29.76","BKN:07 47","29.75","10.00","27","290","36","26",,,,,,,,,,,,,,,,,,,,,,,,,,,,,,,,,,,,,"MET13402/07/20 23:51:02 METAR KJFK 080451Z 29023G31KT 10SM BKN047 01/M09 A2977 RMK AO2 PK WND 30031/0451 PRESRR SLP079 T00061094 401220006 $","FM-15","7",,,,,,,,,,,,,,,,,,,,,,,,,,,,"2009-05-01"
"74486094789","2020-02-07T23:59:00","SOD  ","6",,"ESE","1.5","mi","TEMP, PRECIP, SNOW",,,"PSY, SRG, SNOWBOARD",,,"FAA CWO",,,,"35","44","79","29.26","29.18","39","19.7","0","10.3","21","54","33","250","59","0.28","0","0.0","250","49","RA DZ FG BR",,,,,,,,,,,,,,,,,,,,,,,,,,,,,,,,,,,,,,,,,,,,,,,,,,,,,,,,"SOD75724 HR PRECIPITATION (IN): 0.28 SNOW DEPTH (IN):0     24 HR SNOWFALL (IN):0.0  WEATHER(CODE):12  24 HR MAX TEMP (F): 5424 HR MIN TEMP (F): 33AVERAGE STATION PRESSURE:29.185 MINIMUM SEA LEVEL PRESSURE:28.82 TIME OF OCCURRENCE:1224 PEAK WIND SPEED (MPH): 59 PEAK WIND DIR (DEG):250 PEAK WIND TIME (LST):      FASTEST 2MIN SPEED (MPH): 49FASTEST 2MIN DIR (DEG):250 FASTEST 2MIN TIME (LST):     AVERAGE WIND SPEED (MPH):19.7 24 HR AVG TEMP (F): 44DEPART FROM NORMAL: 10  HEATING DEGREE DAYS: 21 COOLING DEGREE DAYS:  0 LATEST DAY MAX TEMP (0700-1900 LST):54  LATEST NIGHT MIN TEMP(1900-0800 LST):38 HOURLY INCREMENTAL PRECIPITATION VALUES (IN):.02 0.03 0.03 0.04 T    T    0.01 0.02 0.02 0.06 0.02 0.03 T    T    T    T    T    0.00 0.00 0.00 0.00 0.00 0.00 0.00","SOD  ","6",,,,,,,,,,,,,,,,,,,,,,,,,"0659","1720",,"2009-05-01"
"74486094789","2020-02-08T00:51:00","FM-15","7",,"ESE","1.5","mi","TEMP, PRECIP, SNOW",,,"PSY, SRG, SNOWBOARD",,,"FAA CWO",,,,,,,,,,,,,,,,,,,,,,,,,,,"29.81","15","32","0.00",,"-0.16","1","50","29.80","SCT:04 47","29.78","10.00","27","290","26","20",,,,,,,,,,,,,,,,,,,,,,,,,,,,,,,,,,,,,"MET14002/08/20 00:51:02 METAR KJFK 080551Z 29017G23KT 10SM SCT047 00/M09 A2981 RMK AO2 PK WND 29033/0502 SLP093 T00001094 10028 20000 51055 $ (ML)","FM-15","7",,,,,,,,,,,,,,,,,,,,,,,,,,,,"2009-05-01"
"74486094789","2020-02-08T01:00:00","FM-12","4",,"ESE","1.5","mi","TEMP, PRECIP, SNOW",,,"PSY, SRG, SNOWBOARD",,,"FAA CWO",,,,,,,,,,,,,,,,,,,,,,,,,,,,"15","32",,,"-0.16","1","50","29.80","41","29.78","9.94","27","290",,"20",,,,,,,,,,,,,,,,,,,,,,,,,,,,,,,,,,,,,"SYN08674486 32666 42917 10000 21094 30084 40093 51055 90551 333 10056 20000 91023 555 90806=","FM-12","4",,,,,,,,,,,,,,,,,,,,,,,,,,,,"2009-05-01"
"74486094789","2020-02-08T01:51:00","FM-15","7",,"ESE","1.5","mi","TEMP, PRECIP, SNOW",,,"PSY, SRG, SNOWBOARD",,,"FAA CWO",,,,,,,,,,,,,,,,,,,,,,,,,,,"29.86","17","32","0.00",,,,"54","29.86","BKN:07 42","29.83","10.00","27","290","22","17",,,,,,,,,,,,,,,,,,,,,,,,,,,,,,,,,,,,,"MET10402/08/20 01:51:02 METAR KJFK 080651Z 29015G19KT 10SM BKN042 00/M08 A2986 RMK AO2 SLP111 T00001083 $ (ML)","FM-15","7",,,,,,,,,,,,,,,,,,,,,,,,,,,,"2009-05-01"
"74486094789","2020-02-08T02:51:00","FM-15","7",,"ESE","1.5","mi","TEMP, PRECIP, SNOW",,,"PSY, SRG, SNOWBOARD",,,"FAA CWO",,,,,,,,,,,,,,,,,,,,,,,,,,,"29.91","15","31","0.00",,,,"52","29.91","FEW:02 42","29.88","10.00","26","280",,"13",,,,,,,,,,,,,,,,,,,,,,,,,,,,,,,,,,,,,"MET10202/08/20 02:51:02 METAR KJFK 080751Z 28011KT 10SM FEW042 M01/M09 A2991 RMK AO2 SLP129 T10061094 $ (ML)","FM-15","7",,,,,,,,,,,,,,,,,,,,,,,,,,,,"2009-05-01"
"74486094789","2020-02-08T03:51:00","FM-15","7",,"ESE","1.5","mi","TEMP, PRECIP, SNOW",,,"PSY, SRG, SNOWBOARD",,,"FAA CWO",,,,,,,,,,,,,,,,,,,,,,,,,,,"29.96","14","31","0.00",,"-0.15","1","49","29.96","FEW:02 42","29.93","10.00","26","290","24","16",,,,,,,,,,,,,,,,,,,,,,,,,,,,,,,,,,,,,"MET11102/08/20 03:51:02 METAR KJFK 080851Z 29014G21KT 10SM FEW042 M01/M10 A2996 RMK AO2 SLP144 T10061100 51050 $ (ML)","FM-15","7",,,,,,,,,,,,,,,,,,,,,,,,,,,,"2009-05-01"
"74486094789","2020-02-08T04:00:00","FM-12","4",,"ESE","1.5","mi","TEMP, PRECIP, SNOW",,,"PSY, SRG, SNOWBOARD",,,"FAA CWO",,,,,,,,,,,,,,,,,,,,,,,,,,,,"14","31",,,"-0.15","1","49","29.96","41","29.93","9.94","26","290",,"16",,,,,,,,,,,,,,,,,,,,,,,,,,,,,,,,,,,,,"SYN07474486 32666 22914 11006 21100 30134 40144 51050 90851 333 91021 555 90809=","FM-12","4",,,,,,,,,,,,,,,,,,,,,,,,,,,,"2009-05-01"
"74486094789","2020-02-08T04:51:00","FM-15","7",,"ESE","1.5","mi","TEMP, PRECIP, SNOW",,,"PSY, SRG, SNOWBOARD",,,"FAA CWO",,,,,,,,,,,,,,,,,,,,,,,,,,,"30.01","13","31","0.00",,,,"47","30.01","FEW:02 45","29.98","10.00","25","290","25","22",,,,,,,,,,,,,,,,,,,,,,,,,,,,,,,,,,,,,"MET10502/08/20 04:51:02 METAR KJFK 080951Z 29019G22KT 10SM FEW045 M01/M11 A3001 RMK AO2 SLP161 T10061106 $ (ML)","FM-15","7",,,,,,,,,,,,,,,,,,,,,,,,,,,,"2009-05-01"
"74486094789","2020-02-08T05:51:00","FM-15","7",,"ESE","1.5","mi","TEMP, PRECIP, SNOW",,,"PSY, SRG, SNOWBOARD",,,"FAA CWO",,,,,,,,,,,,,,,,,,,,,,,,,,,"30.05","14","31","0.00",,,,"49","30.04","FEW:02 45","30.03","10.00","26","300","23","16",,,,,,,,,,,,,,,,,,,,,,,,,,,,,,,,,,,,,"MET10502/08/20 05:51:02 METAR KJFK 081051Z 30014G20KT 10SM FEW045 M01/M10 A3005 RMK AO2 SLP174 T10061100 $ (ML)","FM-15","7",,,,,,,,,,,,,,,,,,,,,,,,,,,,"2009-05-01"
"74486094789","2020-02-08T06:51:00","FM-15","7",,"ESE","1.5","mi","TEMP, PRECIP, SNOW",,,"PSY, SRG, SNOWBOARD",,,"FAA CWO",,,,,,,,,,,,,,,,,,,,,,,,,,,"30.10","14","30","0.00",,"-0.14","3","51","30.10","FEW:02 40","30.08","10.00","25","290","22","16",,,,,,,,,,,,,,,,,,,,,,,,,,,,,,,,,,,,,"MET12902/08/20 06:51:02 METAR KJFK 081151Z 29014G19KT 10SM FEW040 M01/M10 A3010 RMK AO2 SLP192 70015 T10111100 10006 21011 53049 $ (MM)","FM-15","7",,,,,,,,,,,,,,,,,,,,,,,,,,,,"2009-05-01"
"74486094789","2020-02-08T07:00:00","FM-12","4",,"ESE","1.5","mi","TEMP, PRECIP, SNOW",,,"PSY, SRG, SNOWBOARD",,,"FAA CWO",,,,,,,,,,,,,,,,,,,,,,,,,,,,"14","30",,,"-0.14","3","51","30.10","41","30.07","9.94","25","290",,"16",,,,,,,,,,,,,,,,,,,,,,,,,,,,,,,,,,,,,"SYN09274486 32666 22914 11011 21100 30182 40192 53049 91151 333 10122 21011 70038 91019 555 90812=","FM-12","4",,,,,,,,,,,,,,,,,,,,,,,,,,,,"2009-05-01"
"74486094789","2020-02-08T07:51:00","FM-15","7",,"ESE","1.5","mi","TEMP, PRECIP, SNOW",,,"PSY, SRG, SNOWBOARD",,,"FAA CWO",,,,,,,,,,,,,,,,,,,,,,,,,,,"30.14","14","32","0.00",,,,"47","30.14","FEW:02 40","30.11","10.00","26","280",,"16",,,,,,,,,,,,,,,,,,,,,,,,,,,,,,,,,,,,,"MET10102/08/20 07:51:02 METAR KJFK 081251Z 28014KT 10SM FEW040 00/M10 A3014 RMK AO2 SLP206 T00001100 $ (MM)","FM-15","7",,,,,,,,,,,,,,,,,,,,,,,,,,,,"2009-05-01"
"74486094789","2020-02-08T08:51:00","FM-15","7",,"ESE","1.5","mi","TEMP, PRECIP, SNOW",,,"PSY, SRG, SNOWBOARD",,,"FAA CWO",,,,,,,,,,,,,,,,,,,,,,,,,,,"30.17","16","33","0.00",,,,"49","30.17","FEW:02 45 FEW:02 130 SCT:04 250","30.14","10.00","27","270","24","21",,,,,,,,,,,,,,,,,,,,,,,,,,,,,,,,,,,,,"MET11802/08/20 08:51:02 METAR KJFK 081351Z 27018G21KT 10SM FEW045 FEW130 SCT250 01/M09 A3017 RMK AO2 SLP216 T00061089 $ (MM)","FM-15","7",,,,,,,,,,,,,,,,,,,,,,,,,,,,"2009-05-01"
"74486094789","2020-02-08T09:51:00","FM-15","7",,"ESE","1.5","mi","TEMP, PRECIP, SNOW",,,"PSY, SRG, SNOWBOARD",,,"FAA CWO",,,,,,,,,,,,,,,,,,,,,,,,,,,"30.19","17","35","0.00",,"-0.09","1","48","30.19","FEW:02 40 FEW:02 250","30.16","10.00","29","260",,"16",,,,,,,,,,,,,,,,,,,,,,,,,,,,,,,,,,,,,"MET11402/08/20 09:51:02 METAR KJFK 081451Z 26014KT 10SM FEW040 FEW250 02/M08 A3019 RMK AO2 SLP222 T00171083 51029 $ (MM)","FM-15","7",,,,,,,,,,,,,,,,,,,,,,,,,,,,"2009-05-01"
"74486094789","2020-02-08T10:00:00","FM-12","4",,"ESE","1.5","mi","TEMP, PRECIP, SNOW",,,"PSY, SRG, SNOWBOARD",,,"FAA CWO",,,,,,,,,,,,,,,,,,,,,,,,,,,,"17","35",,,"-0.09","1","48","30.19","41","30.16","9.94","29","260",,"16",,,,,,,,,,,,,,,,,,,,,,,,,,,,,,,,,,,,,"SYN06474486 32666 22614 10017 21083 30212 40222 51029 91451 555 90815=","FM-12","4",,,,,,,,,,,,,,,,,,,,,,,,,,,,"2009-05-01"
"74486094789","2020-02-08T10:51:00","FM-15","7",,"ESE","1.5","mi","TEMP, PRECIP, SNOW",,,"PSY, SRG, SNOWBOARD",,,"FAA CWO",,,,,,,,,,,,,,,,,,,,,,,,,,,"30.19","18","38","0.00",,,,"44","30.19","SCT:04 55 SCT:04 250","30.16","10.00","31","280",,"15",,,,,,,,,,,,,,,,,,,,,,,,,,,,,,,,,,,,,"MET10802/08/20 10:51:02 METAR KJFK 081551Z 28013KT 10SM SCT055 SCT250 03/M08 A3019 RMK AO2 SLP223 T00331078 $ (MM)","FM-15","7",,,,,,,,,,,,,,,,,,,,,,,,,,,,"2009-05-01"
"74486094789","2020-02-08T11:51:00","FM-15","7",,"ESE","1.5","mi","TEMP, PRECIP, SNOW",,,"PSY, SRG, SNOWBOARD",,,"FAA CWO",,,,,,,,,,,,,,,,,,,,,,,,,,,"30.19","19","40","0.00",,,,"43","30.19","BKN:07 46 BKN:07 250","30.16","10.00","33","270","26","16",,,,,,,,,,,,,,,,,,,,,,,,,,,,,,,,,,,,,"MET11102/08/20 11:51:02 METAR KJFK 081651Z 27014G23KT 10SM BKN046 BKN250 04/M07 A3019 RMK AO2 SLP224 T00441072 $ (MM)","FM-15","7",,,,,,,,,,,,,,,,,,,,,,,,,,,,"2009-05-01"
"74486094789","2020-02-08T12:51:00","FM-15","7",,"ESE","1.5","mi","TEMP, PRECIP, SNOW",,,"PSY, SRG, SNOWBOARD",,,"FAA CWO",,,,,,,,,,,,,,,,,,,,,,,,,,,"30.19","19","39","0.00",,"-0.00","0","45","30.19","BKN:07 48 BKN:07 55 BKN:07 250","30.16","10.00","32","270",,"16",,,,,,,,,,,,,,,,,,,,,,,,,,,,,,,,,,,,,"MET13302/08/20 12:51:02 METAR KJFK 081751Z 27014KT 10SM BKN048 BKN055 BKN250 04/M07 A3019 RMK AO2 SLP222 T00391072 10044 21011 50000 $ (MM)","FM-15","7",,,,,,,,,,,,,,,,,,,,,,,,,,,,"2009-05-01"
"74486094789","2020-02-08T13:00:00","FM-12","4",,"ESE","1.5","mi","TEMP, PRECIP, SNOW",,,"PSY, SRG, SNOWBOARD",,,"FAA CWO",,,,,,,,,,,,,,,,,,,,,,,,,,,,"19","39",,,"0.00","9","45","30.19","41","30.16","9.94","32","270",,"16",,,,,,,,,,,,,,,,,,,,,,,,,,,,,,,,,,,,,"SYN08074486 32666 62714 10039 21072 30212 40222 50000 91751 333 10044 21011 555 90818=","FM-12","4",,,,,,,,,,,,,,,,,,,,,,,,,,,,"2009-05-01"
"74486094789","2020-02-08T13:51:00","FM-15","7",,"ESE","1.5","mi","TEMP, PRECIP, SNOW",,,"PSY, SRG, SNOWBOARD",,,"FAA CWO",,,,,,,,,,,,,,,,,,,,,,,,,,,"30.18","18","40","0.00",,,,"41","30.18","BKN:07 60 BKN:07 250","30.16","10.00","32","270",,"15",,,,,,,,,,,,,,,,,,,,,,,,,,,,,,,,,,,,,"MET10802/08/20 13:51:02 METAR KJFK 081851Z 27013KT 10SM BKN060 BKN250 04/M08 A3018 RMK AO2 SLP221 T00441078 $ (MM)","FM-15","7",,,,,,,,,,,,,,,,,,,,,,,,,,,,"2009-05-01"
"74486094789","2020-02-08T14:51:00","FM-15","7",,"ESE","1.5","mi","TEMP, PRECIP, SNOW",,,"PSY, SRG, SNOWBOARD",,,"FAA CWO",,,,,,,,,,,,,,,,,,,,,,,,,,,"30.19","19","42","0.00",,,,"40","30.19","BKN:07 55 BKN:07 250","30.16","10.00","34","280",,"14",,,,,,,,,,,,,,,,,,,,,,,,,,,,,,,,,,,,,"MET10802/08/20 14:51:02 METAR KJFK 081951Z 28012KT 10SM BKN055 BKN250 06/M07 A3019 RMK AO2 SLP222 T00561072 $ (RG)","FM-15","7",,,,,,,,,,,,,,,,,,,,,,,,,,,,"2009-05-01"
"74486094789","2020-02-08T15:51:00","FM-15","7",,"ESE","1.5","mi","TEMP, PRECIP, SNOW",,,"PSY, SRG, SNOWBOARD",,,"FAA CWO",,,,,,,,,,,,,,,,,,,,,,,,,,,"30.21","17","40","0.00",,"-0.02","3","40","30.20","BKN:07 60","30.19","10.00","32","290",,"15",,,,,,,,,,,,,,,,,,,,,,,,,,,,,,,,,,,,,"MET10702/08/20 15:51:02 METAR KJFK 082051Z 29013KT 10SM BKN060 04/M08 A3021 RMK AO2 SLP228 T00441083 53006 $ (RG)","FM-15","7",,,,,,,,,,,,,,,,,,,,,,,,,,,,"2009-05-01"
"74486094789","2020-02-08T16:00:00","FM-12","4",,"ESE","1.5","mi","TEMP, PRECIP, SNOW",,,"PSY, SRG, SNOWBOARD",,,"FAA CWO",,,,,,,,,,,,,,,,,,,,,,,,,,,,"17","40",,,"-0.02","3","40","30.20","57","30.18","9.94","32","290",,"15",,,,,,,,,,,,,,,,,,,,,,,,,,,,,,,,,,,,,"SYN06474486 32766 62913 10044 21083 30219 40228 53006 92051 555 90821=","FM-12","4",,,,,,,,,,,,,,,,,,,,,,,,,,,,"2009-05-01"
"74486094789","2020-02-08T16:51:00","FM-15","7",,"ESE","1.5","mi","TEMP, PRECIP, SNOW",,,"PSY, SRG, SNOWBOARD",,,"FAA CWO",,,,,,,,,,,,,,,,,,,,,,,,,,,"30.24","17","40","0.00",,,,"40","30.23","BKN:07 65","30.22","10.00","32","280",,"13",,,,,,,,,,,,,,,,,,,,,,,,,,,,,,,,,,,,,"MET10102/08/20 16:51:02 METAR KJFK 082151Z 28011KT 10SM BKN065 04/M08 A3024 RMK AO2 SLP238 T00441083 $ (RG)","FM-15","7",,,,,,,,,,,,,,,,,,,,,,,,,,,,"2009-05-01"
"74486094789","2020-02-08T17:51:00","FM-15","7",,"ESE","1.5","mi","TEMP, PRECIP, SNOW",,,"PSY, SRG, SNOWBOARD",,,"FAA CWO",,,,,,,,,,,,,,,,,,,,,,,,,,,"30.26","18","38","0.00",,,,"44","30.25","FEW:02 50 FEW:02 65","30.24","10.00","31","270",,"10",,,,,,,,,,,,,,,,,,,,,,,,,,,,,,,,,,,,,"MET10802/08/20 17:51:02 METAR KJFK 082251Z 27009KT 10SM FEW050 FEW065 03/M08 A3026 RMK AO2 SLP245 T00331078 $ (RG)","FM-15","7",,,,,,,,,,,,,,,,,,,,,,,,,,,,"2009-05-01"
"74486094789","2020-02-08T18:51:00","FM-15","7",,"ESE","1.5","mi","TEMP, PRECIP, SNOW",,,"PSY, SRG, SNOWBOARD",,,"FAA CWO",,,,,,,,,,,,,,,,,,,,,,,,,,,"30.29","19","38","0.00",,"-0.09","3","46","30.29","FEW:02 55","30.27","10.00","31","260",,"13",,,,,,,,,,,,,,,,,,,,,,,,,,,,,,,,,,,,,"MET11902/08/20 18:51:02 METAR KJFK 082351Z 26011KT 10SM FEW055 03/M07 A3029 RMK AO2 SLP257 T00331072 10061 20033 53029 $ (RG)","FM-15","7",,,,,,,,,,,,,,,,,,,,,,,,,,,,"2009-05-01"
"74486094789","2020-02-08T19:00:00","FM-12","4",,"ESE","1.5","mi","TEMP, PRECIP, SNOW",,,"PSY, SRG, SNOWBOARD",,,"FAA CWO",,,,,,,,,,,,,,,,,,,,,,,,,,,,"19","38",,,"-0.09","3","46","30.29","57","30.26","9.94","31","260",,"13",,,,,,,,,,,,,,,,,,,,,,,,,,,,,,,,,,,,,"SYN08074486 32766 22611 10033 21072 30246 40257 53029 92351 333 10061 21010 555 90900=","FM-12","4",,,,,,,,,,,,,,,,,,,,,,,,,,,,"2009-05-01"
"74486094789","2020-02-08T19:51:00","FM-15","7",,"ESE","1.5","mi","TEMP, PRECIP, SNOW",,,"PSY, SRG, SNOWBOARD",,,"FAA CWO",,,,,,,,,,,,,,,,,,,,,,,,,,,"30.31","19","36","0.00",,,,"50","30.31","CLR:00","30.29","10.00","30","240",,"9",,,,,,,,,,,,,,,,,,,,,,,,,,,,,,,,,,,,,"MET09302/08/20 19:51:01 METAR KJFK 090051Z 24008KT 10SM CLR 02/M07 A3031 RMK AO2 SLP264 T00221072 $","FM-15","7",,,,,,,,,,,,,,,,,,,,,,,,,,,,"2009-05-01"
"74486094789","2020-02-08T20:51:00","FM-15","7",,"ESE","1.5","mi","TEMP, PRECIP, SNOW",,,"PSY, SRG, SNOWBOARD",,,"FAA CWO",,,,,,,,,,,,,,,,,,,,,,,,,,,"30.33","21","35","0.00",,,,"57","30.32","FEW:02 50 FEW:02 65","30.30","10.00","30","240",,"8",,,,,,,,,,,,,,,,,,,,,,,,,,,,,,,,,,,,,"MET10302/08/20 20:51:01 METAR KJFK 090151Z 24007KT 10SM FEW050 FEW065 02/M06 A3033 RMK AO2 SLP269 T00171061 $","FM-15","7",,,,,,,,,,,,,,,,,,,,,,,,,,,,"2009-05-01"
"74486094789","2020-02-08T21:51:00","FM-15","7",,"ESE","1.5","mi","TEMP, PRECIP, SNOW",,,"PSY, SRG, SNOWBOARD",,,"FAA CWO",,,,,,,,,,,,,,,,,,,,,,,,,,,"30.34","21","36","0.00",,"-0.05","1","55","30.34","FEW:02 60","30.32","10.00","31","250",,"8",,,,,,,,,,,,,,,,,,,,,,,,,,,,,,,,,,,,,"MET10202/08/20 21:51:01 METAR KJFK 090251Z 25007KT 10SM FEW060 02/M06 A3034 RMK AO2 SLP274 T00221061 51017 $","FM-15","7",,,,,,,,,,,,,,,,,,,,,,,,,,,,"2009-05-01"
"74486094789","2020-02-08T22:00:00","FM-12","4",,"ESE","1.5","mi","TEMP, PRECIP, SNOW",,,"PSY, SRG, SNOWBOARD",,,"FAA CWO",,,,,,,,,,,,,,,,,,,,,,,,,,,,"21","36",,,"-0.05","1","55","30.34","57","30.31","9.94","31","250",,"8",,,,,,,,,,,,,,,,,,,,,,,,,,,,,,,,,,,,,"SYN06474486 32766 22507 10022 21061 30263 40274 51017 90251 555 90903=","FM-12","4",,,,,,,,,,,,,,,,,,,,,,,,,,,,"2009-05-01"
"74486094789","2020-02-08T22:51:00","FM-15","7",,"ESE","1.5","mi","TEMP, PRECIP, SNOW",,,"PSY, SRG, SNOWBOARD",,,"FAA CWO",,,,,,,,,,,,,,,,,,,,,,,,,,,"30.36","24","34","0.00",,,,"67","30.35","FEW:02 60","30.34","10.00","30","240",,"7",,,,,,,,,,,,,,,,,,,,,,,,,,,,,,,,,,,,,"MET09602/08/20 22:51:01 METAR KJFK 090351Z 24006KT 10SM FEW060 01/M04 A3036 RMK AO2 SLP279 T00111044 $","FM-15","7",,,,,,,,,,,,,,,,,,,,,,,,,,,,"2009-05-01"
"74486094789","2020-02-08T23:18:00","FM-16","7",,"ESE","1.5","mi","TEMP, PRECIP, SNOW",,,"PSY, SRG, SNOWBOARD",,,"FAA CWO",,,,,,,,,,,,,,,,,,,,,,,,,,,"30.38","24","32",,,,,"73",,"FEW:02 60","30.35","10.00","29","020",,"10",,,,,,,,,,,,,,,,,,,,,,,,,,,,,,,,,,,,,"MET08902/08/20 23:18:01 SPECI KJFK 090418Z 02009KT 10SM FEW060 00/M04 A3038 RMK AO2 T00001044 $","FM-16","7",,,,,,,,,,,,,,,,,,,,,,,,,,,,"2009-05-01"
"74486094789","2020-02-08T23:51:00","FM-15","7",,"ESE","1.5","mi","TEMP, PRECIP, SNOW",,,"PSY, SRG, SNOWBOARD",,,"FAA CWO",,,,,,,,,,,,,,,,,,,,,,,,,,,"30.38","25","30","0.00",,,,"82","30.38","FEW:02 60","30.35","10.00","28","040",,"8",,,,,,,,,,,,,,,,,,,,,,,,,,,,,,,,,,,,,"MET10702/08/20 23:51:02 METAR KJFK 090451Z 04007KT 10SM FEW060 M01/M04 A3038 RMK AO2 SLP287 T10111039 400611011 $","FM-15","7",,,,,,,,,,,,,,,,,,,,,,,,,,,,"2009-05-01"
"74486094789","2020-02-08T23:59:00","SOD  ","6",,"ESE","1.5","mi","TEMP, PRECIP, SNOW",,,"PSY, SRG, SNOWBOARD",,,"FAA CWO",,,,"18","37","50","30.16","30.07","29","14.1","0","3.2","28","43","30","290","38","0.00","0","0.0","300","29",,,,,,,,,,,,,,,,,,,,,,,,,,,,,,,,,,,,,,,,,,,,,,,,,,,,,,,,,"SOD73924 HR PRECIPITATION (IN): 0.00 SNOW DEPTH (IN):0     24 HR SNOWFALL (IN):0.0  24 HR MAX TEMP (F): 4324 HR MIN TEMP (F): 30AVERAGE STATION PRESSURE:30.070 MINIMUM SEA LEVEL PRESSURE:29.77 TIME OF OCCURRENCE:0006 PEAK WIND SPEED (MPH): 38 PEAK WIND DIR (DEG):290 PEAK WIND TIME (LST):      FASTEST 2MIN SPEED (MPH): 29FASTEST 2MIN DIR (DEG):300 FASTEST 2MIN TIME (LST):     AVERAGE WIND SPEED (MPH):14.1 24 HR AVG TEMP (F): 37DEPART FROM NORMAL:  3  HEATING DEGREE DAYS: 28 COOLING DEGREE DAYS:  0 LATEST DAY MAX TEMP (0700-1900 LST):43  LATEST NIGHT MIN TEMP(1900-0800 LST):30 HOURLY INCREMENTAL PRECIPITATION VALUES (IN):.00 0.00 0.00 0.00 0.00 0.00 0.00 0.00 0.00 0.00 0.00 0.00 0.00 0.00 0.00 0.00 0.00 0.00 0.00 0.00 0.00 0.00 0.00 0.00","SOD  ","6",,,,,,,,,,,,,,,,,,,,,,,,,"0658","1721",,"2009-05-01"
"74486094789","2020-02-09T00:51:00","FM-15","7",,"ESE","1.5","mi","TEMP, PRECIP, SNOW",,,"PSY, SRG, SNOWBOARD",,,"FAA CWO",,,,,,,,,,,,,,,,,,,,,,,,,,,"30.39","25","30","0.00",,"-0.05","2","82","30.39","FEW:02 60 SCT:04 120","30.37","10.00","28","040",,"6",,,,,,,,,,,,,,,,,,,,,,,,,,,,,,,,,,,,,"MET12702/09/20 00:51:02 METAR KJFK 090551Z 04005KT 10SM FEW060 SCT120 M01/M04 A3039 RMK AO2 SLP292 T10111039 10033 21017 52017 $ (ML)","FM-15","7",,,,,,,,,,,,,,,,,,,,,,,,,,,,"2009-05-01"
"74486094789","2020-02-09T01:00:00","FM-12","4",,"ESE","1.5","mi","TEMP, PRECIP, SNOW",,,"PSY, SRG, SNOWBOARD",,,"FAA CWO",,,,,,,,,,,,,,,,,,,,,,,,,,,,"25","30",,,"-0.05","2","82","30.39","57","30.36","9.94","28","040",,"6",,,,,,,,,,,,,,,,,,,,,,,,,,,,,,,,,,,,,"SYN08074486 32766 40405 11011 21039 30280 40292 52017 90551 333 10033 21017 555 90906=","FM-12","4",,,,,,,,,,,,,,,,,,,,,,,,,,,,"2009-05-01"
"74486094789","2020-02-09T01:51:00","FM-15","7",,"ESE","1.5","mi","TEMP, PRECIP, SNOW",,,"PSY, SRG, SNOWBOARD",,,"FAA CWO",,,,,,,,,,,,,,,,,,,,,,,,,,,"30.41","27","30","0.00",,,,"88","30.40","BKN:07 70 BKN:07 120","30.38","10.00","29","040",,"7",,,,,,,,,,,,,,,,,,,,,,,,,,,,,,,,,,,,,"MET10902/09/20 01:51:02 METAR KJFK 090651Z 04006KT 10SM BKN070 BKN120 M01/M03 A3041 RMK AO2 SLP296 T10111028 $ (ML)","FM-15","7",,,,,,,,,,,,,,,,,,,,,,,,,,,,"2009-05-01"
"74486094789","2020-02-09T02:51:00","FM-15","7",,"ESE","1.5","mi","TEMP, PRECIP, SNOW",,,"PSY, SRG, SNOWBOARD",,,"FAA CWO",,,,,,,,,,,,,,,,,,,,,,,,,,,"30.42","27","32","0.00",,,,"82","30.42","OVC:08 70","30.40","10.00","30","050",,"6",,,,,,,,,,,,,,,,,,,,,,,,,,,,,,,,,,,,,"MET10102/09/20 02:51:02 METAR KJFK 090751Z 05005KT 10SM OVC070 00/M03 A3042 RMK AO2 SLP302 T00001028 $ (ML)","FM-15","7",,,,,,,,,,,,,,,,,,,,,,,,,,,,"2009-05-01"
"74486094789","2020-02-09T03:51:00","FM-15","7",,"ESE","1.5","mi","TEMP, PRECIP, SNOW",,,"PSY, SRG, SNOWBOARD",,,"FAA CWO",,,,,,,,,,,,,,,,,,,,,,,,,,,"30.44","27","31","0.00",,"-0.05","3","85","30.44","FEW:02 65 BKN:07 85 OVC:08 100","30.42","10.00","30","040",,"3",,,,,,,,,,,,,,,,,,,,,,,,,,,,,,,,,,,,,"MET12202/09/20 03:51:02 METAR KJFK 090851Z 04003KT 10SM FEW065 BKN085 OVC100 M01/M03 A3044 RMK AO2 SLP307 T10061028 53016 $ (ML)","FM-15","7",,,,,,,,,,,,,,,,,,,,,,,,,,,,"2009-05-01"
"74486094789","2020-02-09T04:00:00","FM-12","4",,"ESE","1.5","mi","TEMP, PRECIP, SNOW",,,"PSY, SRG, SNOWBOARD",,,"FAA CWO",,,,,,,,,,,,,,,,,,,,,,,,,,,,"27","31",,,"-0.05","3","85","30.44","57","30.41","9.94","30","040",,"3",,,,,,,,,,,,,,,,,,,,,,,,,,,,,,,,,,,,,"SYN06474486 32766 80403 11006 21028 30297 40307 53016 90851 555 90909=","FM-12","4",,,,,,,,,,,,,,,,,,,,,,,,,,,,"2009-05-01"
"74486094789","2020-02-09T04:51:00","FM-15","7",,"ESE","1.5","mi","TEMP, PRECIP, SNOW",,,"PSY, SRG, SNOWBOARD",,,"FAA CWO",,,,,,,,,,,,,,,,,,,,,,,,,,,"30.45","26","31","0.00",,,,"82","30.44","FEW:02 75 OVC:08 100","30.42","10.00","29","040",,"8",,,,,,,,,,,,,,,,,,,,,,,,,,,,,,,,,,,,,"MET10902/09/20 04:51:02 METAR KJFK 090951Z 04007KT 10SM FEW075 OVC100 M01/M03 A3045 RMK AO2 SLP309 T10061033 $ (ML)","FM-15","7",,,,,,,,,,,,,,,,,,,,,,,,,,,,"2009-05-01"
"74486094789","2020-02-09T05:51:00","FM-15","7",,"ESE","1.5","mi","TEMP, PRECIP, SNOW",,,"PSY, SRG, SNOWBOARD",,,"FAA CWO",,,,,,,,,,,,,,,,,,,,,,,,,,,"30.47","25","30","0.00",,,,"82","30.47","FEW:02 70 SCT:04 100","30.45","10.00","28","040",,"6",,,,,,,,,,,,,,,,,,,,,,,,,,,,,,,,,,,,,"MET10902/09/20 05:51:02 METAR KJFK 091051Z 04005KT 10SM FEW070 SCT100 M01/M04 A3047 RMK AO2 SLP319 T10111039 $ (ML)","FM-15","7",,,,,,,,,,,,,,,,,,,,,,,,,,,,"2009-05-01"
"74486094789","2020-02-09T06:51:00","FM-15","7",,"ESE","1.5","mi","TEMP, PRECIP, SNOW",,,"PSY, SRG, SNOWBOARD",,,"FAA CWO",,,,,,,,,,,,,,,,,,,,,,,,,,,"30.48","24","30","0.00",,"-0.04","3","79","30.48","FEW:02 70 SCT:04 85","30.45","10.00","28","050",,"8",,,,,,,,,,,,,,,,,,,,,,,,,,,,,,,,,,,,,"MET12702/09/20 06:51:02 METAR KJFK 091151Z 05007KT 10SM FEW070 SCT085 M01/M04 A3048 RMK AO2 SLP322 T10111044 10000 21017 53015 $ (DM)","FM-15","7",,,,,,,,,,,,,,,,,,,,,,,,,,,,"2009-05-01"
"74486094789","2020-02-09T07:00:00","FM-12","4",,"ESE","1.5","mi","TEMP, PRECIP, SNOW",,,"PSY, SRG, SNOWBOARD",,,"FAA CWO",,,,,,,,,,,,,,,,,,,,,,,,,,,,"24","30",,,"-0.04","3","79","30.48","74","30.45","9.94","28","050",,"8",,,,,,,,,,,,,,,,,,,,,,,,,,,,,,,,,,,,,"SYN08074486 32866 40507 11011 21044 30310 40322 53015 91151 333 10061 21017 555 90912=","FM-12","4",,,,,,,,,,,,,,,,,,,,,,,,,,,,"2009-05-01"
"74486094789","2020-02-09T07:51:00","FM-15","7",,"ESE","1.5","mi","TEMP, PRECIP, SNOW",,,"PSY, SRG, SNOWBOARD",,,"FAA CWO",,,,,,,,,,,,,,,,,,,,,,,,,,,"30.51","24","32","0.00",,,,"73","30.51","FEW:02 70 SCT:04 85","30.48","10.00","29","030",,"8",,,,,,,,,,,,,,,,,,,,,,,,,,,,,,,,,,,,,"MET10802/09/20 07:51:02 METAR KJFK 091251Z 03007KT 10SM FEW070 SCT085 00/M04 A3051 RMK AO2 SLP331 T00001044 $ (DM)","FM-15","7",,,,,,,,,,,,,,,,,,,,,,,,,,,,"2009-05-01"
"74486094789","2020-02-09T08:51:00","FM-15","7",,"ESE","1.5","mi","TEMP, PRECIP, SNOW",,,"PSY, SRG, SNOWBOARD",,,"FAA CWO",,,,,,,,,,,,,,,,,,,,,,,,,,,"30.52","26","35","0.00",,,,"70","30.52","FEW:02 70 FEW:02 85","30.50","10.00","32","050",,"11",,,,,,,,,,,,,,,,,,,,,,,,,,,,,,,,,,,,,"MET10802/09/20 08:51:02 METAR KJFK 091351Z 05010KT 10SM FEW070 FEW085 02/M03 A3052 RMK AO2 SLP335 T00171033 $ (DM)","FM-15","7",,,,,,,,,,,,,,,,,,,,,,,,,,,,"2009-05-01"
"74486094789","2020-02-09T09:51:00","FM-15","7",,"ESE","1.5","mi","TEMP, PRECIP, SNOW",,,"PSY, SRG, SNOWBOARD",,,"FAA CWO",,,,,,,,,,,,,,,,,,,,,,,,,,,"30.53","27","39","0.00",,"-0.05","1","62","30.53","SCT:04 75","30.50","10.00","34","060",,"8",,,,,,,,,,,,,,,,,,,,,,,,,,,,,,,,,,,,,"MET10702/09/20 09:51:02 METAR KJFK 091451Z 06007KT 10SM SCT075 04/M03 A3053 RMK AO2 SLP337 T00391028 51016 $ (DM)","FM-15","7",,,,,,,,,,,,,,,,,,,,,,,,,,,,"2009-05-01"
"74486094789","2020-02-09T10:00:00","FM-12","4",,"ESE","1.5","mi","TEMP, PRECIP, SNOW",,,"PSY, SRG, SNOWBOARD",,,"FAA CWO",,,,,,,,,,,,,,,,,,,,,,,,,,,,"27","39",,,"-0.05","1","62","30.53","74","30.50","9.94","34","060",,"8",,,,,,,,,,,,,,,,,,,,,,,,,,,,,,,,,,,,,"SYN06474486 32866 40607 10039 21028 30327 40337 51016 91451 555 90915=","FM-12","4",,,,,,,,,,,,,,,,,,,,,,,,,,,,"2009-05-01"
"74486094789","2020-02-09T10:51:00","FM-15","7",,"ESE","1.5","mi","TEMP, PRECIP, SNOW",,,"PSY, SRG, SNOWBOARD",,,"FAA CWO",,,,,,,,,,,,,,,,,,,,,,,,,,,"30.54","28","43","0.00",,,,"56","30.53","FEW:02 30 SCT:04 55 SCT:04 75","30.51","10.00","37","100",,"7",,,,,,,,,,,,,,,,,,,,,,,,,,,,,,,,,,,,,"MET11502/09/20 10:51:02 METAR KJFK 091551Z 10006KT 10SM FEW030 SCT055 SCT075 06/M02 A3054 RMK AO2 SLP340 T00611022 $ (DM)","FM-15","7",,,,,,,,,,,,,,,,,,,,,,,,,,,,"2009-05-01"
"74486094789","2020-02-09T11:51:00","FM-15","7",,"ESE","1.5","mi","TEMP, PRECIP, SNOW",,,"PSY, SRG, SNOWBOARD",,,"FAA CWO",,,,,,,,,,,,,,,,,,,,,,,,,,,"30.53","29","43","0.00",,,,"58","30.53","FEW:02 35 BKN:07 43 BKN:07 60","30.50","10.00","37","110",,"7",,,,,,,,,,,,,,,,,,,,,,,,,,,,,,,,,,,,,"MET11502/09/20 11:51:02 METAR KJFK 091651Z 11006KT 10SM FEW035 BKN043 BKN060 06/M02 A3053 RMK AO2 SLP337 T00611017 $ (DM)","FM-15","7",,,,,,,,,,,,,,,,,,,,,,,,,,,,"2009-05-01"
"74486094789","2020-02-09T12:51:00","FM-15","7",,"ESE","1.5","mi","TEMP, PRECIP, SNOW",,,"PSY, SRG, SNOWBOARD",,,"FAA CWO",,,,,,,,,,,,,,,,,,,,,,,,,,,"30.51","29","43","0.00",,"+0.02","8","58","30.50","SCT:04 39 BKN:07 45 BKN:07 60","30.48","10.00","37","150",,"7",,,,,,,,,,,,,,,,,,,,,,,,,,,,,,,,,,,,,"MET13302/09/20 12:51:02 METAR KJFK 091751Z 15006KT 10SM SCT039 BKN045 BKN060 06/M02 A3051 RMK AO2 SLP330 T00611017 10072 21011 58007 $ (DM)","FM-15","7",,,,,,,,,,,,,,,,,,,,,,,,,,,,"2009-05-01"
"74486094789","2020-02-09T13:00:00","FM-12","4",,"ESE","1.5","mi","TEMP, PRECIP, SNOW",,,"PSY, SRG, SNOWBOARD",,,"FAA CWO",,,,,,,,,,,,,,,,,,,,,,,,,,,,"29","43",,,"+0.02","8","58","30.50","41","30.47","9.94","37","150",,"7",,,,,,,,,,,,,,,,,,,,,,,,,,,,,,,,,,,,,"SYN08074486 32666 61506 10061 21017 30320 40330 58007 91751 333 10072 21011 555 90918=","FM-12","4",,,,,,,,,,,,,,,,,,,,,,,,,,,,"2009-05-01"
"74486094789","2020-02-09T13:51:00","FM-15","7",,"ESE","1.5","mi","TEMP, PRECIP, SNOW",,,"PSY, SRG, SNOWBOARD",,,"FAA CWO",,,,,,,,,,,,,,,,,,,,,,,,,,,"30.48","32","45","0.00",,,,"61","30.48","SCT:04 39 BKN:07 48 BKN:07 60","30.45","10.00","40","150",,"10",,,,,,,,,,,,,,,,,,,,,,,,,,,,,,,,,,,,,"MET11402/09/20 13:51:02 METAR KJFK 091851Z 15009KT 10SM SCT039 BKN048 BKN060 07/00 A3048 RMK AO2 SLP322 T00720000 $ (DM)","FM-15","7",,,,,,,,,,,,,,,,,,,,,,,,,,,,"2009-05-01"
"74486094789","2020-02-09T14:51:00","FM-15","7",,"ESE","1.5","mi","TEMP, PRECIP, SNOW",,,"PSY, SRG, SNOWBOARD",,,"FAA CWO",,,,,,,,,,,,,,,,,,,,,,,,,,,"30.46","33","46","0.00",,,,"61","30.46","SCT:04 36 BKN:07 60","30.43","10.00","40","180",,"15",,,,,,,,,,,,,,,,,,,,,,,,,,,,,,,,,,,,,"MET10702/09/20 14:51:02 METAR KJFK 091951Z 18013KT 10SM SCT036 BKN060 08/01 A3046 RMK AO2 SLP315 T00780006 $ (RG)","FM-15","7",,,,,,,,,,,,,,,,,,,,,,,,,,,,"2009-05-01"
"74486094789","2020-02-09T15:51:00","FM-15","7",,"ESE","1.5","mi","TEMP, PRECIP, SNOW",,,"PSY, SRG, SNOWBOARD",,,"FAA CWO",,,,,,,,,,,,,,,,,,,,,,,,,,,"30.46","34","44","0.00",,"+0.04","6","68","30.46","SCT:04 50 BKN:07 65","30.43","10.00","40","170",,"13",,,,,,,,,,,,,,,,,,,,,,,,,,,,,,,,,,,,,"MET11302/09/20 15:51:02 METAR KJFK 092051Z 17011KT 10SM SCT050 BKN065 07/01 A3046 RMK AO2 SLP315 T00670011 56015 $ (RG)","FM-15","7",,,,,,,,,,,,,,,,,,,,,,,,,,,,"2009-05-01"
"74486094789","2020-02-09T16:00:00","FM-12","4",,"ESE","1.5","mi","TEMP, PRECIP, SNOW",,,"PSY, SRG, SNOWBOARD",,,"FAA CWO",,,,,,,,,,,,,,,,,,,,,,,,,,,,"34","44",,,"+0.04","6","68","30.46","57","30.42","9.94","40","170",,"13",,,,,,,,,,,,,,,,,,,,,,,,,,,,,,,,,,,,,"SYN06474486 32766 61711 10067 20011 30303 40315 56015 92051 555 90921=","FM-12","4",,,,,,,,,,,,,,,,,,,,,,,,,,,,"2009-05-01"
"74486094789","2020-02-09T16:51:00","FM-15","7",,"ESE","1.5","mi","TEMP, PRECIP, SNOW",,,"PSY, SRG, SNOWBOARD",,,"FAA CWO",,,,,,,,,,,,,,,,,,,,,,,,,,,"30.46","33","44","0.00",,,,"65","30.45","BKN:07 49 BKN:07 60","30.43","10.00","39","180",,"16",,,,,,,,,,,,,,,,,,,,,,,,,,,,,,,,,,,,,"MET10702/09/20 16:51:02 METAR KJFK 092151Z 18014KT 10SM BKN049 BKN060 07/01 A3046 RMK AO2 SLP313 T00670006 $ (RG)","FM-15","7",,,,,,,,,,,,,,,,,,,,,,,,,,,,"2009-05-01"
"74486094789","2020-02-09T17:51:00","FM-15","7",,"ESE","1.5","mi","TEMP, PRECIP, SNOW",,,"PSY, SRG, SNOWBOARD",,,"FAA CWO",,,,,,,,,,,,,,,,,,,,,,,,,,,"30.46","31","43","0.00",,,,"63","30.45","FEW:02 49 BKN:07 65 BKN:07 250","30.43","10.00","38","180",,"14",,,,,,,,,,,,,,,,,,,,,,,,,,,,,,,,,,,,,"MET11502/09/20 17:51:02 METAR KJFK 092251Z 18012KT 10SM FEW049 BKN065 BKN250 06/M01 A3046 RMK AO2 SLP313 T00611006 $ (RG)","FM-15","7",,,,,,,,,,,,,,,,,,,,,,,,,,,,"2009-05-01"
"74486094789","2020-02-09T18:51:00","FM-15","7",,"ESE","1.5","mi","TEMP, PRECIP, SNOW",,,"PSY, SRG, SNOWBOARD",,,"FAA CWO",,,,,,,,,,,,,,,,,,,,,,,,,,,"30.48","32","42","0.00",,"-0.01","3","68","30.47","SCT:04 60 BKN:07 250","30.45","10.00","38","190",,"18",,,,,,,,,,,,,,,,,,,,,,,,,,,,,,,,,,,,,"MET12502/09/20 18:51:02 METAR KJFK 092351Z 19016KT 10SM SCT060 BKN250 06/00 A3048 RMK AO2 SLP320 T00560000 10083 20056 53005 $ (RG)","FM-15","7",,,,,,,,,,,,,,,,,,,,,,,,,,,,"2009-05-01"
"74486094789","2020-02-09T19:00:00","FM-12","4",,"ESE","1.5","mi","TEMP, PRECIP, SNOW",,,"PSY, SRG, SNOWBOARD",,,"FAA CWO",,,,,,,,,,,,,,,,,,,,,,,,,,,,"32","42",,,"-0.01","3","68","30.47","57","30.45","9.94","38","190",,"18",,,,,,,,,,,,,,,,,,,,,,,,,,,,,,,,,,,,,"SYN08074486 32766 61916 10056 20000 30310 40320 53005 92351 333 10083 21016 555 91000=","FM-12","4",,,,,,,,,,,,,,,,,,,,,,,,,,,,"2009-05-01"
"74486094789","2020-02-09T19:51:00","FM-15","7",,"ESE","1.5","mi","TEMP, PRECIP, SNOW",,,"PSY, SRG, SNOWBOARD",,,"FAA CWO",,,,,,,,,,,,,,,,,,,,,,,,,,,"30.46","33","42","0.00",,,,"71","30.46","SCT:04 55 BKN:07 200","30.43","10.00","38","200",,"15",,,,,,,,,,,,,,,,,,,,,,,,,,,,,,,,,,,,,"MET10202/09/20 19:51:01 METAR KJFK 100051Z 20013KT 10SM SCT055 BKN200 06/01 A3046 RMK AO2 SLP315 T00560006 $","FM-15","7",,,,,,,,,,,,,,,,,,,,,,,,,,,,"2009-05-01"
"74486094789","2020-02-09T20:51:00","FM-15","7",,"ESE","1.5","mi","TEMP, PRECIP, SNOW",,,"PSY, SRG, SNOWBOARD",,,"FAA CWO",,,,,,,,,,,,,,,,,,,,,,,,,,,"30.45","31","42","0.00",,,,"65","30.45","SCT:04 55 BKN:07 200","30.42","10.00","38","200",,"18",,,,,,,,,,,,,,,,,,,,,,,,,,,,,,,,,,,,,"MET10302/09/20 20:51:01 METAR KJFK 100151Z 20016KT 10SM SCT055 BKN200 06/M01 A3045 RMK AO2 SLP310 T00561006 $","FM-15","7",,,,,,,,,,,,,,,,,,,,,,,,,,,,"2009-05-01"
"74486094789","2020-02-09T21:51:00","FM-15","7",,"ESE","1.5","mi","TEMP, PRECIP, SNOW",,,"PSY, SRG, SNOWBOARD",,,"FAA CWO",,,,,,,,,,,,,,,,,,,,,,,,,,,"30.44","28","41","0.00",,"+0.04","6","60","30.44","FEW:02 130 BKN:07 200","30.42","10.00","36","210",,"17",,,,,,,,,,,,,,,,,,,,,,,,,,,,,,,,,,,,,"MET10902/09/20 21:51:01 METAR KJFK 100251Z 21015KT 10SM FEW130 BKN200 05/M02 A3044 RMK AO2 SLP308 T00501022 56012 $","FM-15","7",,,,,,,,,,,,,,,,,,,,,,,,,,,,"2009-05-01"
"74486094789","2020-02-09T22:00:00","FM-12","4",,"ESE","1.5","mi","TEMP, PRECIP, SNOW",,,"PSY, SRG, SNOWBOARD",,,"FAA CWO",,,,,,,,,,,,,,,,,,,,,,,,,,,,"28","41",,,"+0.04","6","60","30.44",,"30.41","9.94","36","210",,"17",,,,,,,,,,,,,,,,,,,,,,,,,,,,,,,,,,,,,"SYN06474486 32966 62115 10050 21022 30297 40308 56012 90251 555 91003=","FM-12","4",,,,,,,,,,,,,,,,,,,,,,,,,,,,"2009-05-01"
"74486094789","2020-02-09T22:51:00","FM-15","7",,"ESE","1.5","mi","TEMP, PRECIP, SNOW",,,"PSY, SRG, SNOWBOARD",,,"FAA CWO",,,,,,,,,,,,,,,,,,,,,,,,,,,"30.41","27","41","0.00",,,,"57","30.40","OVC:08 130","30.38","10.00","36","200",,"15",,,,,,,,,,,,,,,,,,,,,,,,,,,,,,,,,,,,,"MET09602/09/20 22:51:01 METAR KJFK 100351Z 20013KT 10SM OVC130 05/M03 A3041 RMK AO2 SLP296 T00501028 $","FM-15","7",,,,,,,,,,,,,,,,,,,,,,,,,,,,"2009-05-01"
"74486094789","2020-02-09T23:51:00","FM-15","7",,"ESE","1.5","mi","TEMP, PRECIP, SNOW",,,"PSY, SRG, SNOWBOARD",,,"FAA CWO",,,,,,,,,,,,,,,,,,,,,,,,,,,"30.38","31","42","0.00",,,,"65","30.38","OVC:08 100","30.35","10.00","38","200",,"16",,,,,,,,,,,,,,,,,,,,,,,,,,,,,,,,,,,,,"MET10602/09/20 23:51:02 METAR KJFK 100451Z 20014KT 10SM OVC100 06/M01 A3038 RMK AO2 SLP287 T00561006 400831017 $","FM-15","7",,,,,,,,,,,,,,,,,,,,,,,,,,,,"2009-05-01"
"74486094789","2020-02-09T23:59:00","SOD  ","6",,"ESE","1.5","mi","TEMP, PRECIP, SNOW",,,"PSY, SRG, SNOWBOARD",,,"FAA CWO",,,,"29","38","69","30.46","30.43","35","10.8","0","4.0","27","47","29","190","27","0.00","0","0.0","190","23",,,,,,,,,,,,,,,,,,,,,,,,,,,,,,,,,,,,,,,,,,,,,,,,,,,,,,,,,"SOD73924 HR PRECIPITATION (IN): 0.00 SNOW DEPTH (IN):0     24 HR SNOWFALL (IN):0.0  24 HR MAX TEMP (F): 4724 HR MIN TEMP (F): 29AVERAGE STATION PRESSURE:30.435 MINIMUM SEA LEVEL PRESSURE:30.37 TIME OF OCCURRENCE:2359 PEAK WIND SPEED (MPH): 27 PEAK WIND DIR (DEG):190 PEAK WIND TIME (LST):      FASTEST 2MIN SPEED (MPH): 23FASTEST 2MIN DIR (DEG):190 FASTEST 2MIN TIME (LST):     AVERAGE WIND SPEED (MPH):10.8 24 HR AVG TEMP (F): 38DEPART FROM NORMAL:  4  HEATING DEGREE DAYS: 27 COOLING DEGREE DAYS:  0 LATEST DAY MAX TEMP (0700-1900 LST):47  LATEST NIGHT MIN TEMP(1900-0800 LST):29 HOURLY INCREMENTAL PRECIPITATION VALUES (IN):.00 0.00 0.00 0.00 0.00 0.00 0.00 0.00 0.00 0.00 0.00 0.00 0.00 0.00 0.00 0.00 0.00 0.00 0.00 0.00 0.00 0.00 0.00 0.00","SOD  ","6",,,,,,,,,,,,,,,,,,,,,,,,,"0657","1723",,"2009-05-01"
"74486094789","2020-02-10T00:51:00","FM-15","7",,"ESE","1.5","mi","TEMP, PRECIP, SNOW",,,"PSY, SRG, SNOWBOARD",,,"FAA CWO",,,,,,,,,,,,,,,,,,,,,,,,,,,"30.35","36","42","0.00",,"+0.09","6","79","30.35","SCT:04 55 OVC:08 95","30.32","10.00","39","190",,"15",,,,,,,,,,,,,,,,,,,,,,,,,,,,,,,,,,,,,"MET12502/10/20 00:51:02 METAR KJFK 100551Z 19013KT 10SM SCT055 OVC095 06/02 A3035 RMK AO2 SLP278 T00560022 10056 20050 56030 $ (JC)","FM-15","7",,,,,,,,,,,,,,,,,,,,,,,,,,,,"2009-05-01"
"74486094789","2020-02-10T01:00:00","FM-12","4",,"ESE","1.5","mi","TEMP, PRECIP, SNOW",,,"PSY, SRG, SNOWBOARD",,,"FAA CWO",,,,,,,,,,,,,,,,,,,,,,,,,,,,"36","42",,,"+0.09","6","79","30.35","57","30.32","9.94","39","190",,"15",,,,,,,,,,,,,,,,,,,,,,,,,,,,,,,,,,,,,"SYN08074486 32766 81913 10056 20022 30266 40278 56030 90551 333 10056 21016 555 91006=","FM-12","4",,,,,,,,,,,,,,,,,,,,,,,,,,,,"2009-05-01"
"74486094789","2020-02-10T01:51:00","FM-15","7",,"ESE","1.5","mi","TEMP, PRECIP, SNOW",,,"PSY, SRG, SNOWBOARD",,,"FAA CWO",,,,,,,,,,,,,,,,,,,,,,,,,,,"30.34","37","43","0.00",,,,"80","30.34","OVC:08 80","30.32","10.00","40","190",,"16",,,,,,,,,,,,,,,,,,,,,,,,,,,,,,,,,,,,,"MET10002/10/20 01:51:02 METAR KJFK 100651Z 19014KT 10SM OVC080 06/03 A3034 RMK AO2 SLP273 T00610028 $ (JC)","FM-15","7",,,,,,,,,,,,,,,,,,,,,,,,,,,,"2009-05-01"
"74486094789","2020-02-10T02:51:00","FM-15","7",,"ESE","1.5","mi","TEMP, PRECIP, SNOW",,,"PSY, SRG, SNOWBOARD",,,"FAA CWO",,,,,,,,,,,,,,,,,,,,,,,,,,,"30.31","38","43","0.00",,,,"82","30.31","BKN:07 75 OVC:08 90","30.29","10.00","41","190","24","17",,,,,,,,,,,,,,,,,,,,,,,,,,,,,,,,,,,,,"MET11002/10/20 02:51:02 METAR KJFK 100751Z 19015G21KT 10SM BKN075 OVC090 06/03 A3031 RMK AO2 SLP263 T00610033 $ (JC)","FM-15","7",,,,,,,,,,,,,,,,,,,,,,,,,,,,"2009-05-01"
"74486094789","2020-02-10T03:51:00","FM-15","7",,"ESE","1.5","mi","TEMP, PRECIP, SNOW",,,"PSY, SRG, SNOWBOARD",,,"FAA CWO",,,,,,,,,,,,,,,,,,,,,,,,,,,"30.29","38","43","0.00",,"+0.06","8","82","30.28","OVC:08 90","30.27","10.00","41","190",,"20",,,,,,,,,,,,,,,,,,,,,,,,,,,,,,,,,,,,,"MET10602/10/20 03:51:02 METAR KJFK 100851Z 19017KT 10SM OVC090 06/03 A3029 RMK AO2 SLP255 T00610033 58022 $ (JC)","FM-15","7",,,,,,,,,,,,,,,,,,,,,,,,,,,,"2009-05-01"
"74486094789","2020-02-10T04:00:00","FM-12","4",,"ESE","1.5","mi","TEMP, PRECIP, SNOW",,,"PSY, SRG, SNOWBOARD",,,"FAA CWO",,,,,,,,,,,,,,,,,,,,,,,,,,,,"38","43",,,"+0.06","8","82","30.28",,"30.26","9.94","41","190",,"20",,,,,,,,,,,,,,,,,,,,,,,,,,,,,,,,,,,,,"SYN06474486 32966 81917 10061 20033 30246 40255 58022 90851 555 91009=","FM-12","4",,,,,,,,,,,,,,,,,,,,,,,,,,,,"2009-05-01"
"74486094789","2020-02-10T04:51:00","FM-15","7",,"ESE","1.5","mi","TEMP, PRECIP, SNOW",,,"PSY, SRG, SNOWBOARD",,,"FAA CWO",,,,,,,,,,,,,,,,,,,,,,,,,,,"30.26","37","43","0.00",,,,"80","30.26","OVC:08 55","30.24","10.00","40","190",,"15",,,,,,,,,,,,,,,,,,,,,,,,,,,,,,,,,,,,,"MET10002/10/20 04:51:02 METAR KJFK 100951Z 19013KT 10SM OVC055 06/03 A3026 RMK AO2 SLP247 T00610028 $ (JC)","FM-15","7",,,,,,,,,,,,,,,,,,,,,,,,,,,,"2009-05-01"
"74486094789","2020-02-10T05:51:00","FM-15","7",,"ESE","1.5","mi","TEMP, PRECIP, SNOW",,,"PSY, SRG, SNOWBOARD",,,"FAA CWO",,,,,,,,,,,,,,,,,,,,,,,,,,,"30.23","37","43","T","-RA:02 |RA |RA",,,"80","30.23","OVC:08 60","30.21","10.00","40","190",,"17",,,,,,,,,,,,,,,,,,,,,,,,,,,,,,,,,,,,,"MET11602/10/20 05:51:02 METAR KJFK 101051Z 19015KT 10SM -RA OVC060 06/03 A3023 RMK AO2 RAB45 SLP236 P0000 T00610028 $ (JC)","FM-15","7",,,,,,,,,,,,,,,,,,,,,,,,,,,,"2009-05-01"
"74486094789","2020-02-10T06:51:00","FM-15","7",,"ESE","1.5","mi","TEMP, PRECIP, SNOW",,,"PSY, SRG, SNOWBOARD",,,"FAA CWO",,,,,,,,,,,,,,,,,,,,,,,,,,,"30.21","39","43","0.03s","-RA:02 |RA |RA","+0.08","6","86","30.21","FEW:02 37 BKN:07 60 OVC:08 160","30.19","10.00","41","190",,"18",,,,,,,,,,,,,,,,,,,,,,,,,,,,,,,,,,,,,"MET15402/10/20 06:51:02 METAR KJFK 101151Z 19016KT 10SM -RA FEW037 BKN060 OVC160 06/04 A3021 RMK AO2 SLP229 P0002 60002 70002 T00610039 10061 20056 56027 $ (BH)","FM-15","7",,,,,,,,,,,,,,,,,,,,,,,,,,,,"2009-05-01"
"74486094789","2020-02-10T07:00:00","FM-12","4",,"ESE","1.5","mi","TEMP, PRECIP, SNOW",,,"PSY, SRG, SNOWBOARD",,,"FAA CWO",,,,,,,,,,,,,,,,,,,,,,,,,,,,"39","43",,"||RA","+0.08","6","86","30.21","41","30.18","9.94","41","190",,"18",,,,,,,,,,,,,,,,,,,,,,,,,,,,,,,,,,,,,"SYN09874486 11666 81916 10061 20039 30219 40229 56027 69951 761// 91151 333 10083 20050 70005 555 91012=","FM-12","4",,,,,,,,,,,,,,,,,,,,,,,,,,,,"2009-05-01"
"74486094789","2020-02-10T07:51:00","FM-15","7",,"ESE","1.5","mi","TEMP, PRECIP, SNOW",,,"PSY, SRG, SNOWBOARD",,,"FAA CWO",,,,,,,,,,,,,,,,,,,,,,,,,,,"30.19","40","43","0.03","-RA:02 |RA |RA",,,"89","30.19","BKN:07 65 OVC:08 130","30.16","9.00","42","190",,"21",,,,,,,,,,,,,,,,,,,,,,,,,,,,,,,,,,,,,"MET11602/10/20 07:51:02 METAR KJFK 101251Z 19018KT 9SM -RA BKN065 OVC130 06/04 A3019 RMK AO2 SLP222 P0003 T00610044 $ (BH)","FM-15","7",,,,,,,,,,,,,,,,,,,,,,,,,,,,"2009-05-01"
"74486094789","2020-02-10T08:51:00","FM-15","7",,"ESE","1.5","mi","TEMP, PRECIP, SNOW",,,"PSY, SRG, SNOWBOARD",,,"FAA CWO",,,,,,,,,,,,,,,,,,,,,,,,,,,"30.18","40","44","0.01","-RA:02 |RA |RA",,,"85","30.18","FEW:02 55 OVC:08 80","30.16","10.00","42","190",,"17",,,,,,,,,,,,,,,,,,,,,,,,,,,,,,,,,,,,,"MET11702/10/20 08:51:02 METAR KJFK 101351Z 19015KT 10SM -RA FEW055 OVC080 07/04 A3018 RMK AO2 SLP219 P0002 T00670044 $ (BH)","FM-15","7",,,,,,,,,,,,,,,,,,,,,,,,,,,,"2009-05-01"
"74486094789","2020-02-10T09:51:00","FM-15","7",,"ESE","1.5","mi","TEMP, PRECIP, SNOW",,,"PSY, SRG, SNOWBOARD",,,"FAA CWO",,,,,,,,,,,,,,,,,,,,,,,,,,,"30.16","38","44","T",,"+0.04","6","79","30.16","BKN:07 60 BKN:07 110 BKN:07 200","30.14","10.00","41","210",,"13",,,,,,,,,,,,,,,,,,,,,,,,,,,,,,,,,,,,,"MET13602/10/20 09:51:02 METAR KJFK 101451Z 21011KT 10SM BKN060 BKN110 BKN200 07/03 A3016 RMK AO2 RAE02 SLP214 P0000 60005 T00670033 56015 (BH)","FM-15","7",,,,,,,,,,,,,,,,,,,,,,,,,,,,"2009-05-01"
"74486094789","2020-02-10T10:00:00","FM-12","4",,"ESE","1.5","mi","TEMP, PRECIP, SNOW",,,"PSY, SRG, SNOWBOARD",,,"FAA CWO",,,,,,,,,,,,,,,,,,,,,,,,,,,,"38","44",,,"+0.04","6","79","30.16","57","30.13","9.94","41","210",,"13",,,,,,,,,,,,,,,,,,,,,,,,,,,,,,,,,,,,,"SYN07074486 12766 62111 10067 20033 30202 40214 56015 60017 91451 555 91015=","FM-12","4",,,,,,,,,,,,,,,,,,,,,,,,,,,,"2009-05-01"
"74486094789","2020-02-10T10:51:00","FM-15","7",,"ESE","1.5","mi","TEMP, PRECIP, SNOW",,,"PSY, SRG, SNOWBOARD",,,"FAA CWO",,,,,,,,,,,,,,,,,,,,,,,,,,,"30.15","38","46","0.00",,,,"73","30.15","FEW:02 23 BKN:07 49 BKN:07 70","30.12","10.00","42","220",,"14",,,,,,,,,,,,,,,,,,,,,,,,,,,,,,,,,,,,,"MET10702/10/20 10:51:02 METAR KJFK 101551Z 22012KT 10SM FEW023 BKN049 BKN070 08/03 A3015 RMK AO2 SLP209 T00780033","FM-15","7",,,,,,,,,,,,,,,,,,,,,,,,,,,,"2009-05-01"
"74486094789","2020-02-10T11:51:00","FM-15","7",,"ESE","1.5","mi","TEMP, PRECIP, SNOW",,,"PSY, SRG, SNOWBOARD",,,"FAA CWO",,,,,,,,,,,,,,,,,,,,,,,,,,,"30.11","38","47","T",,,,"71","30.11","FEW:02 25 SCT:04 70 BKN:07 100","30.09","10.00","43","230",,"13",,,,,,,,,,,,,,,,,,,,,,,,,,,,,,,,,,,,,"MET11602/10/20 11:51:02 METAR KJFK 101651Z 23011KT 10SM FEW025 SCT070 BKN100 08/03 A3011 RMK AO2 PRESFR SLP196 T00830033 $","FM-15","7",,,,,,,,,,,,,,,,,,,,,,,,,,,,"2009-05-01"
"74486094789","2020-02-10T12:51:00","FM-15","7",,"ESE","1.5","mi","TEMP, PRECIP, SNOW",,,"PSY, SRG, SNOWBOARD",,,"FAA CWO",,,,,,,,,,,,,,,,,,,,,,,,,,,"30.10","40","46","T","-RA:02 |RA |RA","+0.06","6","79","30.10","FEW:02 25 OVC:08 85","30.08","10.00","43","250",,"10",,,,,,,,,,,,,,,,,,,,,,,,,,,,,,,,,,,,,"MET15002/10/20 12:51:02 METAR KJFK 101751Z 25009KT 10SM -RA FEW025 OVC085 08/04 A3010 RMK AO2 RAB1656E04B40 SLP192 P0000 60005 T00780044 10083 20061 56022 $","FM-15","7",,,,,,,,,,,,,,,,,,,,,,,,,,,,"2009-05-01"
"74486094789","2020-02-10T13:00:00","FM-12","4",,"ESE","1.5","mi","TEMP, PRECIP, SNOW",,,"PSY, SRG, SNOWBOARD",,,"FAA CWO",,,,,,,,,,,,,,,,,,,,,,,,,,,,"40","46",,"||RA","+0.06","6","79","30.10","26","30.07","9.94","43","250",,"10",,,,,,,,,,,,,,,,,,,,,,,,,,,,,,,,,,,,,"SYN09274486 11566 82509 10078 20044 30182 40192 56022 60011 761// 91751 333 10083 20056 555 91018=","FM-12","4",,,,,,,,,,,,,,,,,,,,,,,,,,,,"2009-05-01"
"74486094789","2020-02-10T13:51:00","FM-15","7",,"ESE","1.5","mi","TEMP, PRECIP, SNOW",,,"PSY, SRG, SNOWBOARD",,,"FAA CWO",,,,,,,,,,,,,,,,,,,,,,,,,,,"30.10","42","45","0.05","-RA:02 |RA |RA",,,"90","30.10","FEW:02 25 OVC:08 75","30.08","10.00","44","240",,"15",,,,,,,,,,,,,,,,,,,,,,,,,,,,,,,,,,,,,"MET11202/10/20 13:51:02 METAR KJFK 101851Z 24013KT 10SM -RA FEW025 OVC075 07/06 A3010 RMK AO2 SLP193 P0004 T00720056 $","FM-15","7",,,,,,,,,,,,,,,,,,,,,,,,,,,,"2009-05-01"
"74486094789","2020-02-10T14:51:00","FM-15","7",,"ESE","1.5","mi","TEMP, PRECIP, SNOW",,,"PSY, SRG, SNOWBOARD",,,"FAA CWO",,,,,,,,,,,,,,,,,,,,,,,,,,,"30.11","42","44","0.05","-RA:02 |RA |RA",,,"93","30.11","FEW:02 25 FEW:02 45 OVC:08 70","30.09","8.00","43","240",,"16",,,,,,,,,,,,,,,,,,,,,,,,,,,,,,,,,,,,,"MET11802/10/20 14:51:02 METAR KJFK 101951Z 24014KT 8SM -RA FEW025 FEW045 OVC070 07/06 A3011 RMK AO2 SLP195 P0005 T00670056 $","FM-15","7",,,,,,,,,,,,,,,,,,,,,,,,,,,,"2009-05-01"
"74486094789","2020-02-10T15:51:00","FM-15","7",,"ESE","1.5","mi","TEMP, PRECIP, SNOW",,,"PSY, SRG, SNOWBOARD",,,"FAA CWO",,,,,,,,,,,,,,,,,,,,,,,,,,,"30.12","42","44","0.04","-RA:02 |RA |RA","-0.02","3","93","30.11","FEW:02 25 SCT:04 70 OVC:08 85","30.09","9.00","43","230",,"11",,,,,,,,,,,,,,,,,,,,,,,,,,,,,,,,,,,,,"MET13002/10/20 15:51:02 METAR KJFK 102051Z 23010KT 9SM -RA FEW025 SCT070 OVC085 07/06 A3012 RMK AO2 SLP198 P0004 60013 T00670056 53006 $","FM-15","7",,,,,,,,,,,,,,,,,,,,,,,,,,,,"2009-05-01"
"74486094789","2020-02-10T16:00:00","FM-12","4",,"ESE","1.5","mi","TEMP, PRECIP, SNOW",,,"PSY, SRG, SNOWBOARD",,,"FAA CWO",,,,,,,,,,,,,,,,,,,,,,,,,,,,"42","44",,"||RA","-0.02","3","93","30.11","26","30.09","8.70","43","230",,"11",,,,,,,,,,,,,,,,,,,,,,,,,,,,,,,,,,,,,"SYN07674486 11564 82310 10067 20056 30188 40198 53006 60037 761// 92051 555 91021=","FM-12","4",,,,,,,,,,,,,,,,,,,,,,,,,,,,"2009-05-01"
"74486094789","2020-02-10T16:51:00","FM-15","7",,"ESE","1.5","mi","TEMP, PRECIP, SNOW",,,"PSY, SRG, SNOWBOARD",,,"FAA CWO",,,,,,,,,,,,,,,,,,,,,,,,,,,"30.12","42","44","0.05","RA:02 BR:1 |RA |RA",,,"93","30.12","SCT:04 11 BKN:07 46 OVC:08 60","30.09","6.00","43","240",,"15",,,,,,,,,,,,,,,,,,,,,,,,,,,,,,,,,,,,,"MET12002/10/20 16:51:02 METAR KJFK 102151Z 24013KT 6SM RA BR SCT011 BKN046 OVC060 07/06 A3012 RMK AO2 SLP199 P0005 T00670056 $","FM-15","7",,,,,,,,,,,,,,,,,,,,,,,,,,,,"2009-05-01"
"74486094789","2020-02-10T17:51:00","FM-15","7",,"ESE","1.5","mi","TEMP, PRECIP, SNOW",,,"PSY, SRG, SNOWBOARD",,,"FAA CWO",,,,,,,,,,,,,,,,,,,,,,,,,,,"30.14","42","44","0.02","-RA:02 |RA |RA",,,"93","30.13","SCT:04 11 BKN:07 65 OVC:08 80","30.11","9.00","43","240",,"14",,,,,,,,,,,,,,,,,,,,,,,,,,,,,,,,,,,,,"MET11802/10/20 17:51:02 METAR KJFK 102251Z 24012KT 9SM -RA SCT011 BKN065 OVC080 07/06 A3014 RMK AO2 SLP204 P0003 T00670056 $","FM-15","7",,,,,,,,,,,,,,,,,,,,,,,,,,,,"2009-05-01"
"74486094789","2020-02-10T18:51:00","FM-15","7",,"ESE","1.5","mi","TEMP, PRECIP, SNOW",,,"PSY, SRG, SNOWBOARD",,,"FAA CWO",,,,,,,,,,,,,,,,,,,,,,,,,,,"30.15","42","43","0.03","-RA:02 |RA |RA","-0.03","3","97","30.14","SCT:04 11 BKN:07 37 OVC:08 70","30.12","8.00","43","230",,"11",,,,,,,,,,,,,,,,,,,,,,,,,,,,,,,,,,,,,"MET14202/10/20 18:51:02 METAR KJFK 102351Z 23010KT 8SM -RA SCT011 BKN037 OVC070 06/06 A3015 RMK AO2 SLP208 P0003 60024 T00610056 10078 20061 53010 $","FM-15","7",,,,,,,,,,,,,,,,,,,,,,,,,,,,"2009-05-01"
"74486094789","2020-02-10T19:00:00","FM-12","4",,"ESE","1.5","mi","TEMP, PRECIP, SNOW",,,"PSY, SRG, SNOWBOARD",,,"FAA CWO",,,,,,,,,,,,,,,,,,,,,,,,,,,,"42","43",,"||RA","-0.03","3","97","30.14","15","30.12","7.46","43","230",,"11",,,,,,,,,,,,,,,,,,,,,,,,,,,,,,,,,,,,,"SYN09274486 11462 82310 10061 20056 30199 40208 53010 60061 761// 92351 333 10083 20056 555 91100=","FM-12","4",,,,,,,,,,,,,,,,,,,,,,,,,,,,"2009-05-01"
"74486094789","2020-02-10T19:48:00","FM-16","7",,"ESE","1.5","mi","TEMP, PRECIP, SNOW",,,"PSY, SRG, SNOWBOARD",,,"FAA CWO",,,,,,,,,,,,,,,,,,,,,,,,,,,"30.15","43","45","0.01","-RA:02 |RA |RA",,,"93",,"BKN:07 10 BKN:07 39 OVC:08 80","30.12","8.00","44","240",,"11",,,,,,,,,,,,,,,,,,,,,,,,,,,,,,,,,,,,,"MET10102/10/20 19:48:01 SPECI KJFK 110048Z 24010KT 8SM -RA BKN010 BKN039 OVC080 07/06 A3015 RMK AO2 P0001 $","FM-16","7",,,,,,,,,,,,,,,,,,,,,,,,,,,,"2009-05-01"
"74486094789","2020-02-10T19:51:00","FM-15","7",,"ESE","1.5","mi","TEMP, PRECIP, SNOW",,,"PSY, SRG, SNOWBOARD",,,"FAA CWO",,,,,,,,,,,,,,,,,,,,,,,,,,,"30.15","42","44","0.01","-RA:02 |RA |RA",,,"93","30.14","BKN:07 10 BKN:07 39 OVC:08 80","30.12","8.00","43","230",,"10",,,,,,,,,,,,,,,,,,,,,,,,,,,,,,,,,,,,,"MET11802/10/20 19:51:01 METAR KJFK 110051Z 23009KT 8SM -RA BKN010 BKN039 OVC080 07/06 A3015 RMK AO2 SLP208 P0001 T00670056 $","FM-15","7",,,,,,,,,,,,,,,,,,,,,,,,,,,,"2009-05-01"
"74486094789","2020-02-10T20:51:00","FM-15","7",,"ESE","1.5","mi","TEMP, PRECIP, SNOW",,,"PSY, SRG, SNOWBOARD",,,"FAA CWO",,,,,,,,,,,,,,,,,,,,,,,,,,,"30.15","42","44","T","-DZ:01 BR:1 |DZ |DZ",,,"93","30.15","BKN:07 10 OVC:08 34","30.12","6.00","43","220",,"8",,,,,,,,,,,,,,,,,,,,,,,,,,,,,,,,,,,,,"MET12502/10/20 20:51:01 METAR KJFK 110151Z 22007KT 6SM -DZ BR BKN010 OVC034 07/06 A3015 RMK AO2 RAE08DZB47 SLP210 P0000 T00670056 $","FM-15","7",,,,,,,,,,,,,,,,,,,,,,,,,,,,"2009-05-01"
"74486094789","2020-02-10T21:39:00","FM-16","7",,"ESE","1.5","mi","TEMP, PRECIP, SNOW",,,"PSY, SRG, SNOWBOARD",,,"FAA CWO",,,,,,,,,,,,,,,,,,,,,,,,,,,"30.16","42","44","0.03","-RA:02 BR:1 |RA |RA",,,"93",,"OVC:08 9","30.14","5.00","43","230",,"5",,,,,,,,,,,,,,,,,,,,,,,,,,,,,,,,,,,,,"MET12302/10/20 21:39:01 SPECI KJFK 110239Z 23004KT 5SM -RA BR OVC009 07/06 A3016 RMK AO2 VIS 2 1/2 W DZE06RAB06 P0003 T00670056 $","FM-16","7",,,,,,,,,,,,,,,,,,,,,,,,,,,,"2009-05-01"
"74486094789","2020-02-10T21:51:00","FM-15","7",,"ESE","1.5","mi","TEMP, PRECIP, SNOW",,,"PSY, SRG, SNOWBOARD",,,"FAA CWO",,,,,,,,,,,,,,,,,,,,,,,,,,,"30.16","43","44","0.04","-RA:02 BR:1 |RA |RA","-0.01","3","96","30.15","OVC:08 8","30.14","5.00","44","220",,"6",,,,,,,,,,,,,,,,,,,,,,,,,,,,,,,,,,,,,"MET14202/10/20 21:51:01 METAR KJFK 110251Z 22005KT 5SM -RA BR OVC008 07/06 A3016 RMK AO2 VIS 2 1/2 W DZE06RAB06 SLP211 P0003 60004 T00670061 53003 $","FM-15","7",,,,,,,,,,,,,,,,,,,,,,,,,,,,"2009-05-01"
"74486094789","2020-02-10T22:00:00","FM-12","4",,"ESE","1.5","mi","TEMP, PRECIP, SNOW",,,"PSY, SRG, SNOWBOARD",,,"FAA CWO",,,,,,,,,,,,,,,,,,,,,,,,,,,,"43","44",,"||RA","-0.01","3","96","30.15","8","30.13","4.97","44","220",,"6",,,,,,,,,,,,,,,,,,,,,,,,,,,,,,,,,,,,,"SYN08674486 11358 82205 10067 20061 30202 40211 53003 60017 761// 90251 333 96010 555 91103=","FM-12","4",,,,,,,,,,,,,,,,,,,,,,,,,,,,"2009-05-01"
"74486094789","2020-02-10T22:49:00","FM-16","6",,"ESE","1.5","mi","TEMP, PRECIP, SNOW",,,"PSY, SRG, SNOWBOARD",,,"FAA CWO",,,,,,,,,,,,,,,,,,,,,,,,,,,"30.14","43","43",,"-RA:02 BR:1 |RA |RA",,,"100",,"SCT:04 7 OVC:08 38","30.11","4.00","43","000",,"0",,,,,,,,,,,,,,,,,,,,,,,,,,,,,,,,,,,,,"MET10702/10/20 22:49:03 SPECI KJFK 110349Z 00000KT 4SM -RA BR SCT007 OVC038 06/06 A3014 RMK AO2 P0003 $ FIBI (JC)","FM-16","6",,,,,,,,,,,,,,,,,,,,,,,,,,,,"2009-05-01"
"74486094789","2020-02-10T22:51:00","FM-15","7",,"ESE","1.5","mi","TEMP, PRECIP, SNOW",,,"PSY, SRG, SNOWBOARD",,,"FAA CWO",,,,,,,,,,,,,,,,,,,,,,,,,,,"30.14","42","43","0.02","-RA:02 BR:1 |RA |RA",,,"97","30.14","SCT:04 7 OVC:08 38","30.11","4.00","43","000",,"0",,,,,,,,,,,,,,,,,,,,,,,,,,,,,,,,,,,,,"MET11402/10/20 22:51:01 METAR KJFK 110351Z 00000KT 4SM -RA BR SCT007 OVC038 06/06 A3014 RMK AO2 SLP206 P0003 T00610056 $","FM-15","7",,,,,,,,,,,,,,,,,,,,,,,,,,,,"2009-05-01"
"74486094789","2020-02-10T23:51:00","FM-15","7",,"ESE","1.5","mi","TEMP, PRECIP, SNOW",,,"PSY, SRG, SNOWBOARD",,,"FAA CWO",,,,,,,,,,,,,,,,,,,,,,,,,,,"30.11","43","43","T","BR:1 ||",,,"100","30.11","FEW:02 7 OVC:08 36","30.09","4.00","43","130",,"5",,,,,,,,,,,,,,,,,,,,,,,,,,,,,,,,,,,,,"MET13402/10/20 23:51:01 METAR KJFK 110451Z 13004KT 4SM BR FEW007 OVC036 06/06 A3011 RMK AO2 RAE0355B39E48 SLP195 P0000 T00610061 400830056 $","FM-15","7",,,,,,,,,,,,,,,,,,,,,,,,,,,,"2009-05-01"
"74486094789","2020-02-10T23:59:00","SOD  ","6",,"ESE","1.5","mi","TEMP, PRECIP, SNOW",,,"PSY, SRG, SNOWBOARD",,,"FAA CWO",,,,"40","45","87","30.18","30.15","42","13.2","0","10.9","20","47","42","180","27","0.38","0","0.0","190","23","RA DZ BR",,,,,,,,,,,,,,,,,,,,,,,,,,,,,,,,,,,,,,,,,,,,,,,,,,,,,,,,"SOD78324 HR PRECIPITATION (IN): 0.38 SNOW DEPTH (IN):0     24 HR SNOWFALL (IN):0.0  WEATHER(CODE):1  24 HR MAX TEMP (F): 4724 HR MIN TEMP (F): 42AVERAGE STATION PRESSURE(D):30.153 MINIMUM SEA LEVEL PRESSURE:30.10 TIME OF OCCURRENCE:2359 PEAK WIND SPEED (MPH): 27 PEAK WIND DIR (DEG):180 PEAK WIND TIME (LST):      FASTEST 2MIN SPEED (MPH): 23FASTEST 2MIN DIR (DEG):190 FASTEST 2MIN TIME (LST):     AVERAGE WIND SPEED (MPH):13.2 24 HR AVG TEMP (F): 45DEPART FROM NORMAL: 11  SKY COVER SR-SS (TENTHS): 1HEATING DEGREE DAYS: 20 COOLING DEGREE DAYS:  0 LATEST DAY MAX TEMP (0700-1900 LST): 47 LATEST NIGHT MIN TEMP(1900-0800 LST):41 HOURLY INCREMENTAL PRECIPITATION VALUES (IN):0.00 0.00 0.00 0.00 0.00T     0.03 0.03 0.01T     0.00T    T     0.05 0.05 0.04 0.05 0.02 0.03 0.01T     0.04 0.02T","SOD  ","6",,,,,,,,,,,,,,,,,,,,,,,,,"0656","1724",,"2009-05-01"
"74486094789","2020-02-11T00:49:00","FM-16","6",,"ESE","1.5","mi","TEMP, PRECIP, SNOW",,,"PSY, SRG, SNOWBOARD",,,"FAA CWO",,,,,,,,,,,,,,,,,,,,,,,,,,,"30.10","43","43",,"-RA:02 BR:1 |s RA s |RA s",,,"100",,"BKN:07 4 OVC:08 32","30.08","0.50","43","170",,"8",,,,,,,,,,,,,,,,,,,,,,,,,,,,,,,,,,,,,"MET13802/11/20 00:49:02 SPECI KJFK 110549Z 17007KT 1/2SM R04R/P6000FT -RA BR BKN004 OVC032 06/06 A3010 RMK AO2 SFC VIS 2 RAB22 P0001 $ FIBI (JC)","FM-16","6",,,,,,,,,,,,,,,,,,,,,,,,,,,,"2009-05-01"
"74486094789","2020-02-11T00:51:00","FM-15","7",,"ESE","1.5","mi","TEMP, PRECIP, SNOW",,,"PSY, SRG, SNOWBOARD",,,"FAA CWO",,,,,,,,,,,,,,,,,,,,,,,,,,,"30.10","43","43","0.01","-RA:02 BR:1 |s RA s |RA s","+0.06","6","100","30.10","BKN:07 4 OVC:08 32","30.08","0.50","43","170",,"8",,,,,,,,,,,,,,,,,,,,,,,,,,,,,,,,,,,,,"MET17402/11/20 00:51:02 METAR KJFK 110551Z 17007KT 1/2SM R04R/P6000FT -RA BR BKN004 OVC032 06/06 A3010 RMK AO2 SFC VIS 2 RAB22 SLP192 P0001 60008 T00610061 10067 20061 56019 $ (JC)","FM-15","7",,,,,,,,,,,,,,,,,,,,,,,,,,,,"2009-05-01"
"74486094789","2020-02-11T01:00:00","FM-12","4",,"ESE","1.5","mi","TEMP, PRECIP, SNOW",,,"PSY, SRG, SNOWBOARD",,,"FAA CWO",,,,,,,,,,,,,,,,,,,,,,,,,,,,"43","43",,"||RA","+0.06","6","100","30.10","5","30.07","0.50","43","170",,"8",,,,,,,,,,,,,,,,,,,,,,,,,,,,,,,,,,,,,"SYN09874486 11208 81707 10061 20061 30182 40192 56019 60021 761// 90551 333 10067 20056 96010 555 91106=","FM-12","4",,,,,,,,,,,,,,,,,,,,,,,,,,,,"2009-05-01"
"74486094789","2020-02-11T01:51:00","FM-15","7",,"ESE","1.5","mi","TEMP, PRECIP, SNOW",,,"PSY, SRG, SNOWBOARD",,,"FAA CWO",,,,,,,,,,,,,,,,,,,,,,,,,,,"30.10","43","44","0.01","-DZ:01 BR:1 |s DZ s |DZ s",,,"96","30.09","OVC:08 3","30.08","0.50","44","190",,"5",,,,,,,,,,,,,,,,,,,,,,,,,,,,,,,,,,,,,"MET14802/11/20 01:51:02 METAR KJFK 110651Z 19004KT 1/2SM R04R/P6000FT -DZ BR OVC003 07/06 A3010 RMK AO2 SFC VIS 3 RAE41DZB42 SLP191 P0001 T00670061 $ (JC)","FM-15","7",,,,,,,,,,,,,,,,,,,,,,,,,,,,"2009-05-01"
"74486094789","2020-02-11T02:51:00","FM-15","7",,"ESE","1.5","mi","TEMP, PRECIP, SNOW",,,"PSY, SRG, SNOWBOARD",,,"FAA CWO",,,,,,,,,,,,,,,,,,,,,,,,,,,"30.06","43","44","0.01","-DZ:01 BR:1 |s DZ s |DZ s",,,"96","30.06","BKN:07 3 OVC:08 28","30.03","0.50","44","100",,"3",,,,,,,,,,,,,,,,,,,,,,,,,,,,,,,,,,,,,"MET16902/11/20 02:51:02 METAR KJFK 110751Z 10003KT 1/2SM R04R/3000V4500FT -DZ BR BKN003 OVC028 07/06 A3006 RMK AO2 SFC VIS 1 1/2 DZE28B45RAB28E45 SLP178 P0001 T00670061 $ (JC)","FM-15","7",,,,,,,,,,,,,,,,,,,,,,,,,,,,"2009-05-01"
"74486094789","2020-02-11T03:51:00","FM-15","7",,"ESE","1.5","mi","TEMP, PRECIP, SNOW",,,"PSY, SRG, SNOWBOARD",,,"FAA CWO",,,,,,,,,,,,,,,,,,,,,,,,,,,"30.04","43","44","T","-DZ:01 BR:1 |s DZ s |DZ s","+0.06","8","96","30.03","OVC:08 3","30.01","0.50","44","130",,"3",,,,,,,,,,,,,,,,,,,,,,,,,,,,,,,,,,,,,"MET15302/11/20 03:51:02 METAR KJFK 110851Z 13003KT 1/2SM R04R/P6000FT -DZ BR OVC003 07/06 A3004 RMK AO2 SFC VIS 1 1/2 SLP171 P0000 60002 T00670061 58021 $ (JC)","FM-15","7",,,,,,,,,,,,,,,,,,,,,,,,,,,,"2009-05-01"
"74486094789","2020-02-11T04:00:00","FM-12","4",,"ESE","1.5","mi","TEMP, PRECIP, SNOW",,,"PSY, SRG, SNOWBOARD",,,"FAA CWO",,,,,,,,,,,,,,,,,,,,,,,,,,,,"43","44",,"||DZ","+0.06","8","96","30.03","2","30.01","0.50","44","130",,"3",,,,,,,,,,,,,,,,,,,,,,,,,,,,,,,,,,,,,"SYN08674486 11108 81303 10067 20061 30161 40171 58021 69957 751// 90851 333 96010 555 91109=","FM-12","4",,,,,,,,,,,,,,,,,,,,,,,,,,,,"2009-05-01"
"74486094789","2020-02-11T04:51:00","FM-15","7",,"ESE","1.5","mi","TEMP, PRECIP, SNOW",,,"PSY, SRG, SNOWBOARD",,,"FAA CWO",,,,,,,,,,,,,,,,,,,,,,,,,,,"30.02","43","44","0.04","-RA:02 BR:1 |s RA s |RA s",,,"96","30.02","OVC:08 2","30.00","0.50","44","070",,"3",,,,,,,,,,,,,,,,,,,,,,,,,,,,,,,,,,,,,"MET14802/11/20 04:51:02 METAR KJFK 110951Z 07003KT 1/2SM R04R/P6000FT -RA BR OVC002 07/06 A3002 RMK AO2 SFC VIS 2 DZE14RAB14 SLP166 P0003 T00670061 $ (JC)","FM-15","7",,,,,,,,,,,,,,,,,,,,,,,,,,,,"2009-05-01"
"74486094789","2020-02-11T05:51:00","FM-15","7",,"ESE","1.5","mi","TEMP, PRECIP, SNOW",,,"PSY, SRG, SNOWBOARD",,,"FAA CWO",,,,,,,,,,,,,,,,,,,,,,,,,,,"30.01","44","44","0.09","-RA:02 BR:1 |s RA s |RA s",,,"100","30.01","BKN:07 3 OVC:08 28","29.98","0.50","44","010",,"6",,,,,,,,,,,,,,,,,,,,,,,,,,,,,,,,,,,,,"MET14402/11/20 05:51:02 METAR KJFK 111051Z 01005KT 1/2SM R04R/P6000FT -RA BR BKN003 OVC028 07/07 A3001 RMK AO2 SFC VIS 4 SLP163 P0009 T00670067 $ (JC)","FM-15","7",,,,,,,,,,,,,,,,,,,,,,,,,,,,"2009-05-01"
"74486094789","2020-02-11T06:49:00","FM-16","6",,"ESE","1.5","mi","TEMP, PRECIP, SNOW",,,"PSY, SRG, SNOWBOARD",,,"FAA CWO",,,,,,,,,,,,,,,,,,,,,,,,,,,"30.00","45","45",,"-RA:02 BR:1 |RA |RA",,,"100",,"BKN:07 7 BKN:07 23 OVC:08 36","29.98","2.00","45","000",,"0",,,,,,,,,,,,,,,,,,,,,,,,,,,,,,,,,,,,,"MET12402/11/20 06:49:02 SPECI KJFK 111149Z 00000KT 2SM -RA BR BKN007 BKN023 OVC036 07/07 A3000 RMK AO2 SFC VIS 4 P0004 $ FIBI (BH)","FM-16","6",,,,,,,,,,,,,,,,,,,,,,,,,,,,"2009-05-01"
"74486094789","2020-02-11T06:51:00","FM-15","7",,"ESE","1.5","mi","TEMP, PRECIP, SNOW",,,"PSY, SRG, SNOWBOARD",,,"FAA CWO",,,,,,,,,,,,,,,,,,,,,,,,,,,"30.00","44","44","0.04","-RA:02 BR:1 |RA |RA","+0.03","6","100","30.00","BKN:07 7 BKN:07 23 OVC:08 36","29.98","2.00","44","000",,"0",,,,,,,,,,,,,,,,,,,,,,,,,,,,,,,,,,,,,"MET16602/11/20 06:51:02 METAR KJFK 111151Z 00000KT 2SM -RA BR BKN007 BKN023 OVC036 07/07 A3000 RMK AO2 SFC VIS 4 SLP160 P0004 60018 70055 T00670067 10072 20061 56011 $ (BH)","FM-15","7",,,,,,,,,,,,,,,,,,,,,,,,,,,,"2009-05-01"
"74486094789","2020-02-11T07:00:00","FM-12","4",,"ESE","1.5","mi","TEMP, PRECIP, SNOW",,,"PSY, SRG, SNOWBOARD",,,"FAA CWO",,,,,,,,,,,,,,,,,,,,,,,,,,,,"44","44",,"||RA","+0.03","6","100","30.00","8","29.97","1.99","44","000",,"0",,,,,,,,,,,,,,,,,,,,,,,,,,,,,,,,,,,,,"SYN10474486 11332 80000 10067 20067 30148 40160 56011 60051 761// 91151 333 10083 20061 70140 96010 555 91112=","FM-12","4",,,,,,,,,,,,,,,,,,,,,,,,,,,,"2009-05-01"
"74486094789","2020-02-11T07:51:00","FM-15","7",,"ESE","1.5","mi","TEMP, PRECIP, SNOW",,,"PSY, SRG, SNOWBOARD",,,"FAA CWO",,,,,,,,,,,,,,,,,,,,,,,,,,,"29.99","44","45","0.08","RA:02 BR:1 |RA |RA",,,"97","29.98","BKN:07 6 OVC:08 32","29.96","2.00","45","050",,"6",,,,,,,,,,,,,,,,,,,,,,,,,,,,,,,,,,,,,"MET12802/11/20 07:51:02 METAR KJFK 111251Z 05005KT 2SM RA BR BKN006 OVC032 07/07 A2999 RMK AO2 SFC VIS 5 SLP153 P0009 T00720067 $ (BH)","FM-15","7",,,,,,,,,,,,,,,,,,,,,,,,,,,,"2009-05-01"
"74486094789","2020-02-11T08:49:00","FM-16","6",,"ESE","1.5","mi","TEMP, PRECIP, SNOW",,,"PSY, SRG, SNOWBOARD",,,"FAA CWO",,,,,,,,,,,,,,,,,,,,,,,,,,,"29.98","45","45",,"-RA:02 BR:1 |RA |RA",,,"100",,"BKN:07 5 BKN:07 55 OVC:08 75","29.96","3.00","45","030",,"5",,,,,,,,,,,,,,,,,,,,,,,,,,,,,,,,,,,,,"MET13602/11/20 08:49:02 SPECI KJFK 111349Z 03004KT 3SM -RA BR BKN005 BKN055 OVC075 07/07 A2998 RMK AO2 SFC VIS 5 CIG 004V006 P0002 $ FIBI (BH)","FM-16","6",,,,,,,,,,,,,,,,,,,,,,,,,,,,"2009-05-01"
"74486094789","2020-02-11T08:51:00","FM-15","7",,"ESE","1.5","mi","TEMP, PRECIP, SNOW",,,"PSY, SRG, SNOWBOARD",,,"FAA CWO",,,,,,,,,,,,,,,,,,,,,,,,,,,"29.97","45","46","0.02","-RA:02 BR:1 |RA |RA",,,"96","29.97","BKN:07 5 BKN:07 55 OVC:08 75","29.95","3.00","46","020",,"5",,,,,,,,,,,,,,,,,,,,,,,,,,,,,,,,,,,,,"MET14802/11/20 08:51:02 METAR KJFK 111351Z 02004KT 3SM -RA BR BKN005 BKN055 OVC075 08/07 A2997 RMK AO2 SFC VIS 5 SLP149 CIG 004V006 P0002 T00780072 $ (BH)","FM-15","7",,,,,,,,,,,,,,,,,,,,,,,,,,,,"2009-05-01"
"74486094789","2020-02-11T09:49:00","FM-16","6",,"ESE","1.5","mi","TEMP, PRECIP, SNOW",,,"PSY, SRG, SNOWBOARD",,,"FAA CWO",,,,,,,,,,,,,,,,,,,,,,,,,,,"29.95","45","46",,"-RA:02 BR:1 |RA |RA",,,"93",,"BKN:07 4 OVC:08 50","29.93","3.00","46","010",,"6",,,,,,,,,,,,,,,,,,,,,,,,,,,,,,,,,,,,,"MET11702/11/20 09:49:02 SPECI KJFK 111449Z 01005KT 3SM -RA BR BKN004 OVC050 08/07 A2995 RMK AO2 SFC VIS 6 P0001 $ FIBI (BH)","FM-16","6",,,,,,,,,,,,,,,,,,,,,,,,,,,,"2009-05-01"
"74486094789","2020-02-11T09:51:00","FM-15","7",,"ESE","1.5","mi","TEMP, PRECIP, SNOW",,,"PSY, SRG, SNOWBOARD",,,"FAA CWO",,,,,,,,,,,,,,,,,,,,,,,,,,,"29.95","45","46","0.01","-RA:02 BR:1 |RA |RA","+0.06","8","96","29.94","BKN:07 4 OVC:08 50","29.93","3.00","46","010",,"6",,,,,,,,,,,,,,,,,,,,,,,,,,,,,,,,,,,,,"MET14102/11/20 09:51:02 METAR KJFK 111451Z 01005KT 3SM -RA BR BKN004 OVC050 08/07 A2995 RMK AO2 SFC VIS 6 SLP140 P0001 60012 T00780072 58020 $ (BH)","FM-15","7",,,,,,,,,,,,,,,,,,,,,,,,,,,,"2009-05-01"
"74486094789","2020-02-11T10:00:00","FM-12","4",,"ESE","1.5","mi","TEMP, PRECIP, SNOW",,,"PSY, SRG, SNOWBOARD",,,"FAA CWO",,,,,,,,,,,,,,,,,,,,,,,,,,,,"45","46",,"||RA","+0.06","8","96","29.94","5","29.92","2.98","46","010",,"6",,,,,,,,,,,,,,,,,,,,,,,,,,,,,,,,,,,,,"SYN08674486 11248 80105 10078 20072 30131 40140 58020 60037 761// 91451 333 96010 555 91115=","FM-12","4",,,,,,,,,,,,,,,,,,,,,,,,,,,,"2009-05-01"
"74486094789","2020-02-11T10:51:00","FM-15","7",,"ESE","1.5","mi","TEMP, PRECIP, SNOW",,,"PSY, SRG, SNOWBOARD",,,"FAA CWO",,,,,,,,,,,,,,,,,,,,,,,,,,,"29.94","45","46","0.01","-DZ:01 |DZ |DZ",,,"96","29.93","OVC:08 4","29.91","3.00","46","340",,"6",,,,,,,,,,,,,,,,,,,,,,,,,,,,,,,,,,,,,"MET12802/11/20 10:51:02 METAR KJFK 111551Z 34005KT 3SM -DZ OVC004 08/07 A2994 RMK AO2 SFC VIS 7 RAE41DZB47 SLP137 P0001 T00780072 (BH)","FM-15","7",,,,,,,,,,,,,,,,,,,,,,,,,,,,"2009-05-01"
"74486094789","2020-02-11T11:49:00","FM-16","6",,"ESE","1.5","mi","TEMP, PRECIP, SNOW",,,"PSY, SRG, SNOWBOARD",,,"FAA CWO",,,,,,,,,,,,,,,,,,,,,,,,,,,"29.90","45","46",,,,,"93",,"OVC:08 5","29.88","7.00","46","340",,"3",,,,,,,,,,,,,,,,,,,,,,,,,,,,,,,,,,,,,"MET09702/11/20 11:49:02 SPECI KJFK 111649Z 34003KT 7SM OVC005 08/07 A2990 RMK AO2 DZE25 P0000 FIBI (BH)","FM-16","6",,,,,,,,,,,,,,,,,,,,,,,,,,,,"2009-05-01"
"74486094789","2020-02-11T11:51:00","FM-15","7",,"ESE","1.5","mi","TEMP, PRECIP, SNOW",,,"PSY, SRG, SNOWBOARD",,,"FAA CWO",,,,,,,,,,,,,,,,,,,,,,,,,,,"29.90","45","47","T","-RA:02 |RA |RA",,,"93","29.90","OVC:08 5","29.88","7.00","46","350",,"5",,,,,,,,,,,,,,,,,,,,,,,,,,,,,,,,,,,,,"MET11802/11/20 11:51:02 METAR KJFK 111651Z 35004KT 7SM -RA OVC005 08/07 A2990 RMK AO2 DZE25RAB51 SLP124 P0000 T00830072 (BH)","FM-15","7",,,,,,,,,,,,,,,,,,,,,,,,,,,,"2009-05-01"
"74486094789","2020-02-11T12:51:00","FM-15","7",,"ESE","1.5","mi","TEMP, PRECIP, SNOW",,,"PSY, SRG, SNOWBOARD",,,"FAA CWO",,,,,,,,,,,,,,,,,,,,,,,,,,,"29.86","45","47","T","-RA:02 |RA |RA","+0.09","8","93","29.85","BKN:07 6 OVC:08 70","29.83","8.00","46","340",,"6",,,,,,,,,,,,,,,,,,,,,,,,,,,,,,,,,,,,,"MET14002/11/20 12:51:02 METAR KJFK 111751Z 34005KT 8SM -RA BKN006 OVC070 08/07 A2986 RMK AO2 SLP110 P0000 60013 T00830072 10083 20067 58029 $ (BH)","FM-15","7",,,,,,,,,,,,,,,,,,,,,,,,,,,,"2009-05-01"
"74486094789","2020-02-11T13:00:00","FM-12","4",,"ESE","1.5","mi","TEMP, PRECIP, SNOW",,,"PSY, SRG, SNOWBOARD",,,"FAA CWO",,,,,,,,,,,,,,,,,,,,,,,,,,,,"45","47",,"||RA","+0.09","8","93","29.85","5","29.83","7.46","46","340",,"6",,,,,,,,,,,,,,,,,,,,,,,,,,,,,,,,,,,,,"SYN09274486 11262 83405 10083 20072 30100 40110 58029 60031 761// 91751 333 10083 20061 555 91118=","FM-12","4",,,,,,,,,,,,,,,,,,,,,,,,,,,,"2009-05-01"
"74486094789","2020-02-11T13:51:00","FM-15","7",,"ESE","1.5","mi","TEMP, PRECIP, SNOW",,,"PSY, SRG, SNOWBOARD",,,"FAA CWO",,,,,,,,,,,,,,,,,,,,,,,,,,,"29.85","44","46","0.01","-RA:02 |RA |RA",,,"93","29.85","BKN:07 6 OVC:08 48","29.83","9.00","45","340",,"9",,,,,,,,,,,,,,,,,,,,,,,,,,,,,,,,,,,,,"MET11602/11/20 13:51:02 METAR KJFK 111851Z 34008KT 9SM -RA BKN006 OVC048 08/07 A2985 RMK AO2 SLP107 P0001 T00780067 $ (BH)","FM-15","7",,,,,,,,,,,,,,,,,,,,,,,,,,,,"2009-05-01"
"74486094789","2020-02-11T14:51:00","FM-15","7",,"ESE","1.5","mi","TEMP, PRECIP, SNOW",,,"PSY, SRG, SNOWBOARD",,,"FAA CWO",,,,,,,,,,,,,,,,,,,,,,,,,,,"29.82","43","46","T",,,,"89","29.82","BKN:07 7 OVC:08 34","29.80","10.00","45","350",,"9",,,,,,,,,,,,,,,,,,,,,,,,,,,,,,,,,,,,,"MET12902/11/20 14:51:02 METAR KJFK 111951Z 35008KT 10SM BKN007 OVC034 08/06 A2982 RMK AO2 RAE27 SLP098 BKN V SCT P0000 T00780061 $ (RR)","FM-15","7",,,,,,,,,,,,,,,,,,,,,,,,,,,,"2009-05-01"
"74486094789","2020-02-11T15:37:00","FM-16","7",,"ESE","1.5","mi","TEMP, PRECIP, SNOW",,,"PSY, SRG, SNOWBOARD",,,"FAA CWO",,,,,,,,,,,,,,,,,,,,,,,,,,,"29.80","44","47",,,,,"90",,"SCT:04 7 OVC:08 43","29.78","10.00","46","350",,"8",,,,,,,,,,,,,,,,,,,,,,,,,,,,,,,,,,,,,"MET11002/11/20 15:37:02 SPECI KJFK 112037Z 35007KT 10SM SCT007 OVC043 08/07 A2980 RMK AO2 CIG 007 W T00830067 $ (RR)","FM-16","7",,,,,,,,,,,,,,,,,,,,,,,,,,,,"2009-05-01"
"74486094789","2020-02-11T15:51:00","FM-15","7",,"ESE","1.5","mi","TEMP, PRECIP, SNOW",,,"PSY, SRG, SNOWBOARD",,,"FAA CWO",,,,,,,,,,,,,,,,,,,,,,,,,,,"29.81","44","47","0.00",,"+0.05","8","90","29.80","SCT:04 7 BKN:07 45","29.78","10.00","46","330",,"8",,,,,,,,,,,,,,,,,,,,,,,,,,,,,,,,,,,,,"MET11902/11/20 15:51:02 METAR KJFK 112051Z 33007KT 10SM SCT007 BKN045 08/07 A2981 RMK AO2 SLP093 60001 T00830067 58018 $ (RR)","FM-15","7",,,,,,,,,,,,,,,,,,,,,,,,,,,,"2009-05-01"
"74486094789","2020-02-11T16:00:00","FM-12","4",,"ESE","1.5","mi","TEMP, PRECIP, SNOW",,,"PSY, SRG, SNOWBOARD",,,"FAA CWO",,,,,,,,,,,,,,,,,,,,,,,,,,,,"44","47",,,"+0.05","8","90","29.80","8","29.78","9.94","46","330",,"8",,,,,,,,,,,,,,,,,,,,,,,,,,,,,,,,,,,,,"SYN07074486 12366 63307 10083 20067 30084 40093 58018 69937 92051 555 91121=","FM-12","4",,,,,,,,,,,,,,,,,,,,,,,,,,,,"2009-05-01"
"74486094789","2020-02-11T16:51:00","FM-15","7",,"ESE","1.5","mi","TEMP, PRECIP, SNOW",,,"PSY, SRG, SNOWBOARD",,,"FAA CWO",,,,,,,,,,,,,,,,,,,,,,,,,,,"29.80","44","48","0.00",,,,"86","29.80","FEW:02 10 SCT:04 65 BKN:07 80","29.78","10.00","46","320",,"9",,,,,,,,,,,,,,,,,,,,,,,,,,,,,,,,,,,,,"MET11402/11/20 16:51:02 METAR KJFK 112151Z 32008KT 10SM FEW010 SCT065 BKN080 09/07 A2980 RMK AO2 SLP090 T00890067 $ (RR)","FM-15","7",,,,,,,,,,,,,,,,,,,,,,,,,,,,"2009-05-01"
"74486094789","2020-02-11T17:51:00","FM-15","7",,"ESE","1.5","mi","TEMP, PRECIP, SNOW",,,"PSY, SRG, SNOWBOARD",,,"FAA CWO",,,,,,,,,,,,,,,,,,,,,,,,,,,"29.82","43","48","0.00",,,,"83","29.82","FEW:02 15 SCT:04 60 BKN:07 75","29.80","10.00","46","330",,"13",,,,,,,,,,,,,,,,,,,,,,,,,,,,,,,,,,,,,"MET11402/11/20 17:51:02 METAR KJFK 112251Z 33011KT 10SM FEW015 SCT060 BKN075 09/06 A2982 RMK AO2 SLP097 T00890061 $ (RR)","FM-15","7",,,,,,,,,,,,,,,,,,,,,,,,,,,,"2009-05-01"
"74486094789","2020-02-11T18:51:00","FM-15","7",,"ESE","1.5","mi","TEMP, PRECIP, SNOW",,,"PSY, SRG, SNOWBOARD",,,"FAA CWO",,,,,,,,,,,,,,,,,,,,,,,,,,,"29.83","43","48","0.00",,"-0.03","3","83","29.83","FEW:02 15 OVC:08 65","29.80","10.00","46","300",,"9",,,,,,,,,,,,,,,,,,,,,,,,,,,,,,,,,,,,,"MET13102/11/20 18:51:02 METAR KJFK 112351Z 30008KT 10SM FEW015 OVC065 09/06 A2983 RMK AO2 SLP102 60001 T00890061 10089 20072 53009 $ (RR)","FM-15","7",,,,,,,,,,,,,,,,,,,,,,,,,,,,"2009-05-01"
"74486094789","2020-02-11T19:00:00","FM-12","4",,"ESE","1.5","mi","TEMP, PRECIP, SNOW",,,"PSY, SRG, SNOWBOARD",,,"FAA CWO",,,,,,,,,,,,,,,,,,,,,,,,,,,,"43","48",,,"-0.03","3","83","29.83","15","29.80","9.94","46","300",,"9",,,,,,,,,,,,,,,,,,,,,,,,,,,,,,,,,,,,,"SYN08674486 12466 83008 10089 20061 30090 40102 53009 69931 92351 333 10089 20061 555 91200=","FM-12","4",,,,,,,,,,,,,,,,,,,,,,,,,,,,"2009-05-01"
"74486094789","2020-02-11T19:51:00","FM-15","7",,"ESE","1.5","mi","TEMP, PRECIP, SNOW",,,"PSY, SRG, SNOWBOARD",,,"FAA CWO",,,,,,,,,,,,,,,,,,,,,,,,,,,"29.85","43","49","0.00",,,,"80","29.85","FEW:02 20 BKN:07 50 OVC:08 70","29.83","10.00","46","280",,"10",,,,,,,,,,,,,,,,,,,,,,,,,,,,,,,,,,,,,"MET10902/11/20 19:51:01 METAR KJFK 120051Z 28009KT 10SM FEW020 BKN050 OVC070 09/06 A2985 RMK AO2 SLP109 T00940061 $","FM-15","7",,,,,,,,,,,,,,,,,,,,,,,,,,,,"2009-05-01"
"74486094789","2020-02-11T20:51:00","FM-15","7",,"ESE","1.5","mi","TEMP, PRECIP, SNOW",,,"PSY, SRG, SNOWBOARD",,,"FAA CWO",,,,,,,,,,,,,,,,,,,,,,,,,,,"29.85","41","48","T",,,,"77","29.85","FEW:02 28 SCT:04 38 BKN:07 110","29.83","10.00","45","320",,"16",,,,,,,,,,,,,,,,,,,,,,,,,,,,,,,,,,,,,"MET12402/11/20 20:51:01 METAR KJFK 120151Z 32014KT 10SM FEW028 SCT038 BKN110 09/05 A2985 RMK AO2 RAB11E34 SLP109 P0000 T00890050 $","FM-15","7",,,,,,,,,,,,,,,,,,,,,,,,,,,,"2009-05-01"
"74486094789","2020-02-11T21:51:00","FM-15","7",,"ESE","1.5","mi","TEMP, PRECIP, SNOW",,,"PSY, SRG, SNOWBOARD",,,"FAA CWO",,,,,,,,,,,,,,,,,,,,,,,,,,,"29.88","37","47","0.00",,"-0.05","3","69","29.88","FEW:02 27 OVC:08 110","29.85","10.00","43","310",,"21",,,,,,,,,,,,,,,,,,,,,,,,,,,,,,,,,,,,,"MET11402/11/20 21:51:01 METAR KJFK 120251Z 31018KT 10SM FEW027 OVC110 08/03 A2988 RMK AO2 SLP119 60000 T00830028 53017 $","FM-15","7",,,,,,,,,,,,,,,,,,,,,,,,,,,,"2009-05-01"
"74486094789","2020-02-11T22:00:00","FM-12","4",,"ESE","1.5","mi","TEMP, PRECIP, SNOW",,,"PSY, SRG, SNOWBOARD",,,"FAA CWO",,,,,,,,,,,,,,,,,,,,,,,,,,,,"37","47",,,"-0.05","3","69","29.88","26","29.85","9.94","43","310",,"21",,,,,,,,,,,,,,,,,,,,,,,,,,,,,,,,,,,,,"SYN07074486 12566 83118 10083 20028 30107 40119 53017 69907 90251 555 91203=","FM-12","4",,,,,,,,,,,,,,,,,,,,,,,,,,,,"2009-05-01"
"74486094789","2020-02-11T22:51:00","FM-15","7",,"ESE","1.5","mi","TEMP, PRECIP, SNOW",,,"PSY, SRG, SNOWBOARD",,,"FAA CWO",,,,,,,,,,,,,,,,,,,,,,,,,,,"29.90","35","45","0.00",,,,"68","29.90","FEW:02 35 OVC:08 110","29.88","10.00","41","300",,"14",,,,,,,,,,,,,,,,,,,,,,,,,,,,,,,,,,,,,"MET10202/11/20 22:51:01 METAR KJFK 120351Z 30012KT 10SM FEW035 OVC110 07/02 A2990 RMK AO2 SLP125 T00720017 $","FM-15","7",,,,,,,,,,,,,,,,,,,,,,,,,,,,"2009-05-01"
"74486094789","2020-02-11T23:51:00","FM-15","7",,"ESE","1.5","mi","TEMP, PRECIP, SNOW",,,"PSY, SRG, SNOWBOARD",,,"FAA CWO",,,,,,,,,,,,,,,,,,,,,,,,,,,"29.92","32","44","0.00",,,,"63","29.92","FEW:02 30 OVC:08 85","29.90","10.00","39","310",,"18",,,,,,,,,,,,,,,,,,,,,,,,,,,,,,,,,,,,,"MET11202/11/20 23:51:01 METAR KJFK 120451Z 31016KT 10SM FEW030 OVC085 07/00 A2992 RMK AO2 SLP133 T00670000 400940061 $","FM-15","7",,,,,,,,,,,,,,,,,,,,,,,,,,,,"2009-05-01"
"74486094789","2020-02-11T23:59:00","SOD  ","6",,"ESE","1.5","mi","TEMP, PRECIP, SNOW",,,"PSY, SRG, SNOWBOARD",,,"FAA CWO",,,,"43","46","89","29.93","29.92","45","8.2","0","11.7","19","49","43","310","29","0.33","0","0.0","310","23","RA DZ BR",,,,,,,,,,,,,,,,,,,,,,,,,,,,,,,,,,,,,,,,,,,,,,,,,,,,,,,,"SOD75624 HR PRECIPITATION (IN): 0.33 SNOW DEPTH (IN):0     24 HR SNOWFALL (IN):0.0  WEATHER(CODE):1  24 HR MAX TEMP (F): 4924 HR MIN TEMP (F): 43AVERAGE STATION PRESSURE:29.920 MINIMUM SEA LEVEL PRESSURE:29.79 TIME OF OCCURRENCE:1630 PEAK WIND SPEED (MPH): 29 PEAK WIND DIR (DEG):310 PEAK WIND TIME (LST):      FASTEST 2MIN SPEED (MPH): 23FASTEST 2MIN DIR (DEG):310 FASTEST 2MIN TIME (LST):     AVERAGE WIND SPEED (MPH): 8.2 24 HR AVG TEMP (F): 46DEPART FROM NORMAL: 12  HEATING DEGREE DAYS: 19 COOLING DEGREE DAYS:  0 LATEST DAY MAX TEMP (0700-1900 LST):48  LATEST NIGHT MIN TEMP(1900-0800 LST):43 HOURLY INCREMENTAL PRECIPITATION VALUES (IN):.01 0.01 0.01 T    0.04 0.09 0.04 0.08 0.02 0.01 0.01 T    T    0.01 T    0.00 0.00 0.00 0.00 0.00 T    0.00 0.00 0.00","SOD  ","6",,,,,,,,,,,,,,,,,,,,,,,,,"0654","1725",,"2009-05-01"
"74486094789","2020-02-12T00:51:00","FM-15","7",,"ESE","1.5","mi","TEMP, PRECIP, SNOW",,,"PSY, SRG, SNOWBOARD",,,"FAA CWO",,,,,,,,,,,,,,,,,,,,,,,,,,,"29.96","27","44","0.00",,"-0.07","3","51","29.95","OVC:08 120","29.93","10.00","37","300","25","17",,,,,,,,,,,,,,,,,,,,,,,,,,,,,,,,,,,,,"MET12802/12/20 00:51:02 METAR KJFK 120551Z 30015G22KT 10SM OVC120 07/M03 A2996 RMK AO2 SLP143 60000 T00671028 10094 20061 53024 $ (JC)","FM-15","7",,,,,,,,,,,,,,,,,,,,,,,,,,,,"2009-05-01"
"74486094789","2020-02-12T01:00:00","FM-12","4",,"ESE","1.5","mi","TEMP, PRECIP, SNOW",,,"PSY, SRG, SNOWBOARD",,,"FAA CWO",,,,,,,,,,,,,,,,,,,,,,,,,,,,"27","44",,,"-0.07","3","51","29.95",,"29.93","9.94","37","300",,"17",,,,,,,,,,,,,,,,,,,,,,,,,,,,,,,,,,,,,"SYN09274486 12966 83015 10067 21028 30134 40143 53024 69901 90551 333 10094 20061 91022 555 91206=","FM-12","4",,,,,,,,,,,,,,,,,,,,,,,,,,,,"2009-05-01"
"74486094789","2020-02-12T01:51:00","FM-15","7",,"ESE","1.5","mi","TEMP, PRECIP, SNOW",,,"PSY, SRG, SNOWBOARD",,,"FAA CWO",,,,,,,,,,,,,,,,,,,,,,,,,,,"29.99","25","43","0.00",,,,"49","29.99","FEW:02 50 BKN:07 130 OVC:08 250","29.96","10.00","36","310","30","25",,,,,,,,,,,,,,,,,,,,,,,,,,,,,,,,,,,,,"MET13602/12/20 01:51:02 METAR KJFK 120651Z 31022G26KT 10SM FEW050 BKN130 OVC250 06/M04 A2999 RMK AO2 PK WND 30026/0644 SLP155 T00611039 $ (JC)","FM-15","7",,,,,,,,,,,,,,,,,,,,,,,,,,,,"2009-05-01"
"74486094789","2020-02-12T02:51:00","FM-15","7",,"ESE","1.5","mi","TEMP, PRECIP, SNOW",,,"PSY, SRG, SNOWBOARD",,,"FAA CWO",,,,,,,,,,,,,,,,,,,,,,,,,,,"30.02","22","41","0.00",,,,"47","30.01","SCT:04 48 SCT:04 140 BKN:07 240","30.00","10.00","34","310","38","26",,,,,,,,,,,,,,,,,,,,,,,,,,,,,,,,,,,,,"MET13602/12/20 02:51:02 METAR KJFK 120751Z 31023G33KT 10SM SCT048 SCT140 BKN240 05/M06 A3002 RMK AO2 PK WND 31033/0747 SLP164 T00501056 $ (JC)","FM-15","7",,,,,,,,,,,,,,,,,,,,,,,,,,,,"2009-05-01"
"74486094789","2020-02-12T03:51:00","FM-15","7",,"ESE","1.5","mi","TEMP, PRECIP, SNOW",,,"PSY, SRG, SNOWBOARD",,,"FAA CWO",,,,,,,,,,,,,,,,,,,,,,,,,,,"30.05","20","41","0.00",,"-0.10","2","43","30.05","FEW:02 49 BKN:07 230","30.03","10.00","33","310",,"25",,,,,,,,,,,,,,,,,,,,,,,,,,,,,,,,,,,,,"MET13202/12/20 03:51:02 METAR KJFK 120851Z 31022KT 10SM FEW049 BKN230 05/M07 A3005 RMK AO2 PK WND 31031/0752 SLP176 T00501067 52033 $ (JC)","FM-15","7",,,,,,,,,,,,,,,,,,,,,,,,,,,,"2009-05-01"
"74486094789","2020-02-12T04:00:00","FM-12","4",,"ESE","1.5","mi","TEMP, PRECIP, SNOW",,,"PSY, SRG, SNOWBOARD",,,"FAA CWO",,,,,,,,,,,,,,,,,,,,,,,,,,,,"20","41",,,"-0.10","2","43","30.05","41","30.02","9.94","33","310",,"25",,,,,,,,,,,,,,,,,,,,,,,,,,,,,,,,,,,,,"SYN06474486 32666 63122 10050 21067 30165 40176 52033 90851 555 91209=","FM-12","4",,,,,,,,,,,,,,,,,,,,,,,,,,,,"2009-05-01"
"74486094789","2020-02-12T04:51:00","FM-15","7",,"ESE","1.5","mi","TEMP, PRECIP, SNOW",,,"PSY, SRG, SNOWBOARD",,,"FAA CWO",,,,,,,,,,,,,,,,,,,,,,,,,,,"30.08","19","40","0.00",,,,"43","30.08","FEW:02 50 BKN:07 240","30.06","10.00","33","300","23","18",,,,,,,,,,,,,,,,,,,,,,,,,,,,,,,,,,,,,"MET12902/12/20 04:51:02 METAR KJFK 120951Z 30016G20KT 10SM FEW050 BKN240 04/M07 A3008 RMK AO2 PK WND 31028/0852 SLP187 T00441072 $ (JC)","FM-15","7",,,,,,,,,,,,,,,,,,,,,,,,,,,,"2009-05-01"
"74486094789","2020-02-12T05:51:00","FM-15","7",,"ESE","1.5","mi","TEMP, PRECIP, SNOW",,,"PSY, SRG, SNOWBOARD",,,"FAA CWO",,,,,,,,,,,,,,,,,,,,,,,,,,,"30.12","20","39","0.00",,,,"46","30.11","FEW:02 50 BKN:07 260","30.09","10.00","32","320",,"20",,,,,,,,,,,,,,,,,,,,,,,,,,,,,,,,,,,,,"MET12602/12/20 05:51:02 METAR KJFK 121051Z 32017KT 10SM FEW050 BKN260 04/M07 A3012 RMK AO2 PK WND 30029/1040 SLP198 T00391067 $ (JC)","FM-15","7",,,,,,,,,,,,,,,,,,,,,,,,,,,,"2009-05-01"
"74486094789","2020-02-12T06:51:00","FM-15","7",,"ESE","1.5","mi","TEMP, PRECIP, SNOW",,,"PSY, SRG, SNOWBOARD",,,"FAA CWO",,,,,,,,,,,,,,,,,,,,,,,,,,,"30.15","21","38","0.00",,"-0.10","3","51","30.15","FEW:02 50 FEW:02 110 BKN:07 260","30.12","10.00","32","340",,"11",,,,,,,,,,,,,,,,,,,,,,,,,,,,,,,,,,,,,"MET15702/12/20 06:51:02 METAR KJFK 121151Z 34010KT 10SM FEW050 FEW110 BKN260 03/M06 A3015 RMK AO2 PK WND 32027/1101 SLP210 70014 T00331061 10067 20033 53035 $ (BH)","FM-15","7",,,,,,,,,,,,,,,,,,,,,,,,,,,,"2009-05-01"
"74486094789","2020-02-12T07:00:00","FM-12","4",,"ESE","1.5","mi","TEMP, PRECIP, SNOW",,,"PSY, SRG, SNOWBOARD",,,"FAA CWO",,,,,,,,,,,,,,,,,,,,,,,,,,,,"21","38",,,"-0.10","3","51","30.15","57","30.12","9.94","32","340",,"11",,,,,,,,,,,,,,,,,,,,,,,,,,,,,,,,,,,,,"SYN08674486 32766 63410 10033 21061 30199 40210 53035 91151 333 10094 20033 70036 555 91212=","FM-12","4",,,,,,,,,,,,,,,,,,,,,,,,,,,,"2009-05-01"
"74486094789","2020-02-12T07:51:00","FM-15","7",,"ESE","1.5","mi","TEMP, PRECIP, SNOW",,,"PSY, SRG, SNOWBOARD",,,"FAA CWO",,,,,,,,,,,,,,,,,,,,,,,,,,,"30.17","20","39","0.00",,,,"46","30.17","FEW:02 110 BKN:07 250","30.14","10.00","32","330",,"17",,,,,,,,,,,,,,,,,,,,,,,,,,,,,,,,,,,,,"MET12602/12/20 07:51:02 METAR KJFK 121251Z 33015KT 10SM FEW110 BKN250 04/M07 A3017 RMK AO2 PK WND 34026/1223 SLP217 T00391067 $ (BH)","FM-15","7",,,,,,,,,,,,,,,,,,,,,,,,,,,,"2009-05-01"
"74486094789","2020-02-12T08:51:00","FM-15","7",,"ESE","1.5","mi","TEMP, PRECIP, SNOW",,,"PSY, SRG, SNOWBOARD",,,"FAA CWO",,,,,,,,,,,,,,,,,,,,,,,,,,,"30.21","21","41","0.00",,,,"45","30.21","FEW:02 130 BKN:07 250","30.19","10.00","34","310",,"16",,,,,,,,,,,,,,,,,,,,,,,,,,,,,,,,,,,,,"MET11502/12/20 08:51:02 METAR KJFK 121351Z 31014KT 10SM FEW130 BKN250 05/M06 A3021 RMK AO2 PRESRR SLP231 T00501061 $ (BH)","FM-15","7",,,,,,,,,,,,,,,,,,,,,,,,,,,,"2009-05-01"
"74486094789","2020-02-12T09:51:00","FM-15","7",,"ESE","1.5","mi","TEMP, PRECIP, SNOW",,,"PSY, SRG, SNOWBOARD",,,"FAA CWO",,,,,,,,,,,,,,,,,,,,,,,,,,,"30.21","21","42","0.00",,"-0.05","0","43","30.20","FEW:02 130 BKN:07 250","30.19","10.00","34","330",,"11",,,,,,,,,,,,,,,,,,,,,,,,,,,,,,,,,,,,,"MET11402/12/20 09:51:02 METAR KJFK 121451Z 33010KT 10SM FEW130 BKN250 06/M06 A3021 RMK AO2 SLP228 T00561061 50018 $ (BH)","FM-15","7",,,,,,,,,,,,,,,,,,,,,,,,,,,,"2009-05-01"
"74486094789","2020-02-12T10:00:00","FM-12","4",,"ESE","1.5","mi","TEMP, PRECIP, SNOW",,,"PSY, SRG, SNOWBOARD",,,"FAA CWO",,,,,,,,,,,,,,,,,,,,,,,,,,,,"21","42",,,"0.05","9","43","30.20",,"30.18","9.94","34","330",,"11",,,,,,,,,,,,,,,,,,,,,,,,,,,,,,,,,,,,,"SYN06474486 32966 63310 10056 21061 30219 40228 50018 91451 555 91215=","FM-12","4",,,,,,,,,,,,,,,,,,,,,,,,,,,,"2009-05-01"
"74486094789","2020-02-12T10:51:00","FM-15","7",,"ESE","1.5","mi","TEMP, PRECIP, SNOW",,,"PSY, SRG, SNOWBOARD",,,"FAA CWO",,,,,,,,,,,,,,,,,,,,,,,,,,,"30.23","20","43","0.00",,,,"40","30.23","FEW:02 150 BKN:07 250","30.21","10.00","35","310",,"7",,,,,,,,,,,,,,,,,,,,,,,,,,,,,,,,,,,,,"MET10802/12/20 10:51:02 METAR KJFK 121551Z 31006KT 10SM FEW150 BKN250 06/M07 A3023 RMK AO2 SLP236 T00611067 $ (DM)","FM-15","7",,,,,,,,,,,,,,,,,,,,,,,,,,,,"2009-05-01"
"74486094789","2020-02-12T11:51:00","FM-15","7",,"ESE","1.5","mi","TEMP, PRECIP, SNOW",,,"PSY, SRG, SNOWBOARD",,,"FAA CWO",,,,,,,,,,,,,,,,,,,,,,,,,,,"30.23","21","44","0.00",,,,"40","30.22","FEW:02 150 BKN:07 250","30.21","10.00","35","230",,"10",,,,,,,,,,,,,,,,,,,,,,,,,,,,,,,,,,,,,"MET10802/12/20 11:51:02 METAR KJFK 121651Z 23009KT 10SM FEW150 BKN250 07/M06 A3023 RMK AO2 SLP235 T00671061 $ (DM)","FM-15","7",,,,,,,,,,,,,,,,,,,,,,,,,,,,"2009-05-01"
"74486094789","2020-02-12T12:51:00","FM-15","7",,"ESE","1.5","mi","TEMP, PRECIP, SNOW",,,"PSY, SRG, SNOWBOARD",,,"FAA CWO",,,,,,,,,,,,,,,,,,,,,,,,,,,"30.21","22","44","0.00",,"-0.00","0","41","30.21","FEW:02 150 SCT:04 200 OVC:08 250","30.19","10.00","36","220",,"8",,,,,,,,,,,,,,,,,,,,,,,,,,,,,,,,,,,,,"MET13302/12/20 12:51:02 METAR KJFK 121751Z 22007KT 10SM FEW150 SCT200 OVC250 07/M06 A3021 RMK AO2 SLP229 T00671056 10072 20033 50000 $ (DM)","FM-15","7",,,,,,,,,,,,,,,,,,,,,,,,,,,,"2009-05-01"
"74486094789","2020-02-12T13:00:00","FM-12","4",,"ESE","1.5","mi","TEMP, PRECIP, SNOW",,,"PSY, SRG, SNOWBOARD",,,"FAA CWO",,,,,,,,,,,,,,,,,,,,,,,,,,,,"22","44",,,"0.00","9","41","30.21",,"30.18","9.94","36","220",,"8",,,,,,,,,,,,,,,,,,,,,,,,,,,,,,,,,,,,,"SYN08074486 32966 82207 10067 21056 30219 40229 50000 91751 333 10072 20033 555 91218=","FM-12","4",,,,,,,,,,,,,,,,,,,,,,,,,,,,"2009-05-01"
"74486094789","2020-02-12T13:51:00","FM-15","7",,"ESE","1.5","mi","TEMP, PRECIP, SNOW",,,"PSY, SRG, SNOWBOARD",,,"FAA CWO",,,,,,,,,,,,,,,,,,,,,,,,,,,"30.20","22","45","0.00",,,,"40","30.19","FEW:02 150 SCT:04 200 BKN:07 250","30.17","10.00","36","230",,"11",,,,,,,,,,,,,,,,,,,,,,,,,,,,,,,,,,,,,"MET11502/12/20 13:51:02 METAR KJFK 121851Z 23010KT 10SM FEW150 SCT200 BKN250 07/M06 A3020 RMK AO2 SLP224 T00721056 $ (DM)","FM-15","7",,,,,,,,,,,,,,,,,,,,,,,,,,,,"2009-05-01"
"74486094789","2020-02-12T14:51:00","FM-15","7",,"ESE","1.5","mi","TEMP, PRECIP, SNOW",,,"PSY, SRG, SNOWBOARD",,,"FAA CWO",,,,,,,,,,,,,,,,,,,,,,,,,,,"30.18","25","42","0.00",,,,"51","30.18","SCT:04 180 OVC:08 250","30.16","10.00","35","190",,"9",,,,,,,,,,,,,,,,,,,,,,,,,,,,,,,,,,,,,"MET10802/12/20 14:51:02 METAR KJFK 121951Z 19008KT 10SM SCT180 OVC250 06/M04 A3018 RMK AO2 SLP221 T00561039 $ (RR)","FM-15","7",,,,,,,,,,,,,,,,,,,,,,,,,,,,"2009-05-01"
"74486094789","2020-02-12T15:51:00","FM-15","7",,"ESE","1.5","mi","TEMP, PRECIP, SNOW",,,"PSY, SRG, SNOWBOARD",,,"FAA CWO",,,,,,,,,,,,,,,,,,,,,,,,,,,"30.19","26","42","0.00",,"+0.01","5","53","30.19","BKN:07 150 BKN:07 180 OVC:08 250","30.16","10.00","36","170",,"10",,,,,,,,,,,,,,,,,,,,,,,,,,,,,,,,,,,,,"MET12102/12/20 15:51:02 METAR KJFK 122051Z 17009KT 10SM BKN150 BKN180 OVC250 06/M03 A3019 RMK AO2 SLP223 T00561033 55005 $ (RR)","FM-15","7",,,,,,,,,,,,,,,,,,,,,,,,,,,,"2009-05-01"
"74486094789","2020-02-12T16:00:00","FM-12","4",,"ESE","1.5","mi","TEMP, PRECIP, SNOW",,,"PSY, SRG, SNOWBOARD",,,"FAA CWO",,,,,,,,,,,,,,,,,,,,,,,,,,,,"26","42",,,"+0.01","5","53","30.19",,"30.16","9.94","36","170",,"10",,,,,,,,,,,,,,,,,,,,,,,,,,,,,,,,,,,,,"SYN06474486 32966 81709 10056 21033 30212 40223 55005 92051 555 91221=","FM-12","4",,,,,,,,,,,,,,,,,,,,,,,,,,,,"2009-05-01"
"74486094789","2020-02-12T16:51:00","FM-15","7",,"ESE","1.5","mi","TEMP, PRECIP, SNOW",,,"PSY, SRG, SNOWBOARD",,,"FAA CWO",,,,,,,,,,,,,,,,,,,,,,,,,,,"30.21","27","41","0.00",,,,"57","30.21","SCT:04 120 BKN:07 150 OVC:08 250","30.19","10.00","36","180",,"9",,,,,,,,,,,,,,,,,,,,,,,,,,,,,,,,,,,,,"MET11502/12/20 16:51:02 METAR KJFK 122151Z 18008KT 10SM SCT120 BKN150 OVC250 05/M03 A3021 RMK AO2 SLP229 T00501028 $ (RR)","FM-15","7",,,,,,,,,,,,,,,,,,,,,,,,,,,,"2009-05-01"
"74486094789","2020-02-12T17:51:00","FM-15","7",,"ESE","1.5","mi","TEMP, PRECIP, SNOW",,,"PSY, SRG, SNOWBOARD",,,"FAA CWO",,,,,,,,,,,,,,,,,,,,,,,,,,,"30.17","30","41","0.00",,,,"65","30.16","OVC:08 110","30.14","10.00","37","180",,"11",,,,,,,,,,,,,,,,,,,,,,,,,,,,,,,,,,,,,"MET10102/12/20 17:51:02 METAR KJFK 122251Z 18010KT 10SM OVC110 05/M01 A3017 RMK AO2 SLP215 T00501011 $ (RR)","FM-15","7",,,,,,,,,,,,,,,,,,,,,,,,,,,,"2009-05-01"
"74486094789","2020-02-12T18:51:00","FM-15","7",,"ESE","1.5","mi","TEMP, PRECIP, SNOW",,,"PSY, SRG, SNOWBOARD",,,"FAA CWO",,,,,,,,,,,,,,,,,,,,,,,,,,,"30.17","30","42","0.00",,"+0.02","8","62","30.17","OVC:08 100","30.14","10.00","37","190",,"14",,,,,,,,,,,,,,,,,,,,,,,,,,,,,,,,,,,,,"MET11702/12/20 18:51:02 METAR KJFK 122351Z 19012KT 10SM OVC100 06/M01 A3017 RMK AO2 SLP216 T00561011 10072 20050 58007 (RR)","FM-15","7",,,,,,,,,,,,,,,,,,,,,,,,,,,,"2009-05-01"
"74486094789","2020-02-12T19:00:00","FM-12","4",,"ESE","1.5","mi","TEMP, PRECIP, SNOW",,,"PSY, SRG, SNOWBOARD",,,"FAA CWO",,,,,,,,,,,,,,,,,,,,,,,,,,,,"30","42",,,"+0.02","8","62","30.17",,"30.14","9.94","37","190",,"14",,,,,,,,,,,,,,,,,,,,,,,,,,,,,,,,,,,,,"SYN08074486 32966 81912 10056 21011 30205 40216 58007 92351 333 10072 20033 555 91300=","FM-12","4",,,,,,,,,,,,,,,,,,,,,,,,,,,,"2009-05-01"
"74486094789","2020-02-12T19:51:00","FM-15","7",,"ESE","1.5","mi","TEMP, PRECIP, SNOW",,,"PSY, SRG, SNOWBOARD",,,"FAA CWO",,,,,,,,,,,,,,,,,,,,,,,,,,,"30.16","32","42","0.00",,,,"68","30.16","FEW:02 65 OVC:08 80","30.14","10.00","38","190",,"14",,,,,,,,,,,,,,,,,,,,,,,,,,,,,,,,,,,,,"MET10002/12/20 19:51:01 METAR KJFK 130051Z 19012KT 10SM FEW065 OVC080 06/00 A3016 RMK AO2 SLP212 T00560000","FM-15","7",,,,,,,,,,,,,,,,,,,,,,,,,,,,"2009-05-01"
"74486094789","2020-02-12T20:51:00","FM-15","7",,"ESE","1.5","mi","TEMP, PRECIP, SNOW",,,"PSY, SRG, SNOWBOARD",,,"FAA CWO",,,,,,,,,,,,,,,,,,,,,,,,,,,"30.12","33","41","T","-RA:02 |RA |RA",,,"73","30.12","BKN:07 80 OVC:08 100","30.09","10.00","38","190",,"16",,,,,,,,,,,,,,,,,,,,,,,,,,,,,,,,,,,,,"MET11602/12/20 20:51:01 METAR KJFK 130151Z 19014KT 10SM -RA BKN080 OVC100 05/01 A3012 RMK AO2 RAB28 SLP199 P0000 T00500006","FM-15","7",,,,,,,,,,,,,,,,,,,,,,,,,,,,"2009-05-01"
"74486094789","2020-02-12T21:51:00","FM-15","7",,"ESE","1.5","mi","TEMP, PRECIP, SNOW",,,"PSY, SRG, SNOWBOARD",,,"FAA CWO",,,,,,,,,,,,,,,,,,,,,,,,,,,"30.09","35","40","T","-RA:02 |RA |RA","+0.08","8","83","30.09","BKN:07 50 OVC:08 80","30.06","10.00","38","190",,"13",,,,,,,,,,,,,,,,,,,,,,,,,,,,,,,,,,,,,"MET12202/12/20 21:51:01 METAR KJFK 130251Z 19011KT 10SM -RA BKN050 OVC080 04/02 A3009 RMK AO2 SLP189 P0000 60000 T00440017 58027","FM-15","7",,,,,,,,,,,,,,,,,,,,,,,,,,,,"2009-05-01"
"74486094789","2020-02-12T22:00:00","FM-12","4",,"ESE","1.5","mi","TEMP, PRECIP, SNOW",,,"PSY, SRG, SNOWBOARD",,,"FAA CWO",,,,,,,,,,,,,,,,,,,,,,,,,,,,"35","40",,"||RA","+0.08","8","83","30.09","57","30.06","9.94","38","190",,"13",,,,,,,,,,,,,,,,,,,,,,,,,,,,,,,,,,,,,"SYN07674486 11766 81911 10044 20017 30178 40189 58027 69907 761// 90251 555 91303=","FM-12","4",,,,,,,,,,,,,,,,,,,,,,,,,,,,"2009-05-01"
"74486094789","2020-02-12T22:51:00","FM-15","7",,"ESE","1.5","mi","TEMP, PRECIP, SNOW",,,"PSY, SRG, SNOWBOARD",,,"FAA CWO",,,,,,,,,,,,,,,,,,,,,,,,,,,"30.05","34","40","0.02","-RA:02 |RA |RA",,,"79","30.04","BKN:07 55 OVC:08 70","30.03","8.00","37","190",,"21",,,,,,,,,,,,,,,,,,,,,,,,,,,,,,,,,,,,,"MET11102/12/20 22:51:01 METAR KJFK 130351Z 19018KT 8SM -RA BKN055 OVC070 04/01 A3005 RMK AO2 SLP174 P0001 T00440011 $","FM-15","7",,,,,,,,,,,,,,,,,,,,,,,,,,,,"2009-05-01"
"74486094789","2020-02-12T23:51:00","FM-15","7",,"ESE","1.5","mi","TEMP, PRECIP, SNOW",,,"PSY, SRG, SNOWBOARD",,,"FAA CWO",,,,,,,,,,,,,,,,,,,,,,,,,,,"30.02","35","38","0.10","RA:02 BR:1 |RA |RA",,,"89","30.01","FEW:02 15 OVC:08 38","30.00","4.00","37","240",,"7",,,,,,,,,,,,,,,,,,,,,,,,,,,,,,,,,,,,,"MET13002/12/20 23:51:01 METAR KJFK 130451Z 24006KT 4SM RA BR FEW015 OVC038 03/02 A3002 RMK AO2 PRESFR SLP163 P0009 T00330017 400720033 $","FM-15","7",,,,,,,,,,,,,,,,,,,,,,,,,,,,"2009-05-01"
"74486094789","2020-02-12T23:59:00","SOD  ","6",,"ESE","1.5","mi","TEMP, PRECIP, SNOW",,,"PSY, SRG, SNOWBOARD",,,"FAA CWO",,,,"25","42","55","30.13","30.09","35","14.6","0","7.6","23","45","38","310","38","0.12","0","0.0","310","30","RA BR",,,,,,,,,,,,,,,,,,,,,,,,,,,,,,,,,,,,,,,,,,,,,,,,,,,,,,,,"SOD75624 HR PRECIPITATION (IN): 0.12 SNOW DEPTH (IN):0     24 HR SNOWFALL (IN):0.0  WEATHER(CODE):1  24 HR MAX TEMP (F): 4524 HR MIN TEMP (F): 38AVERAGE STATION PRESSURE:30.095 MINIMUM SEA LEVEL PRESSURE:29.93 TIME OF OCCURRENCE:0010 PEAK WIND SPEED (MPH): 38 PEAK WIND DIR (DEG):310 PEAK WIND TIME (LST):      FASTEST 2MIN SPEED (MPH): 30FASTEST 2MIN DIR (DEG):310 FASTEST 2MIN TIME (LST):     AVERAGE WIND SPEED (MPH):14.6 24 HR AVG TEMP (F): 42DEPART FROM NORMAL:  8  HEATING DEGREE DAYS: 23 COOLING DEGREE DAYS:  0 LATEST DAY MAX TEMP (0700-1900 LST):45  LATEST NIGHT MIN TEMP(1900-0800 LST):38 HOURLY INCREMENTAL PRECIPITATION VALUES (IN):.00 0.00 0.00 0.00 0.00 0.00 0.00 0.00 0.00 0.00 0.00 0.00 0.00 0.00 0.00 0.00 0.00 0.00 0.00 0.00 T    T    0.02 0.10","SOD  ","6",,,,,,,,,,,,,,,,,,,,,,,,,"0653","1726",,"2009-05-01"
"74486094789","2020-02-13T00:51:00","FM-15","7",,"ESE","1.5","mi","TEMP, PRECIP, SNOW",,,"PSY, SRG, SNOWBOARD",,,"FAA CWO",,,,,,,,,,,,,,,,,,,,,,,,,,,"29.94","34","37","0.01","-RA:02 |RA |RA","+0.15","8","89","29.94","SCT:04 13 OVC:08 37","29.91","10.00","36","000",,"0",,,,,,,,,,,,,,,,,,,,,,,,,,,,,,,,,,,,,"MET14102/13/20 00:51:02 METAR KJFK 130551Z 00000KT 10SM -RA SCT013 OVC037 03/01 A2994 RMK AO2 SLP138 P0003 60013 T00280011 10056 20028 58051 $ (JC)","FM-15","7",,,,,,,,,,,,,,,,,,,,,,,,,,,,"2009-05-01"
"74486094789","2020-02-13T00:56:00","FM-16","7",,"ESE","1.5","mi","TEMP, PRECIP, SNOW",,,"PSY, SRG, SNOWBOARD",,,"FAA CWO",,,,,,,,,,,,,,,,,,,,,,,,,,,"29.93","34","37","T","-RA:02 |RA |RA",,,"89",,"BKN:07 13 OVC:08 35","29.91","10.00","36","000",,"0",,,,,,,,,,,,,,,,,,,,,,,,,,,,,,,,,,,,,"MET11702/13/20 00:56:02 SPECI KJFK 130556Z 00000KT 10SM -RA BKN013 OVC035 03/01 A2993 RMK AO2 PRESFR P0000 T00280011 $ (JC)","FM-16","7",,,,,,,,,,,,,,,,,,,,,,,,,,,,"2009-05-01"
"74486094789","2020-02-13T01:00:00","FM-12","4",,"ESE","1.5","mi","TEMP, PRECIP, SNOW",,,"PSY, SRG, SNOWBOARD",,,"FAA CWO",,,,,,,,,,,,,,,,,,,,,,,,,,,,"34","37",,"||RA","+0.15","8","89","29.94","15","29.91","9.94","36","000",,"0",,,,,,,,,,,,,,,,,,,,,,,,,,,,,,,,,,,,,"SYN09274486 11466 80000 10028 20011 30128 40138 58051 60031 761// 90551 333 10067 20028 555 91306=","FM-12","4",,,,,,,,,,,,,,,,,,,,,,,,,,,,"2009-05-01"
"74486094789","2020-02-13T01:51:00","FM-15","7",,"ESE","1.5","mi","TEMP, PRECIP, SNOW",,,"PSY, SRG, SNOWBOARD",,,"FAA CWO",,,,,,,,,,,,,,,,,,,,,,,,,,,"29.88","35","37","0.03","-RA:02 BR:1 |RA |RA",,,"93","29.88","BKN:07 11 OVC:08 35","29.85","5.00","36","000",,"0",,,,,,,,,,,,,,,,,,,,,,,,,,,,,,,,,,,,,"MET11902/13/20 01:51:02 METAR KJFK 130651Z 00000KT 5SM -RA BR BKN011 OVC035 03/02 A2988 RMK AO2 SLP117 P0002 T00280017 $ (JC)","FM-15","7",,,,,,,,,,,,,,,,,,,,,,,,,,,,"2009-05-01"
"74486094789","2020-02-13T02:35:00","FM-16","7",,"ESE","1.5","mi","TEMP, PRECIP, SNOW",,,"PSY, SRG, SNOWBOARD",,,"FAA CWO",,,,,,,,,,,,,,,,,,,,,,,,,,,"29.83","36","37","0.05","-RA:02 BR:1 |RA |RA",,,"96",,"BKN:07 9 OVC:08 23","29.80","5.00","37","000",,"0",,,,,,,,,,,,,,,,,,,,,,,,,,,,,,,,,,,,,"MET11902/13/20 02:35:02 SPECI KJFK 130735Z 00000KT 5SM -RA BR BKN009 OVC023 03/02 A2983 RMK AO2 PRESFR P0005 T00280022 $ (JC)","FM-16","7",,,,,,,,,,,,,,,,,,,,,,,,,,,,"2009-05-01"
"74486094789","2020-02-13T02:43:00","FM-16","7",,"ESE","1.5","mi","TEMP, PRECIP, SNOW",,,"PSY, SRG, SNOWBOARD",,,"FAA CWO",,,,,,,,,,,,,,,,,,,,,,,,,,,"29.81","36","37","0.06","-RA:02 BR:1 |RA |RA",,,"96",,"BKN:07 5 OVC:08 24","29.78","2.00","37","090",,"3",,,,,,,,,,,,,,,,,,,,,,,,,,,,,,,,,,,,,"MET12902/13/20 02:43:02 SPECI KJFK 130743Z 09003KT 2SM -RA BR BKN005 OVC024 03/02 A2981 RMK AO2 SFC VIS 4 PRESFR P0006 T00280022 $ (JC)","FM-16","7",,,,,,,,,,,,,,,,,,,,,,,,,,,,"2009-05-01"
"74486094789","2020-02-13T02:51:00","FM-15","7",,"ESE","1.5","mi","TEMP, PRECIP, SNOW",,,"PSY, SRG, SNOWBOARD",,,"FAA CWO",,,,,,,,,,,,,,,,,,,,,,,,,,,"29.80","36","37","0.06","-RA:02 BR:1 |RA |RA",,,"96","29.80","BKN:07 5 OVC:08 27","29.78","2.00","37","100",,"5",,,,,,,,,,,,,,,,,,,,,,,,,,,,,,,,,,,,,"MET12902/13/20 02:51:02 METAR KJFK 130751Z 10004KT 2SM -RA BR BKN005 OVC027 03/02 A2980 RMK AO2 SFC VIS 5 SLP091 P0006 T00280022 $ (JC)","FM-15","7",,,,,,,,,,,,,,,,,,,,,,,,,,,,"2009-05-01"
"74486094789","2020-02-13T03:51:00","FM-15","7",,"ESE","1.5","mi","TEMP, PRECIP, SNOW",,,"PSY, SRG, SNOWBOARD",,,"FAA CWO",,,,,,,,,,,,,,,,,,,,,,,,,,,"29.80","37","38","0.05","-RA:02 BR:1 |RA |RA","+0.14","6","97","29.80","OVC:08 5","29.78","2.00","38","330",,"9",,,,,,,,,,,,,,,,,,,,,,,,,,,,,,,,,,,,,"MET13402/13/20 03:51:02 METAR KJFK 130851Z 33008KT 2SM -RA BR OVC005 03/03 A2980 RMK AO2 SFC VIS 5 SLP090 P0005 60013 T00330028 56048 $ (JC)","FM-15","7",,,,,,,,,,,,,,,,,,,,,,,,,,,,"2009-05-01"
"74486094789","2020-02-13T04:00:00","FM-12","4",,"ESE","1.5","mi","TEMP, PRECIP, SNOW",,,"PSY, SRG, SNOWBOARD",,,"FAA CWO",,,,,,,,,,,,,,,,,,,,,,,,,,,,"37","38",,"||RA","+0.14","6","97","29.80","5","29.77","1.99","38","330",,"9",,,,,,,,,,,,,,,,,,,,,,,,,,,,,,,,,,,,,"SYN08674486 11232 83308 10033 20028 30080 40090 56048 60037 761// 90851 333 96010 555 91309=","FM-12","4",,,,,,,,,,,,,,,,,,,,,,,,,,,,"2009-05-01"
"74486094789","2020-02-13T04:51:00","FM-15","7",,"ESE","1.5","mi","TEMP, PRECIP, SNOW",,,"PSY, SRG, SNOWBOARD",,,"FAA CWO",,,,,,,,,,,,,,,,,,,,,,,,,,,"29.77","36","38","0.02","-RA:02 BR:1 |RA |RA",,,"93","29.76","BKN:07 5 OVC:08 17","29.75","2.00","37","350",,"8",,,,,,,,,,,,,,,,,,,,,,,,,,,,,,,,,,,,,"MET12902/13/20 04:51:02 METAR KJFK 130951Z 35007KT 2SM -RA BR BKN005 OVC017 03/02 A2977 RMK AO2 SFC VIS 5 SLP079 P0002 T00330022 $ (JC)","FM-15","7",,,,,,,,,,,,,,,,,,,,,,,,,,,,"2009-05-01"
"74486094789","2020-02-13T05:45:00","FM-16","7",,"ESE","1.5","mi","TEMP, PRECIP, SNOW",,,"PSY, SRG, SNOWBOARD",,,"FAA CWO",,,,,,,,,,,,,,,,,,,,,,,,,,,"29.73","36","37","0.02","BR:1 ||",,,"93",,"BKN:07 5 OVC:08 20","29.70","3.00","37","050",,"5",,,,,,,,,,,,,,,,,,,,,,,,,,,,,,,,,,,,,"MET11402/13/20 05:45:02 SPECI KJFK 131045Z 05004KT 3SM BR BKN005 OVC020 03/02 A2973 RMK AO2 SFC VIS 5 RAE39 P0002 $ (JC)","FM-16","7",,,,,,,,,,,,,,,,,,,,,,,,,,,,"2009-05-01"
"74486094789","2020-02-13T05:51:00","FM-15","7",,"ESE","1.5","mi","TEMP, PRECIP, SNOW",,,"PSY, SRG, SNOWBOARD",,,"FAA CWO",,,,,,,,,,,,,,,,,,,,,,,,,,,"29.74","36","38","0.01","-RA:02 BR:1 |RA |RA",,,"93","29.73","BKN:07 5 OVC:08 20","29.72","3.00","37","010",,"6",,,,,,,,,,,,,,,,,,,,,,,,,,,,,,,,,,,,,"MET13802/13/20 05:51:02 METAR KJFK 131051Z 01005KT 3SM -RA BR BKN005 OVC020 03/02 A2974 RMK AO2 SFC VIS 5 RAE39B46 SLP069 P0002 T00330022 $ (JC)","FM-15","7",,,,,,,,,,,,,,,,,,,,,,,,,,,,"2009-05-01"
"74486094789","2020-02-13T06:49:00","FM-16","6",,"ESE","1.5","mi","TEMP, PRECIP, SNOW",,,"PSY, SRG, SNOWBOARD",,,"FAA CWO",,,,,,,,,,,,,,,,,,,,,,,,,,,"29.66","36","37",,"-RA:02 |RA |RA",,,"93",,"SCT:04 4 OVC:08 11","29.64","7.00","37","100",,"5",,,,,,,,,,,,,,,,,,,,,,,,,,,,,,,,,,,,,"MET10402/13/20 06:49:02 SPECI KJFK 131149Z 10004KT 7SM -RA SCT004 OVC011 03/02 A2966 RMK AO2 P0001 $ FIBI (BH)","FM-16","6",,,,,,,,,,,,,,,,,,,,,,,,,,,,"2009-05-01"
"74486094789","2020-02-13T06:51:00","FM-15","7",,"ESE","1.5","mi","TEMP, PRECIP, SNOW",,,"PSY, SRG, SNOWBOARD",,,"FAA CWO",,,,,,,,,,,,,,,,,,,,,,,,,,,"29.66","37","38","0.01","-RA:02 |RA |RA","+0.14","8","97","29.66","SCT:04 4 OVC:08 11","29.64","7.00","38","100",,"5",,,,,,,,,,,,,,,,,,,,,,,,,,,,,,,,,,,,,"MET14602/13/20 06:51:02 METAR KJFK 131151Z 10004KT 7SM -RA SCT004 OVC011 03/03 A2966 RMK AO2 SLP045 P0001 60018 70031 T00330028 10033 20022 58046 $ (BH)","FM-15","7",,,,,,,,,,,,,,,,,,,,,,,,,,,,"2009-05-01"
"74486094789","2020-02-13T07:00:00","FM-12","4",,"ESE","1.5","mi","TEMP, PRECIP, SNOW",,,"PSY, SRG, SNOWBOARD",,,"FAA CWO",,,,,,,,,,,,,,,,,,,,,,,,,,,,"37","38",,"||RA","+0.14","8","97","29.66","5","29.63","6.84","38","100",,"5",,,,,,,,,,,,,,,,,,,,,,,,,,,,,,,,,,,,,"SYN09874486 11261 81004 10033 20028 30033 40045 58046 60051 761// 91151 333 10072 20022 70079 555 91312=","FM-12","4",,,,,,,,,,,,,,,,,,,,,,,,,,,,"2009-05-01"
"74486094789","2020-02-13T07:06:00","FM-16","7",,"ESE","1.5","mi","TEMP, PRECIP, SNOW",,,"PSY, SRG, SNOWBOARD",,,"FAA CWO",,,,,,,,,,,,,,,,,,,,,,,,,,,"29.68","37","38","T","-RA:02 |RA |RA",,,"97",,"BKN:07 5 OVC:08 11","29.65","8.00","38","330",,"5",,,,,,,,,,,,,,,,,,,,,,,,,,,,,,,,,,,,,"MET10902/13/20 07:06:02 SPECI KJFK 131206Z 33004KT 8SM -RA BKN005 OVC011 03/03 A2968 RMK AO2 P0000 T00330028 $ (BH)","FM-16","7",,,,,,,,,,,,,,,,,,,,,,,,,,,,"2009-05-01"
"74486094789","2020-02-13T07:51:00","FM-15","7",,"ESE","1.5","mi","TEMP, PRECIP, SNOW",,,"PSY, SRG, SNOWBOARD",,,"FAA CWO",,,,,,,,,,,,,,,,,,,,,,,,,,,"29.71","37","39","T","-RA:02 |RA |RA",,,"93","29.70","OVC:08 8","29.69","9.00","38","000",,"0",,,,,,,,,,,,,,,,,,,,,,,,,,,,,,,,,,,,,"MET11802/13/20 07:51:02 METAR KJFK 131251Z 00000KT 9SM -RA OVC008 04/03 A2971 RMK AO2 RAE18B48 SLP058 P0000 T00390028 $ (BH)","FM-15","7",,,,,,,,,,,,,,,,,,,,,,,,,,,,"2009-05-01"
"74486094789","2020-02-13T08:51:00","FM-15","7",,"ESE","1.5","mi","TEMP, PRECIP, SNOW",,,"PSY, SRG, SNOWBOARD",,,"FAA CWO",,,,,,,,,,,,,,,,,,,,,,,,,,,"29.72","38","40","T","-RA:02 BR:1 |RA |RA",,,"93","29.71","OVC:08 7","29.70","6.00","39","000",,"0",,,,,,,,,,,,,,,,,,,,,,,,,,,,,,,,,,,,,"MET11202/13/20 08:51:02 METAR KJFK 131351Z 00000KT 6SM -RA BR OVC007 04/03 A2972 RMK AO2 SLP062 P0000 T00440033 $ (BH)","FM-15","7",,,,,,,,,,,,,,,,,,,,,,,,,,,,"2009-05-01"
"74486094789","2020-02-13T09:51:00","FM-15","7",,"ESE","1.5","mi","TEMP, PRECIP, SNOW",,,"PSY, SRG, SNOWBOARD",,,"FAA CWO",,,,,,,,,,,,,,,,,,,,,,,,,,,"29.66","38","40","T","-DZ:01 BR:1 |DZ |DZ","-0.00","0","93","29.66","OVC:08 5","29.64","6.00","39","090",,"3",,,,,,,,,,,,,,,,,,,,,,,,,,,,,,,,,,,,,"MET13302/13/20 09:51:02 METAR KJFK 131451Z 09003KT 6SM -DZ BR OVC005 04/03 A2966 RMK AO2 RAE49DZB49 SLP045 P0000 60000 T00440033 50000 (BH)","FM-15","7",,,,,,,,,,,,,,,,,,,,,,,,,,,,"2009-05-01"
"74486094789","2020-02-13T10:00:00","FM-12","4",,"ESE","1.5","mi","TEMP, PRECIP, SNOW",,,"PSY, SRG, SNOWBOARD",,,"FAA CWO",,,,,,,,,,,,,,,,,,,,,,,,,,,,"38","40",,"||DZ","0.00","9","93","29.66","5","29.63","5.59","39","090",,"3",,,,,,,,,,,,,,,,,,,,,,,,,,,,,,,,,,,,,"SYN08674486 11259 80903 10044 20033 30033 40045 50000 69907 751// 91451 333 96010 555 91315=","FM-12","4",,,,,,,,,,,,,,,,,,,,,,,,,,,,"2009-05-01"
"74486094789","2020-02-13T10:51:00","FM-15","7",,"ESE","1.5","mi","TEMP, PRECIP, SNOW",,,"PSY, SRG, SNOWBOARD",,,"FAA CWO",,,,,,,,,,,,,,,,,,,,,,,,,,,"29.67","39","41","0.01","-RA:02 BR:1 |RA |RA",,,"93","29.67","OVC:08 7","29.65","4.00","40","000",,"0",,,,,,,,,,,,,,,,,,,,,,,,,,,,,,,,,,,,,"MET12802/13/20 10:51:02 METAR KJFK 131551Z 00000KT 4SM -RA BR OVC007 05/04 A2967 RMK AO2 DZE25RAB25 PRESFR SLP048 P0001 T00500039 (BH)","FM-15","7",,,,,,,,,,,,,,,,,,,,,,,,,,,,"2009-05-01"
"74486094789","2020-02-13T11:51:00","FM-15","7",,"ESE","1.5","mi","TEMP, PRECIP, SNOW",,,"PSY, SRG, SNOWBOARD",,,"FAA CWO",,,,,,,,,,,,,,,,,,,,,,,,,,,"29.63","40","41","0.01","-RA:02 BR:1 |RA |RA",,,"96","29.63","OVC:08 9","29.61","6.00","41","170",,"7",,,,,,,,,,,,,,,,,,,,,,,,,,,,,,,,,,,,,"MET11702/13/20 11:51:02 METAR KJFK 131651Z 17006KT 6SM -RA BR OVC009 05/04 A2963 RMK AO2 PRESFR SLP033 P0001 T00500044 (BH)","FM-15","7",,,,,,,,,,,,,,,,,,,,,,,,,,,,"2009-05-01"
"74486094789","2020-02-13T12:51:00","FM-15","7",,"ESE","1.5","mi","TEMP, PRECIP, SNOW",,,"PSY, SRG, SNOWBOARD",,,"FAA CWO",,,,,,,,,,,,,,,,,,,,,,,,,,,"29.62","40","41","0.01","-RA:02 BR:1 |RA |RA","+0.04","8","96","29.62","OVC:08 6","29.59","4.00","41","220",,"6",,,,,,,,,,,,,,,,,,,,,,,,,,,,,,,,,,,,,"MET13402/13/20 12:51:02 METAR KJFK 131751Z 22005KT 4SM -RA BR OVC006 05/04 A2962 RMK AO2 SLP030 P0000 60002 T00500044 10050 20033 58015 (BH)","FM-15","7",,,,,,,,,,,,,,,,,,,,,,,,,,,,"2009-05-01"
"74486094789","2020-02-13T13:00:00","FM-12","4",,"ESE","1.5","mi","TEMP, PRECIP, SNOW",,,"PSY, SRG, SNOWBOARD",,,"FAA CWO",,,,,,,,,,,,,,,,,,,,,,,,,,,,"40","41",,"||RA","+0.04","8","96","29.62","5","29.59","3.73","41","220",,"6",,,,,,,,,,,,,,,,,,,,,,,,,,,,,,,,,,,,,"SYN09874486 11256 82205 10050 20044 30019 40030 58015 69951 761// 91751 333 10050 20033 96010 555 91318=","FM-12","4",,,,,,,,,,,,,,,,,,,,,,,,,,,,"2009-05-01"
"74486094789","2020-02-13T13:17:00","FM-16","7",,"ESE","1.5","mi","TEMP, PRECIP, SNOW",,,"PSY, SRG, SNOWBOARD",,,"FAA CWO",,,,,,,,,,,,,,,,,,,,,,,,,,,"29.65","40","42","0.02","-RA:02 BR:1 |RA |RA",,,"92",,"BKN:07 7 OVC:08 18","29.62","2.50","41","250",,"8",,,,,,,,,,,,,,,,,,,,,,,,,,,,,,,,,,,,,"MET12102/13/20 13:17:02 SPECI KJFK 131817Z 25007KT 2 1/2SM -RA BR BKN007 OVC018 06/04 A2965 RMK AO2 PRESRR P0002 T00560044 (BH)","FM-16","7",,,,,,,,,,,,,,,,,,,,,,,,,,,,"2009-05-01"
"74486094789","2020-02-13T13:49:00","FM-16","6",,"ESE","1.5","mi","TEMP, PRECIP, SNOW",,,"PSY, SRG, SNOWBOARD",,,"FAA CWO",,,,,,,,,,,,,,,,,,,,,,,,,,,"29.62","41","43",,"-RA:02 BR:1 |RA |RA",,,"93",,"BKN:07 7 OVC:08 20","29.59","3.00","42","300",,"8",,,,,,,,,,,,,,,,,,,,,,,,,,,,,,,,,,,,,"MET11502/13/20 13:49:02 SPECI KJFK 131849Z 30007KT 3SM -RA BR BKN007 OVC020 06/05 A2962 RMK AO2 SFC VIS 4 P0005 FIBI (BH)","FM-16","6",,,,,,,,,,,,,,,,,,,,,,,,,,,,"2009-05-01"
"74486094789","2020-02-13T13:51:00","FM-15","7",,"ESE","1.5","mi","TEMP, PRECIP, SNOW",,,"PSY, SRG, SNOWBOARD",,,"FAA CWO",,,,,,,,,,,,,,,,,,,,,,,,,,,"29.61","41","43","0.04","-RA:02 BR:1 |RA |RA",,,"93","29.61","BKN:07 9 OVC:08 20","29.59","3.00","42","300",,"8",,,,,,,,,,,,,,,,,,,,,,,,,,,,,,,,,,,,,"MET13902/13/20 13:51:02 METAR KJFK 131851Z 30007KT 3SM -RA BR BKN009 OVC020 06/05 A2961 RMK AO2 SFC VIS 4 SLP026 CIG 007V011 P0005 T00610050 (BH)","FM-15","7",,,,,,,,,,,,,,,,,,,,,,,,,,,,"2009-05-01"
"74486094789","2020-02-13T14:51:00","FM-15","7",,"ESE","1.5","mi","TEMP, PRECIP, SNOW",,,"PSY, SRG, SNOWBOARD",,,"FAA CWO",,,,,,,,,,,,,,,,,,,,,,,,,,,"29.63","41","43","0.04","-RA:02 BR:1 |RA |RA",,,"93","29.62","BKN:07 6 BKN:07 13 OVC:08 50","29.61","3.00","42","310",,"9",,,,,,,,,,,,,,,,,,,,,,,,,,,,,,,,,,,,,"MET13402/13/20 14:51:02 METAR KJFK 131951Z 31008KT 3SM -RA BR BKN006 BKN013 OVC050 06/05 A2963 RMK AO2 SFC VIS 5 SLP032 P0004 T00610050 (RR)","FM-15","7",,,,,,,,,,,,,,,,,,,,,,,,,,,,"2009-05-01"
"74486094789","2020-02-13T15:31:00","FM-16","7",,"ESE","1.5","mi","TEMP, PRECIP, SNOW",,,"PSY, SRG, SNOWBOARD",,,"FAA CWO",,,,,,,,,,,,,,,,,,,,,,,,,,,"29.65","41","43","0.01","-RA:02 BR:1 |RA |RA",,,"93",,"FEW:02 8 SCT:04 24 OVC:08 50","29.62","3.00","42","300",,"8",,,,,,,,,,,,,,,,,,,,,,,,,,,,,,,,,,,,,"MET12702/13/20 15:31:02 SPECI KJFK 132031Z 30007KT 3SM -RA BR FEW008 SCT024 OVC050 06/05 A2965 RMK AO2 SFC VIS 5 P0001 T00610050 (RR)","FM-16","7",,,,,,,,,,,,,,,,,,,,,,,,,,,,"2009-05-01"
"74486094789","2020-02-13T15:51:00","FM-15","7",,"ESE","1.5","mi","TEMP, PRECIP, SNOW",,,"PSY, SRG, SNOWBOARD",,,"FAA CWO",,,,,,,,,,,,,,,,,,,,,,,,,,,"29.66","41","43","0.01","-RA:02 BR:1 |RA |RA","-0.04","3","93","29.66","FEW:02 8 FEW:02 24 OVC:08 50","29.64","6.00","42","330",,"5",,,,,,,,,,,,,,,,,,,,,,,,,,,,,,,,,,,,,"MET13602/13/20 15:51:02 METAR KJFK 132051Z 33004KT 6SM -RA BR FEW008 FEW024 OVC050 06/05 A2966 RMK AO2 SLP043 P0001 60010 T00610050 53014 (RR)","FM-15","7",,,,,,,,,,,,,,,,,,,,,,,,,,,,"2009-05-01"
"74486094789","2020-02-13T16:00:00","FM-12","4",,"ESE","1.5","mi","TEMP, PRECIP, SNOW",,,"PSY, SRG, SNOWBOARD",,,"FAA CWO",,,,,,,,,,,,,,,,,,,,,,,,,,,,"41","43",,"||RA","-0.04","3","93","29.66","8","29.63","5.59","42","330",,"5",,,,,,,,,,,,,,,,,,,,,,,,,,,,,,,,,,,,,"SYN08674486 11359 83304 10061 20050 30033 40043 53014 60037 761// 92051 333 96010 555 91321=","FM-12","4",,,,,,,,,,,,,,,,,,,,,,,,,,,,"2009-05-01"
"74486094789","2020-02-13T16:51:00","FM-15","7",,"ESE","1.5","mi","TEMP, PRECIP, SNOW",,,"PSY, SRG, SNOWBOARD",,,"FAA CWO",,,,,,,,,,,,,,,,,,,,,,,,,,,"29.68","38","43","0.00",,,,"82","29.68","SCT:04 11 SCT:04 70 BKN:07 170","29.65","10.00","41","300",,"9",,,,,,,,,,,,,,,,,,,,,,,,,,,,,,,,,,,,,"MET13302/13/20 16:51:02 METAR KJFK 132151Z 30008KT 10SM SCT011 SCT070 BKN170 06/03 A2968 RMK AO2 RAE2059 PRESRR SLP051 P0000 T00610033 (RR)","FM-15","7",,,,,,,,,,,,,,,,,,,,,,,,,,,,"2009-05-01"
"74486094789","2020-02-13T17:51:00","FM-15","7",,"ESE","1.5","mi","TEMP, PRECIP, SNOW",,,"PSY, SRG, SNOWBOARD",,,"FAA CWO",,,,,,,,,,,,,,,,,,,,,,,,,,,"29.71","38","43","0.00",,,,"82","29.71","FEW:02 11 SCT:04 80 BKN:07 100","29.69","10.00","41","290",,"13",,,,,,,,,,,,,,,,,,,,,,,,,,,,,,,,,,,,,"MET11202/13/20 17:51:02 METAR KJFK 132251Z 29011KT 10SM FEW011 SCT080 BKN100 06/03 A2971 RMK AO2 SLP060 T00610033 (RR)","FM-15","7",,,,,,,,,,,,,,,,,,,,,,,,,,,,"2009-05-01"
"74486094789","2020-02-13T18:46:00","FM-16","7",,"ESE","1.5","mi","TEMP, PRECIP, SNOW",,,"PSY, SRG, SNOWBOARD",,,"FAA CWO",,,,,,,,,,,,,,,,,,,,,,,,,,,"29.76","37","45",,,,,"76",,"BKN:07 25 BKN:07 100 BKN:07 240","29.74","10.00","41","300",,"16",,,,,,,,,,,,,,,,,,,,,,,,,,,,,,,,,,,,,"MET09502/13/20 18:46:02 SPECI KJFK 132346Z 30014KT 10SM BKN025 BKN100 BKN240 07/03 A2976 RMK AO2 (RR)","FM-16","7",,,,,,,,,,,,,,,,,,,,,,,,,,,,"2009-05-01"
"74486094789","2020-02-13T18:51:00","FM-15","7",,"ESE","1.5","mi","TEMP, PRECIP, SNOW",,,"PSY, SRG, SNOWBOARD",,,"FAA CWO",,,,,,,,,,,,,,,,,,,,,,,,,,,"29.77","38","44","0.00",,"-0.08","1","79","29.77","BKN:07 25 BKN:07 100 BKN:07 240","29.75","10.00","41","300",,"14",,,,,,,,,,,,,,,,,,,,,,,,,,,,,,,,,,,,,"MET13602/13/20 18:51:02 METAR KJFK 132351Z 30012KT 10SM BKN025 BKN100 BKN240 07/03 A2977 RMK AO2 SLP080 60010 T00670033 10067 20050 51028 (RR)","FM-15","7",,,,,,,,,,,,,,,,,,,,,,,,,,,,"2009-05-01"
"74486094789","2020-02-13T19:00:00","FM-12","4",,"ESE","1.5","mi","TEMP, PRECIP, SNOW",,,"PSY, SRG, SNOWBOARD",,,"FAA CWO",,,,,,,,,,,,,,,,,,,,,,,,,,,,"38","44",,,"-0.08","1","79","29.77","26","29.74","9.94","41","300",,"14",,,,,,,,,,,,,,,,,,,,,,,,,,,,,,,,,,,,,"SYN08674486 12566 63012 10067 20033 30070 40080 51028 60031 92351 333 10067 20022 555 91400=","FM-12","4",,,,,,,,,,,,,,,,,,,,,,,,,,,,"2009-05-01"
"74486094789","2020-02-13T19:51:00","FM-15","7",,"ESE","1.5","mi","TEMP, PRECIP, SNOW",,,"PSY, SRG, SNOWBOARD",,,"FAA CWO",,,,,,,,,,,,,,,,,,,,,,,,,,,"29.81","35","44","0.00",,,,"71","29.81","BKN:07 28 BKN:07 250","29.78","10.00","40","300","28","22",,,,,,,,,,,,,,,,,,,,,,,,,,,,,,,,,,,,,"MET10302/13/20 19:51:01 METAR KJFK 140051Z 30019G24KT 10SM BKN028 BKN250 07/02 A2981 RMK AO2 SLP095 T00670017","FM-15","7",,,,,,,,,,,,,,,,,,,,,,,,,,,,"2009-05-01"
"74486094789","2020-02-13T20:48:00","FM-16","7",,"ESE","1.5","mi","TEMP, PRECIP, SNOW",,,"PSY, SRG, SNOWBOARD",,,"FAA CWO",,,,,,,,,,,,,,,,,,,,,,,,,,,"29.83","34","43",,,,,"71",,"FEW:02 31 BKN:07 250","29.80","10.00","39","310","28","21",,,,,,,,,,,,,,,,,,,,,,,,,,,,,,,,,,,,,"MET10402/13/20 20:48:01 SPECI KJFK 140148Z 31018G24KT 10SM FEW031 BKN250 06/01 A2983 RMK AO2 PK WND 29030/0058","FM-16","7",,,,,,,,,,,,,,,,,,,,,,,,,,,,"2009-05-01"
"74486094789","2020-02-13T20:51:00","FM-15","7",,"ESE","1.5","mi","TEMP, PRECIP, SNOW",,,"PSY, SRG, SNOWBOARD",,,"FAA CWO",,,,,,,,,,,,,,,,,,,,,,,,,,,"29.84","32","42","0.00",,,,"68","29.83","FEW:02 31 BKN:07 250","29.82","10.00","38","300",,"21",,,,,,,,,,,,,,,,,,,,,,,,,,,,,,,,,,,,,"MET11802/13/20 20:51:01 METAR KJFK 140151Z 30018KT 10SM FEW031 BKN250 06/00 A2984 RMK AO2 PK WND 29030/0058 SLP103 T00560000","FM-15","7",,,,,,,,,,,,,,,,,,,,,,,,,,,,"2009-05-01"
"74486094789","2020-02-13T21:51:00","FM-15","7",,"ESE","1.5","mi","TEMP, PRECIP, SNOW",,,"PSY, SRG, SNOWBOARD",,,"FAA CWO",,,,,,,,,,,,,,,,,,,,,,,,,,,"29.88","29","41","0.00",,"-0.06","3","62","29.88","FEW:02 35 BKN:07 250","29.85","10.00","36","300","28","18",,,,,,,,,,,,,,,,,,,,,,,,,,,,,,,,,,,,,"MET11002/13/20 21:51:01 METAR KJFK 140251Z 30016G24KT 10SM FEW035 BKN250 05/M02 A2988 RMK AO2 SLP117 T00501017 53022","FM-15","7",,,,,,,,,,,,,,,,,,,,,,,,,,,,"2009-05-01"
"74486094789","2020-02-13T22:00:00","FM-12","4",,"ESE","1.5","mi","TEMP, PRECIP, SNOW",,,"PSY, SRG, SNOWBOARD",,,"FAA CWO",,,,,,,,,,,,,,,,,,,,,,,,,,,,"29","41",,,"-0.06","3","62","29.88","41","29.85","9.94","36","300",,"18",,,,,,,,,,,,,,,,,,,,,,,,,,,,,,,,,,,,,"SYN07474486 32666 63016 10050 21017 30107 40117 53022 90251 333 91024 555 91403=","FM-12","4",,,,,,,,,,,,,,,,,,,,,,,,,,,,"2009-05-01"
"74486094789","2020-02-13T22:51:00","FM-15","7",,"ESE","1.5","mi","TEMP, PRECIP, SNOW",,,"PSY, SRG, SNOWBOARD",,,"FAA CWO",,,,,,,,,,,,,,,,,,,,,,,,,,,"29.91","28","41","0.00",,,,"60","29.91","BKN:07 37 BKN:07 100 BKN:07 250","29.88","10.00","36","320","26","17",,,,,,,,,,,,,,,,,,,,,,,,,,,,,,,,,,,,,"MET12902/13/20 22:51:01 METAR KJFK 140351Z 32015G23KT 10SM BKN037 BKN100 BKN250 05/M02 A2991 RMK AO2 PK WND 31029/0321 SLP128 T00501022","FM-15","7",,,,,,,,,,,,,,,,,,,,,,,,,,,,"2009-05-01"
"74486094789","2020-02-13T23:51:00","FM-15","7",,"ESE","1.5","mi","TEMP, PRECIP, SNOW",,,"PSY, SRG, SNOWBOARD",,,"FAA CWO",,,,,,,,,,,,,,,,,,,,,,,,,,,"29.93","27","40","0.00",,,,"60","29.92","FEW:02 48 SCT:04 100 BKN:07 250","29.91","10.00","35","300","23","13",,,,,,,,,,,,,,,,,,,,,,,,,,,,,,,,,,,,,"MET12102/13/20 23:51:02 METAR KJFK 140451Z 30011G20KT 10SM FEW048 SCT100 BKN250 04/M03 A2993 RMK AO2 SLP133 T00441028 400670022","FM-15","7",,,,,,,,,,,,,,,,,,,,,,,,,,,,"2009-05-01"
"74486094789","2020-02-13T23:59:00","SOD  ","6",,"ESE","1.5","mi","TEMP, PRECIP, SNOW",,,"PSY, SRG, SNOWBOARD",,,"FAA CWO",,,,"36","40","86","29.75","29.72","39","8.2","0","5.4","25","44","36","290","34","0.31","0","0.0","300","26","RA DZ BR",,,,,,,,,,,,,,,,,,,,,,,,,,,,,,,,,,,,,,,,,,,,,,,,,,,,,,,,"SOD75624 HR PRECIPITATION (IN): 0.31 SNOW DEPTH (IN):0     24 HR SNOWFALL (IN):0.0  WEATHER(CODE):1  24 HR MAX TEMP (F): 4424 HR MIN TEMP (F): 36AVERAGE STATION PRESSURE:29.720 MINIMUM SEA LEVEL PRESSURE:29.59 TIME OF OCCURRENCE:1355 PEAK WIND SPEED (MPH): 34 PEAK WIND DIR (DEG):290 PEAK WIND TIME (LST):      FASTEST 2MIN SPEED (MPH): 26FASTEST 2MIN DIR (DEG):300 FASTEST 2MIN TIME (LST):     AVERAGE WIND SPEED (MPH): 8.2 24 HR AVG TEMP (F): 40DEPART FROM NORMAL:  5  HEATING DEGREE DAYS: 25 COOLING DEGREE DAYS:  0 LATEST DAY MAX TEMP (0700-1900 LST):44  LATEST NIGHT MIN TEMP(1900-0800 LST):36 HOURLY INCREMENTAL PRECIPITATION VALUES (IN):.01 0.03 0.06 0.05 0.02 0.01 0.01 T    T    T    0.01 0.01 0.01 0.04 0.04 0.01 0.00 0.00 0.00 0.00 0.00 0.00 0.00 0.00","SOD  ","6",,,,,,,,,,,,,,,,,,,,,,,,,"0652","1727",,"2009-05-01"
"74486094789","2020-02-14T00:51:00","FM-15","7",,"ESE","1.5","mi","TEMP, PRECIP, SNOW",,,"PSY, SRG, SNOWBOARD",,,"FAA CWO",,,,,,,,,,,,,,,,,,,,,,,,,,,"29.96","25","39","0.00",,"-0.09","3","57","29.96","FEW:02 40 BKN:07 250","29.93","10.00","34","290",,"13",,,,,,,,,,,,,,,,,,,,,,,,,,,,,,,,,,,,,"MET12402/14/20 00:51:02 METAR KJFK 140551Z 29011KT 10SM FEW040 BKN250 04/M04 A2996 RMK AO2 SLP146 T00391039 10067 20039 53029 (ML)","FM-15","7",,,,,,,,,,,,,,,,,,,,,,,,,,,,"2009-05-01"
"74486094789","2020-02-14T01:00:00","FM-12","4",,"ESE","1.5","mi","TEMP, PRECIP, SNOW",,,"PSY, SRG, SNOWBOARD",,,"FAA CWO",,,,,,,,,,,,,,,,,,,,,,,,,,,,"25","39",,,"-0.09","3","57","29.96","41","29.93","9.94","34","290",,"13",,,,,,,,,,,,,,,,,,,,,,,,,,,,,,,,,,,,,"SYN08074486 32666 62911 10039 21039 30134 40146 53029 90551 333 10067 20022 555 91406=","FM-12","4",,,,,,,,,,,,,,,,,,,,,,,,,,,,"2009-05-01"
"74486094789","2020-02-14T01:51:00","FM-15","7",,"ESE","1.5","mi","TEMP, PRECIP, SNOW",,,"PSY, SRG, SNOWBOARD",,,"FAA CWO",,,,,,,,,,,,,,,,,,,,,,,,,,,"29.97","26","39","0.00",,,,"60","29.97","FEW:02 40 SCT:04 50 BKN:07 250","29.95","10.00","34","280",,"11",,,,,,,,,,,,,,,,,,,,,,,,,,,,,,,,,,,,,"MET11302/14/20 01:51:02 METAR KJFK 140651Z 28010KT 10SM FEW040 SCT050 BKN250 04/M03 A2997 RMK AO2 SLP149 T00391033 (ML)","FM-15","7",,,,,,,,,,,,,,,,,,,,,,,,,,,,"2009-05-01"
"74486094789","2020-02-14T02:51:00","FM-15","7",,"ESE","1.5","mi","TEMP, PRECIP, SNOW",,,"PSY, SRG, SNOWBOARD",,,"FAA CWO",,,,,,,,,,,,,,,,,,,,,,,,,,,"29.99","28","38","0.00",,,,"68","29.98","FEW:02 50 BKN:07 250","29.96","10.00","34","260",,"11",,,,,,,,,,,,,,,,,,,,,,,,,,,,,,,,,,,,,"MET10602/14/20 02:51:02 METAR KJFK 140751Z 26010KT 10SM FEW050 BKN250 03/M02 A2999 RMK AO2 SLP153 T00331022 (ML)","FM-15","7",,,,,,,,,,,,,,,,,,,,,,,,,,,,"2009-05-01"
"74486094789","2020-02-14T03:51:00","FM-15","7",,"ESE","1.5","mi","TEMP, PRECIP, SNOW",,,"PSY, SRG, SNOWBOARD",,,"FAA CWO",,,,,,,,,,,,,,,,,,,,,,,,,,,"30.01","29","38","0.00",,"-0.05","3","70","30.01","FEW:02 50 SCT:04 250","29.98","10.00","34","270",,"13",,,,,,,,,,,,,,,,,,,,,,,,,,,,,,,,,,,,,"MET11202/14/20 03:51:02 METAR KJFK 140851Z 27011KT 10SM FEW050 SCT250 03/M02 A3001 RMK AO2 SLP163 T00331017 53017 (ML)","FM-15","7",,,,,,,,,,,,,,,,,,,,,,,,,,,,"2009-05-01"
"74486094789","2020-02-14T04:00:00","FM-12","4",,"ESE","1.5","mi","TEMP, PRECIP, SNOW",,,"PSY, SRG, SNOWBOARD",,,"FAA CWO",,,,,,,,,,,,,,,,,,,,,,,,,,,,"29","38",,,"-0.05","3","70","30.01","57","29.98","9.94","34","270",,"13",,,,,,,,,,,,,,,,,,,,,,,,,,,,,,,,,,,,,"SYN06474486 32766 42711 10033 21017 30151 40163 53017 90851 555 91409=","FM-12","4",,,,,,,,,,,,,,,,,,,,,,,,,,,,"2009-05-01"
"74486094789","2020-02-14T04:51:00","FM-15","7",,"ESE","1.5","mi","TEMP, PRECIP, SNOW",,,"PSY, SRG, SNOWBOARD",,,"FAA CWO",,,,,,,,,,,,,,,,,,,,,,,,,,,"30.04","28","38","0.00",,,,"68","30.04","SCT:04 38 BKN:07 250","30.01","10.00","34","280",,"11",,,,,,,,,,,,,,,,,,,,,,,,,,,,,,,,,,,,,"MET10602/14/20 04:51:02 METAR KJFK 140951Z 28010KT 10SM SCT038 BKN250 03/M02 A3004 RMK AO2 SLP173 T00331022 (ML)","FM-15","7",,,,,,,,,,,,,,,,,,,,,,,,,,,,"2009-05-01"
"74486094789","2020-02-14T05:51:00","FM-15","7",,"ESE","1.5","mi","TEMP, PRECIP, SNOW",,,"PSY, SRG, SNOWBOARD",,,"FAA CWO",,,,,,,,,,,,,,,,,,,,,,,,,,,"30.08","26","37","0.00",,,,"65","30.08","FEW:02 33 SCT:04 42 BKN:07 250","30.06","10.00","33","310",,"17",,,,,,,,,,,,,,,,,,,,,,,,,,,,,,,,,,,,,"MET11302/14/20 05:51:02 METAR KJFK 141051Z 31015KT 10SM FEW033 SCT042 BKN250 03/M03 A3008 RMK AO2 SLP185 T00281033 (ML)","FM-15","7",,,,,,,,,,,,,,,,,,,,,,,,,,,,"2009-05-01"
"74486094789","2020-02-14T06:51:00","FM-15","7",,"ESE","1.5","mi","TEMP, PRECIP, SNOW",,,"PSY, SRG, SNOWBOARD",,,"FAA CWO",,,,,,,,,,,,,,,,,,,,,,,,,,,"30.12","20","34","0.00",,"-0.11","3","56","30.12","FEW:02 30 FEW:02 65 SCT:04 250","30.09","10.00","29","340",,"23",,,,,,,,,,,,,,,,,,,,,,,,,,,,,,,,,,,,,"MET13902/14/20 06:51:02 METAR KJFK 141151Z 34020KT 10SM FEW030 FEW065 SCT250 01/M07 A3012 RMK AO2 SLP200 70012 T00111067 10039 20011 53037 $ (BH)","FM-15","7",,,,,,,,,,,,,,,,,,,,,,,,,,,,"2009-05-01"
"74486094789","2020-02-14T07:00:00","FM-12","4",,"ESE","1.5","mi","TEMP, PRECIP, SNOW",,,"PSY, SRG, SNOWBOARD",,,"FAA CWO",,,,,,,,,,,,,,,,,,,,,,,,,,,,"20","34",,,"-0.11","3","56","30.12","26","30.09","9.94","29","340",,"23",,,,,,,,,,,,,,,,,,,,,,,,,,,,,,,,,,,,,"SYN08674486 32566 43420 10011 21067 30188 40200 53037 91151 333 10067 20011 70030 555 91412=","FM-12","4",,,,,,,,,,,,,,,,,,,,,,,,,,,,"2009-05-01"
"74486094789","2020-02-14T07:51:00","FM-15","7",,"ESE","1.5","mi","TEMP, PRECIP, SNOW",,,"PSY, SRG, SNOWBOARD",,,"FAA CWO",,,,,,,,,,,,,,,,,,,,,,,,,,,"30.18","14","32","0.00",,,,"47","30.18","FEW:02 32 FEW:02 65 SCT:04 250","30.16","10.00","26","310","30","25",,,,,,,,,,,,,,,,,,,,,,,,,,,,,,,,,,,,,"MET14302/14/20 07:51:02 METAR KJFK 141251Z 31022G26KT 10SM FEW032 FEW065 SCT250 00/M10 A3018 RMK AO2 PK WND 33031/1214 PRESRR SLP220 T00001100 $ (BH)","FM-15","7",,,,,,,,,,,,,,,,,,,,,,,,,,,,"2009-05-01"
"74486094789","2020-02-14T08:51:00","FM-15","7",,"ESE","1.5","mi","TEMP, PRECIP, SNOW",,,"PSY, SRG, SNOWBOARD",,,"FAA CWO",,,,,,,,,,,,,,,,,,,,,,,,,,,"30.22","11","31","0.00",,,,"43","30.22","SCT:04 60 SCT:04 250","30.19","10.00","25","310","33","25",,,,,,,,,,,,,,,,,,,,,,,,,,,,,,,,,,,,,"MET13002/14/20 08:51:02 METAR KJFK 141351Z 31022G29KT 10SM SCT060 SCT250 M01/M12 A3022 RMK AO2 PK WND 32029/1313 SLP234 T10061117 $ (BH)","FM-15","7",,,,,,,,,,,,,,,,,,,,,,,,,,,,"2009-05-01"
"74486094789","2020-02-14T09:51:00","FM-15","7",,"ESE","1.5","mi","TEMP, PRECIP, SNOW",,,"PSY, SRG, SNOWBOARD",,,"FAA CWO",,,,,,,,,,,,,,,,,,,,,,,,,,,"30.26","11","32","0.00",,"-0.14","1","41","30.26","FEW:02 60 SCT:04 250","30.24","10.00","26","320","31","20",,,,,,,,,,,,,,,,,,,,,,,,,,,,,,,,,,,,,"MET15102/14/20 09:51:02 METAR KJFK 141451Z 32017G27KT 10SM FEW060 SCT250 00/M12 A3026 RMK AO2 PK WND 32032/1433 PRESRR SLP246 VIRGA SW T00001117 51046 $ (BH)","FM-15","7",,,,,,,,,,,,,,,,,,,,,,,,,,,,"2009-05-01"
"74486094789","2020-02-14T10:00:00","FM-12","4",,"ESE","1.5","mi","TEMP, PRECIP, SNOW",,,"PSY, SRG, SNOWBOARD",,,"FAA CWO",,,,,,,,,,,,,,,,,,,,,,,,,,,,"11","32",,,"-0.14","1","41","30.26","57","30.23","9.94","26","320",,"20",,,,,,,,,,,,,,,,,,,,,,,,,,,,,,,,,,,,,"SYN07474486 32766 43217 10000 21117 30236 40246 51046 91451 333 91027 555 91415=","FM-12","4",,,,,,,,,,,,,,,,,,,,,,,,,,,,"2009-05-01"
"74486094789","2020-02-14T10:51:00","FM-15","7",,"ESE","1.5","mi","TEMP, PRECIP, SNOW",,,"PSY, SRG, SNOWBOARD",,,"FAA CWO",,,,,,,,,,,,,,,,,,,,,,,,,,,"30.27","9","33","0.00",,,,"36","30.27","FEW:02 65 FEW:02 250","30.24","10.00","26","320","32","23",,,,,,,,,,,,,,,,,,,,,,,,,,,,,,,,,,,,,"MET12902/14/20 10:51:02 METAR KJFK 141551Z 32020G28KT 10SM FEW065 FEW250 01/M13 A3027 RMK AO2 PK WND 32030/1519 SLP251 T00061128 $ (BH)","FM-15","7",,,,,,,,,,,,,,,,,,,,,,,,,,,,"2009-05-01"
"74486094789","2020-02-14T11:51:00","FM-15","7",,"ESE","1.5","mi","TEMP, PRECIP, SNOW",,,"PSY, SRG, SNOWBOARD",,,"FAA CWO",,,,,,,,,,,,,,,,,,,,,,,,,,,"30.28","6","32","0.00",,,,"33","30.27","FEW:02 65 FEW:02 250","30.25","10.00","25","300","29","20",,,,,,,,,,,,,,,,,,,,,,,,,,,,,,,,,,,,,"MET12902/14/20 11:51:02 METAR KJFK 141651Z 30017G25KT 10SM FEW065 FEW250 00/M14 A3028 RMK AO2 PK WND 32029/1557 SLP252 T00001144 $ (BH)","FM-15","7",,,,,,,,,,,,,,,,,,,,,,,,,,,,"2009-05-01"
"74486094789","2020-02-14T12:51:00","FM-15","7",,"ESE","1.5","mi","TEMP, PRECIP, SNOW",,,"PSY, SRG, SNOWBOARD",,,"FAA CWO",,,,,,,,,,,,,,,,,,,,,,,,,,,"30.28","5","32","0.00",,"-0.02","0","32","30.27","FEW:02 70 FEW:02 250","30.25","10.00","25","310",,"20",,,,,,,,,,,,,,,,,,,,,,,,,,,,,,,,,,,,,"MET14402/14/20 12:51:02 METAR KJFK 141751Z 31017KT 10SM FEW070 FEW250 00/M15 A3028 RMK AO2 PK WND 34027/1714 SLP252 T00001150 10011 21011 50006 $ (BH)","FM-15","7",,,,,,,,,,,,,,,,,,,,,,,,,,,,"2009-05-01"
"74486094789","2020-02-14T13:00:00","FM-12","4",,"ESE","1.5","mi","TEMP, PRECIP, SNOW",,,"PSY, SRG, SNOWBOARD",,,"FAA CWO",,,,,,,,,,,,,,,,,,,,,,,,,,,,"5","32",,,"0.02","9","32","30.27","74","30.25","9.94","25","310",,"20",,,,,,,,,,,,,,,,,,,,,,,,,,,,,,,,,,,,,"SYN08074486 32866 23117 10000 21150 30243 40252 50006 91751 333 10039 21011 555 91418=","FM-12","4",,,,,,,,,,,,,,,,,,,,,,,,,,,,"2009-05-01"
"74486094789","2020-02-14T13:51:00","FM-15","7",,"ESE","1.5","mi","TEMP, PRECIP, SNOW",,,"PSY, SRG, SNOWBOARD",,,"FAA CWO",,,,,,,,,,,,,,,,,,,,,,,,,,,"30.30","3","31","0.00",,,,"30","30.30","FEW:02 70 FEW:02 250","30.27","10.00","24","310","24","16",,,,,,,,,,,,,,,,,,,,,,,,,,,,,,,,,,,,,"MET11202/14/20 13:51:02 METAR KJFK 141851Z 31014G21KT 10SM FEW070 FEW250 M01/M16 A3030 RMK AO2 SLP260 T10061161 $ (BH)","FM-15","7",,,,,,,,,,,,,,,,,,,,,,,,,,,,"2009-05-01"
"74486094789","2020-02-14T14:51:00","FM-15","7",,"ESE","1.5","mi","TEMP, PRECIP, SNOW",,,"PSY, SRG, SNOWBOARD",,,"FAA CWO",,,,,,,,,,,,,,,,,,,,,,,,,,,"30.32","5","31","0.00",,,,"33","30.32","FEW:02 70","30.29","10.00","24","300","24","15",,,,,,,,,,,,,,,,,,,,,,,,,,,,,,,,,,,,,"MET10502/14/20 14:51:02 METAR KJFK 141951Z 30013G21KT 10SM FEW070 M01/M15 A3032 RMK AO2 SLP268 T10061150 $ (RR)","FM-15","7",,,,,,,,,,,,,,,,,,,,,,,,,,,,"2009-05-01"
"74486094789","2020-02-14T15:51:00","FM-15","7",,"ESE","1.5","mi","TEMP, PRECIP, SNOW",,,"PSY, SRG, SNOWBOARD",,,"FAA CWO",,,,,,,,,,,,,,,,,,,,,,,,,,,"30.35","3","31","0.00",,"-0.08","3","30","30.35","FEW:02 70","30.32","10.00","24","360","26","15",,,,,,,,,,,,,,,,,,,,,,,,,,,,,,,,,,,,,"MET11102/14/20 15:51:02 METAR KJFK 142051Z 36013G23KT 10SM FEW070 M01/M16 A3035 RMK AO2 SLP277 T10061161 53026 $ (RR)","FM-15","7",,,,,,,,,,,,,,,,,,,,,,,,,,,,"2009-05-01"
"74486094789","2020-02-14T16:00:00","FM-12","4",,"ESE","1.5","mi","TEMP, PRECIP, SNOW",,,"PSY, SRG, SNOWBOARD",,,"FAA CWO",,,,,,,,,,,,,,,,,,,,,,,,,,,,"3","31",,,"-0.08","3","30","30.35","74","30.32","9.94","24","360",,"15",,,,,,,,,,,,,,,,,,,,,,,,,,,,,,,,,,,,,"SYN07474486 32866 23613 11006 21161 30266 40277 53026 92051 333 91023 555 91421=","FM-12","4",,,,,,,,,,,,,,,,,,,,,,,,,,,,"2009-05-01"
"74486094789","2020-02-14T16:51:00","FM-15","7",,"ESE","1.5","mi","TEMP, PRECIP, SNOW",,,"PSY, SRG, SNOWBOARD",,,"FAA CWO",,,,,,,,,,,,,,,,,,,,,,,,,,,"30.39","1","29","0.00",,,,"30","30.38","FEW:02 70","30.37","10.00","22","330","25","20",,,,,,,,,,,,,,,,,,,,,,,,,,,,,,,,,,,,,"MET10502/14/20 16:51:02 METAR KJFK 142151Z 33017G22KT 10SM FEW070 M02/M17 A3039 RMK AO2 SLP288 T10171172 $ (RR)","FM-15","7",,,,,,,,,,,,,,,,,,,,,,,,,,,,"2009-05-01"
"74486094789","2020-02-14T17:51:00","FM-15","7",,"ESE","1.5","mi","TEMP, PRECIP, SNOW",,,"PSY, SRG, SNOWBOARD",,,"FAA CWO",,,,,,,,,,,,,,,,,,,,,,,,,,,"30.42","-1","27","0.00",,,,"29","30.42","FEW:02 70","30.40","10.00","20","350",,"15",,,,,,,,,,,,,,,,,,,,,,,,,,,,,,,,,,,,,"MET10202/14/20 17:51:02 METAR KJFK 142251Z 35013KT 10SM FEW070 M03/M18 A3042 RMK AO2 SLP302 T10281183 $ (RR)","FM-15","7",,,,,,,,,,,,,,,,,,,,,,,,,,,,"2009-05-01"
"74486094789","2020-02-14T18:51:00","FM-15","7",,"ESE","1.5","mi","TEMP, PRECIP, SNOW",,,"PSY, SRG, SNOWBOARD",,,"FAA CWO",,,,,,,,,,,,,,,,,,,,,,,,,,,"30.47","-1","26","0.00",,"-0.12","3","31","30.47","FEW:02 70","30.45","10.00","20","330",,"20",,,,,,,,,,,,,,,,,,,,,,,,,,,,,,,,,,,,,"MET12002/14/20 18:51:02 METAR KJFK 142351Z 33017KT 10SM FEW070 M03/M18 A3047 RMK AO2 SLP318 T10331183 10000 21033 53041 $ (RR)","FM-15","7",,,,,,,,,,,,,,,,,,,,,,,,,,,,"2009-05-01"
"74486094789","2020-02-14T19:00:00","FM-12","4",,"ESE","1.5","mi","TEMP, PRECIP, SNOW",,,"PSY, SRG, SNOWBOARD",,,"FAA CWO",,,,,,,,,,,,,,,,,,,,,,,,,,,,"-1","26",,,"-0.12","3","31","30.47","74","30.44","9.94","20","330",,"20",,,,,,,,,,,,,,,,,,,,,,,,,,,,,,,,,,,,,"SYN08074486 32866 23317 11033 21183 30307 40318 53041 92351 333 10011 21033 555 91500=","FM-12","4",,,,,,,,,,,,,,,,,,,,,,,,,,,,"2009-05-01"
"74486094789","2020-02-14T19:51:00","FM-15","7",,"ESE","1.5","mi","TEMP, PRECIP, SNOW",,,"PSY, SRG, SNOWBOARD",,,"FAA CWO",,,,,,,,,,,,,,,,,,,,,,,,,,,"30.51","-3","25","0.00",,,,"29","30.50","CLR:00","30.48","10.00","19","340",,"20",,,,,,,,,,,,,,,,,,,,,,,,,,,,,,,,,,,,,"MET09402/14/20 19:51:01 METAR KJFK 150051Z 34017KT 10SM CLR M04/M19 A3051 RMK AO2 SLP330 T10391194 $","FM-15","7",,,,,,,,,,,,,,,,,,,,,,,,,,,,"2009-05-01"
"74486094789","2020-02-14T20:51:00","FM-15","7",,"ESE","1.5","mi","TEMP, PRECIP, SNOW",,,"PSY, SRG, SNOWBOARD",,,"FAA CWO",,,,,,,,,,,,,,,,,,,,,,,,,,,"30.54","-2","23","0.00",,,,"33","30.54","CLR:00","30.51","10.00","17","350",,"21",,,,,,,,,,,,,,,,,,,,,,,,,,,,,,,,,,,,,"MET09402/14/20 20:51:01 METAR KJFK 150151Z 35018KT 10SM CLR M05/M19 A3054 RMK AO2 SLP341 T10501189 $","FM-15","7",,,,,,,,,,,,,,,,,,,,,,,,,,,,"2009-05-01"
"74486094789","2020-02-14T21:51:00","FM-15","7",,"ESE","1.5","mi","TEMP, PRECIP, SNOW",,,"PSY, SRG, SNOWBOARD",,,"FAA CWO",,,,,,,,,,,,,,,,,,,,,,,,,,,"30.57","-4","21","0.00",,"-0.10","1","33","30.57","CLR:00","30.55","10.00","16","360",,"16",,,,,,,,,,,,,,,,,,,,,,,,,,,,,,,,,,,,,"MET10002/14/20 21:51:01 METAR KJFK 150251Z 36014KT 10SM CLR M06/M20 A3057 RMK AO2 SLP351 T10611200 51034 $","FM-15","7",,,,,,,,,,,,,,,,,,,,,,,,,,,,"2009-05-01"
"74486094789","2020-02-14T22:00:00","FM-12","4",,"ESE","1.5","mi","TEMP, PRECIP, SNOW",,,"PSY, SRG, SNOWBOARD",,,"FAA CWO",,,,,,,,,,,,,,,,,,,,,,,,,,,,"-4","21",,,"-0.10","1","33","30.57",,"30.54","9.94","16","360",,"16",,,,,,,,,,,,,,,,,,,,,,,,,,,,,,,,,,,,,"SYN06474486 32966 03614 11061 21200 30341 40351 51034 90251 555 91503=","FM-12","4",,,,,,,,,,,,,,,,,,,,,,,,,,,,"2009-05-01"
"74486094789","2020-02-14T22:51:00","FM-15","7",,"ESE","1.5","mi","TEMP, PRECIP, SNOW",,,"PSY, SRG, SNOWBOARD",,,"FAA CWO",,,,,,,,,,,,,,,,,,,,,,,,,,,"30.59","-2","20","0.00",,,,"38","30.59","CLR:00","30.56","10.00","15","010",,"16",,,,,,,,,,,,,,,,,,,,,,,,,,,,,,,,,,,,,"MET09402/14/20 22:51:01 METAR KJFK 150351Z 01014KT 10SM CLR M07/M19 A3059 RMK AO2 SLP358 T10671189 $","FM-15","7",,,,,,,,,,,,,,,,,,,,,,,,,,,,"2009-05-01"
"74486094789","2020-02-14T23:51:00","FM-15","7",,"ESE","1.5","mi","TEMP, PRECIP, SNOW",,,"PSY, SRG, SNOWBOARD",,,"FAA CWO",,,,,,,,,,,,,,,,,,,,,,,,,,,"30.60","-1","19","0.00",,,,"41","30.60","CLR:00","30.58","10.00","15","020",,"14",,,,,,,,,,,,,,,,,,,,,,,,,,,,,,,,,,,,,"MET10402/14/20 23:51:02 METAR KJFK 150451Z 02012KT 10SM CLR M07/M18 A3060 RMK AO2 SLP362 T10721183 400441072 $","FM-15","7",,,,,,,,,,,,,,,,,,,,,,,,,,,,"2009-05-01"
"74486094789","2020-02-14T23:59:00","SOD  ","6",,"ESE","1.5","mi","TEMP, PRECIP, SNOW",,,"PSY, SRG, SNOWBOARD",,,"FAA CWO",,,,"10","30","42","30.28","30.18","25","17.5","0","-4.7","35","40","19","320","36","0.00","0","0.0","320","30",,,,,,,,,,,,,,,,,,,,,,,,,,,,,,,,,,,,,,,,,,,,,,,,,,,,,,,,,"SOD73924 HR PRECIPITATION (IN): 0.00 SNOW DEPTH (IN):0     24 HR SNOWFALL (IN):0.0  24 HR MAX TEMP (F): 4024 HR MIN TEMP (F): 19AVERAGE STATION PRESSURE:30.180 MINIMUM SEA LEVEL PRESSURE:29.93 TIME OF OCCURRENCE:0001 PEAK WIND SPEED (MPH): 36 PEAK WIND DIR (DEG):320 PEAK WIND TIME (LST):      FASTEST 2MIN SPEED (MPH): 30FASTEST 2MIN DIR (DEG):320 FASTEST 2MIN TIME (LST):     AVERAGE WIND SPEED (MPH):17.5 24 HR AVG TEMP (F): 30DEPART FROM NORMAL: -5  HEATING DEGREE DAYS: 35 COOLING DEGREE DAYS:  0 LATEST DAY MAX TEMP (0700-1900 LST):34  LATEST NIGHT MIN TEMP(1900-0800 LST):31 HOURLY INCREMENTAL PRECIPITATION VALUES (IN):.00 0.00 0.00 0.00 0.00 0.00 0.00 0.00 0.00 0.00 0.00 0.00 0.00 0.00 0.00 0.00 0.00 0.00 0.00 0.00 0.00 0.00 0.00 0.00","SOD  ","6",,,,,,,,,,,,,,,,,,,,,,,,,"0651","1729",,"2009-05-01"
"74486094789","2020-02-15T00:51:00","FM-15","7",,"ESE","1.5","mi","TEMP, PRECIP, SNOW",,,"PSY, SRG, SNOWBOARD",,,"FAA CWO",,,,,,,,,,,,,,,,,,,,,,,,,,,"30.62","0","18","0.00",,"-0.04","1","45","30.61","CLR:00","30.60","10.00","14","030",,"14",,,,,,,,,,,,,,,,,,,,,,,,,,,,,,,,,,,,,"MET11702/15/20 00:51:02 METAR KJFK 150551Z 03012KT 10SM CLR M08/M18 A3062 RMK AO2 SLP367 T10781178 11033 21078 51015 $ (DM)","FM-15","7",,,,,,,,,,,,,,,,,,,,,,,,,,,,"2009-05-01"
"74486094789","2020-02-15T01:00:00","FM-12","4",,"ESE","1.5","mi","TEMP, PRECIP, SNOW",,,"PSY, SRG, SNOWBOARD",,,"FAA CWO",,,,,,,,,,,,,,,,,,,,,,,,,,,,"0","18",,,"-0.04","1","45","30.61",,"30.59","9.94","14","030",,"14",,,,,,,,,,,,,,,,,,,,,,,,,,,,,,,,,,,,,"SYN08074486 32966 00312 11078 21178 30358 40367 51015 90551 333 10039 21078 555 91506=","FM-12","4",,,,,,,,,,,,,,,,,,,,,,,,,,,,"2009-05-01"
"74486094789","2020-02-15T01:51:00","FM-15","7",,"ESE","1.5","mi","TEMP, PRECIP, SNOW",,,"PSY, SRG, SNOWBOARD",,,"FAA CWO",,,,,,,,,,,,,,,,,,,,,,,,,,,"30.62","-1","17","0.00",,,,"45","30.62","CLR:00","30.60","10.00","13","360",,"10",,,,,,,,,,,,,,,,,,,,,,,,,,,,,,,,,,,,,"MET09902/15/20 01:51:02 METAR KJFK 150651Z 36009KT 10SM CLR M08/M18 A3062 RMK AO2 SLP368 T10831183 $ (DM)","FM-15","7",,,,,,,,,,,,,,,,,,,,,,,,,,,,"2009-05-01"
"74486094789","2020-02-15T02:51:00","FM-15","7",,"ESE","1.5","mi","TEMP, PRECIP, SNOW",,,"PSY, SRG, SNOWBOARD",,,"FAA CWO",,,,,,,,,,,,,,,,,,,,,,,,,,,"30.62","-1","16","0.00",,,,"47","30.62","CLR:00","30.60","10.00","12","360",,"10",,,,,,,,,,,,,,,,,,,,,,,,,,,,,,,,,,,,,"MET09902/15/20 02:51:02 METAR KJFK 150751Z 36009KT 10SM CLR M09/M18 A3062 RMK AO2 SLP369 T10891183 $ (DM)","FM-15","7",,,,,,,,,,,,,,,,,,,,,,,,,,,,"2009-05-01"
"74486094789","2020-02-15T03:51:00","FM-15","7",,"ESE","1.5","mi","TEMP, PRECIP, SNOW",,,"PSY, SRG, SNOWBOARD",,,"FAA CWO",,,,,,,,,,,,,,,,,,,,,,,,,,,"30.64","-2","16","0.00",,"-0.02","3","45","30.64","CLR:00","30.61","10.00","12","010",,"9",,,,,,,,,,,,,,,,,,,,,,,,,,,,,,,,,,,,,"MET10502/15/20 03:51:02 METAR KJFK 150851Z 01008KT 10SM CLR M09/M19 A3064 RMK AO2 SLP375 T10891189 53008 $ (DM)","FM-15","7",,,,,,,,,,,,,,,,,,,,,,,,,,,,"2009-05-01"
"74486094789","2020-02-15T04:00:00","FM-12","4",,"ESE","1.5","mi","TEMP, PRECIP, SNOW",,,"PSY, SRG, SNOWBOARD",,,"FAA CWO",,,,,,,,,,,,,,,,,,,,,,,,,,,,"-2","16",,,"-0.02","3","45","30.64",,"30.60","9.94","12","010",,"9",,,,,,,,,,,,,,,,,,,,,,,,,,,,,,,,,,,,,"SYN06474486 32966 00108 11089 21189 30364 40375 53008 90851 555 91509=","FM-12","4",,,,,,,,,,,,,,,,,,,,,,,,,,,,"2009-05-01"
"74486094789","2020-02-15T04:51:00","FM-15","7",,"ESE","1.5","mi","TEMP, PRECIP, SNOW",,,"PSY, SRG, SNOWBOARD",,,"FAA CWO",,,,,,,,,,,,,,,,,,,,,,,,,,,"30.64","0","15","0.00",,,,"51","30.64","CLR:00","30.61","10.00","12","010",,"10",,,,,,,,,,,,,,,,,,,,,,,,,,,,,,,,,,,,,"MET09902/15/20 04:51:02 METAR KJFK 150951Z 01009KT 10SM CLR M09/M18 A3064 RMK AO2 SLP376 T10941178 $ (DM)","FM-15","7",,,,,,,,,,,,,,,,,,,,,,,,,,,,"2009-05-01"
"74486094789","2020-02-15T05:51:00","FM-15","7",,"ESE","1.5","mi","TEMP, PRECIP, SNOW",,,"PSY, SRG, SNOWBOARD",,,"FAA CWO",,,,,,,,,,,,,,,,,,,,,,,,,,,"30.65","1","15","0.00",,,,"53","30.65","CLR:00","30.63","10.00","12","360",,"10",,,,,,,,,,,,,,,,,,,,,,,,,,,,,,,,,,,,,"MET09902/15/20 05:51:02 METAR KJFK 151051Z 36009KT 10SM CLR M09/M17 A3065 RMK AO2 SLP379 T10941172 $ (DM)","FM-15","7",,,,,,,,,,,,,,,,,,,,,,,,,,,,"2009-05-01"
"74486094789","2020-02-15T06:51:00","FM-15","7",,"ESE","1.5","mi","TEMP, PRECIP, SNOW",,,"PSY, SRG, SNOWBOARD",,,"FAA CWO",,,,,,,,,,,,,,,,,,,,,,,,,,,"30.67","2","15","0.00",,"-0.03","3","56","30.66","FEW:02 30","30.64","10.00","12","360",,"10",,,,,,,,,,,,,,,,,,,,,,,,,,,,,,,,,,,,,"MET12002/15/20 06:51:02 METAR KJFK 151151Z 36009KT 10SM FEW030 M09/M17 A3067 RMK AO2 SLP384 T10941167 11078 21100 53009 $ (ML)","FM-15","7",,,,,,,,,,,,,,,,,,,,,,,,,,,,"2009-05-01"
"74486094789","2020-02-15T07:00:00","FM-12","4",,"ESE","1.5","mi","TEMP, PRECIP, SNOW",,,"PSY, SRG, SNOWBOARD",,,"FAA CWO",,,,,,,,,,,,,,,,,,,,,,,,,,,,"2","15",,,"-0.03","3","56","30.66","26","30.64","9.94","12","360",,"10",,,,,,,,,,,,,,,,,,,,,,,,,,,,,,,,,,,,,"SYN08074486 32566 23609 11094 21167 30375 40384 53009 91151 333 10044 21100 555 91512=","FM-12","4",,,,,,,,,,,,,,,,,,,,,,,,,,,,"2009-05-01"
"74486094789","2020-02-15T07:51:00","FM-15","7",,"ESE","1.5","mi","TEMP, PRECIP, SNOW",,,"PSY, SRG, SNOWBOARD",,,"FAA CWO",,,,,,,,,,,,,,,,,,,,,,,,,,,"30.68","1","17","0.00",,,,"49","30.67","FEW:02 30","30.66","10.00","14","060",,"6",,,,,,,,,,,,,,,,,,,,,,,,,,,,,,,,,,,,,"MET10202/15/20 07:51:02 METAR KJFK 151251Z 06005KT 10SM FEW030 M08/M17 A3068 RMK AO2 SLP386 T10831172 $ (ML)","FM-15","7",,,,,,,,,,,,,,,,,,,,,,,,,,,,"2009-05-01"
"74486094789","2020-02-15T08:51:00","FM-15","7",,"ESE","1.5","mi","TEMP, PRECIP, SNOW",,,"PSY, SRG, SNOWBOARD",,,"FAA CWO",,,,,,,,,,,,,,,,,,,,,,,,,,,"30.68","-1","19","0.00",,,,"41","30.68","FEW:02 30","30.66","10.00","15","040",,"7",,,,,,,,,,,,,,,,,,,,,,,,,,,,,,,,,,,,,"MET10202/15/20 08:51:02 METAR KJFK 151351Z 04006KT 10SM FEW030 M07/M18 A3068 RMK AO2 SLP388 T10721183 $ (ML)","FM-15","7",,,,,,,,,,,,,,,,,,,,,,,,,,,,"2009-05-01"
"74486094789","2020-02-15T09:51:00","FM-15","7",,"ESE","1.5","mi","TEMP, PRECIP, SNOW",,,"PSY, SRG, SNOWBOARD",,,"FAA CWO",,,,,,,,,,,,,,,,,,,,,,,,,,,"30.68","-1","21","0.00",,"-0.01","0","38","30.67","FEW:02 30","30.66","10.00","16","000",,"0",,,,,,,,,,,,,,,,,,,,,,,,,,,,,,,,,,,,,"MET10802/15/20 09:51:02 METAR KJFK 151451Z 00000KT 10SM FEW030 M06/M18 A3068 RMK AO2 SLP387 T10611183 50003 $ (ML)","FM-15","7",,,,,,,,,,,,,,,,,,,,,,,,,,,,"2009-05-01"
"74486094789","2020-02-15T10:00:00","FM-12","4",,"ESE","1.5","mi","TEMP, PRECIP, SNOW",,,"PSY, SRG, SNOWBOARD",,,"FAA CWO",,,,,,,,,,,,,,,,,,,,,,,,,,,,"-1","21",,,"0.01","9","38","30.67","26","30.65","9.94","16","000",,"0",,,,,,,,,,,,,,,,,,,,,,,,,,,,,,,,,,,,,"SYN06474486 32566 20000 11061 21183 30378 40387 50003 91451 555 91515=","FM-12","4",,,,,,,,,,,,,,,,,,,,,,,,,,,,"2009-05-01"
"74486094789","2020-02-15T10:51:00","FM-15","7",,"ESE","1.5","mi","TEMP, PRECIP, SNOW",,,"PSY, SRG, SNOWBOARD",,,"FAA CWO",,,,,,,,,,,,,,,,,,,,,,,,,,,"30.67","-1","23","0.00",,,,"35","30.66","FEW:02 30","30.64","10.00","18","230",,"6",,,,,,,,,,,,,,,,,,,,,,,,,,,,,,,,,,,,,"MET10202/15/20 10:51:02 METAR KJFK 151551Z 23005KT 10SM FEW030 M05/M18 A3067 RMK AO2 SLP384 T10501183 $ (ML)","FM-15","7",,,,,,,,,,,,,,,,,,,,,,,,,,,,"2009-05-01"
"74486094789","2020-02-15T11:51:00","FM-15","7",,"ESE","1.5","mi","TEMP, PRECIP, SNOW",,,"PSY, SRG, SNOWBOARD",,,"FAA CWO",,,,,,,,,,,,,,,,,,,,,,,,,,,"30.63","3","24","0.00",,,,"40","30.63","FEW:02 30 FEW:02 250","30.60","10.00","19","210",,"7",,,,,,,,,,,,,,,,,,,,,,,,,,,,,,,,,,,,,"MET10902/15/20 11:51:02 METAR KJFK 151651Z 21006KT 10SM FEW030 FEW250 M04/M16 A3063 RMK AO2 SLP372 T10441161 $ (ML)","FM-15","7",,,,,,,,,,,,,,,,,,,,,,,,,,,,"2009-05-01"
"74486094789","2020-02-15T12:51:00","FM-15","7",,"ESE","1.5","mi","TEMP, PRECIP, SNOW",,,"PSY, SRG, SNOWBOARD",,,"FAA CWO",,,,,,,,,,,,,,,,,,,,,,,,,,,"30.60","8","24","0.00",,"+0.07","8","50","30.60","FEW:02 30 SCT:04 250","30.58","10.00","20","180",,"8",,,,,,,,,,,,,,,,,,,,,,,,,,,,,,,,,,,,,"MET12702/15/20 12:51:02 METAR KJFK 151751Z 18007KT 10SM FEW030 SCT250 M04/M13 A3060 RMK AO2 SLP362 T10441133 11039 21094 58025 $ (ML)","FM-15","7",,,,,,,,,,,,,,,,,,,,,,,,,,,,"2009-05-01"
"74486094789","2020-02-15T13:00:00","FM-12","4",,"ESE","1.5","mi","TEMP, PRECIP, SNOW",,,"PSY, SRG, SNOWBOARD",,,"FAA CWO",,,,,,,,,,,,,,,,,,,,,,,,,,,,"8","24",,,"+0.07","8","50","30.60","26","30.57","9.94","20","180",,"8",,,,,,,,,,,,,,,,,,,,,,,,,,,,,,,,,,,,,"SYN08074486 32566 41807 11044 21133 30351 40362 58025 91751 333 11039 21094 555 91518=","FM-12","4",,,,,,,,,,,,,,,,,,,,,,,,,,,,"2009-05-01"
"74486094789","2020-02-15T13:51:00","FM-15","7",,"ESE","1.5","mi","TEMP, PRECIP, SNOW",,,"PSY, SRG, SNOWBOARD",,,"FAA CWO",,,,,,,,,,,,,,,,,,,,,,,,,,,"30.55","11","25","0.00",,,,"55","30.55","FEW:02 30 BKN:07 250","30.53","10.00","21","160",,"8",,,,,,,,,,,,,,,,,,,,,,,,,,,,,,,,,,,,,"MET10902/15/20 13:51:02 METAR KJFK 151851Z 16007KT 10SM FEW030 BKN250 M04/M12 A3055 RMK AO2 SLP344 T10391117 $ (ML)","FM-15","7",,,,,,,,,,,,,,,,,,,,,,,,,,,,"2009-05-01"
"74486094789","2020-02-15T14:51:00","FM-15","7",,"ESE","1.5","mi","TEMP, PRECIP, SNOW",,,"PSY, SRG, SNOWBOARD",,,"FAA CWO",,,,,,,,,,,,,,,,,,,,,,,,,,,"30.52","13","26","0.00",,,,"57","30.51","BKN:07 250","30.50","10.00","22","170",,"9",,,,,,,,,,,,,,,,,,,,,,,,,,,,,,,,,,,,,"MET10202/15/20 14:51:02 METAR KJFK 151951Z 17008KT 10SM BKN250 M03/M11 A3052 RMK AO2 SLP333 T10331106 $ (JT)","FM-15","7",,,,,,,,,,,,,,,,,,,,,,,,,,,,"2009-05-01"
"74486094789","2020-02-15T15:51:00","FM-15","7",,"ESE","1.5","mi","TEMP, PRECIP, SNOW",,,"PSY, SRG, SNOWBOARD",,,"FAA CWO",,,,,,,,,,,,,,,,,,,,,,,,,,,"30.52","15","27","0.00",,"+0.09","5","61","30.51","FEW:02 30 OVC:08 250","30.50","10.00","23","170",,"8",,,,,,,,,,,,,,,,,,,,,,,,,,,,,,,,,,,,,"MET11502/15/20 15:51:02 METAR KJFK 152051Z 17007KT 10SM FEW030 OVC250 M03/M09 A3052 RMK AO2 SLP333 T10281094 55029 $ (JT)","FM-15","7",,,,,,,,,,,,,,,,,,,,,,,,,,,,"2009-05-01"
"74486094789","2020-02-15T16:00:00","FM-12","4",,"ESE","1.5","mi","TEMP, PRECIP, SNOW",,,"PSY, SRG, SNOWBOARD",,,"FAA CWO",,,,,,,,,,,,,,,,,,,,,,,,,,,,"15","27",,,"+0.09","5","61","30.51","26","30.49","9.94","23","170",,"8",,,,,,,,,,,,,,,,,,,,,,,,,,,,,,,,,,,,,"SYN06474486 32566 81707 11028 21094 30324 40333 55029 92051 555 91521=","FM-12","4",,,,,,,,,,,,,,,,,,,,,,,,,,,,"2009-05-01"
"74486094789","2020-02-15T16:51:00","FM-15","7",,"ESE","1.5","mi","TEMP, PRECIP, SNOW",,,"PSY, SRG, SNOWBOARD",,,"FAA CWO",,,,,,,,,,,,,,,,,,,,,,,,,,,"30.48","17","28","0.00",,,,"63","30.48","FEW:02 30 OVC:08 250","30.45","10.00","25","180",,"15",,,,,,,,,,,,,,,,,,,,,,,,,,,,,,,,,,,,,"MET10702/15/20 16:51:02 METAR KJFK 152151Z 18013KT 10SM FEW030 OVC250 M02/M08 A3048 RMK AO2 SLP322 T10221083 (JT)","FM-15","7",,,,,,,,,,,,,,,,,,,,,,,,,,,,"2009-05-01"
"74486094789","2020-02-15T17:51:00","FM-15","7",,"ESE","1.5","mi","TEMP, PRECIP, SNOW",,,"PSY, SRG, SNOWBOARD",,,"FAA CWO",,,,,,,,,,,,,,,,,,,,,,,,,,,"30.47","18","29","0.00",,,,"63","30.47","FEW:02 26 BKN:07 250","30.45","10.00","25","190",,"16",,,,,,,,,,,,,,,,,,,,,,,,,,,,,,,,,,,,,"MET10702/15/20 17:51:02 METAR KJFK 152251Z 19014KT 10SM FEW026 BKN250 M02/M08 A3047 RMK AO2 SLP318 T10171078 (JT)","FM-15","7",,,,,,,,,,,,,,,,,,,,,,,,,,,,"2009-05-01"
"74486094789","2020-02-15T18:51:00","FM-15","7",,"ESE","1.5","mi","TEMP, PRECIP, SNOW",,,"PSY, SRG, SNOWBOARD",,,"FAA CWO",,,,,,,,,,,,,,,,,,,,,,,,,,,"30.47","19","30","0.00",,"+0.05","6","64","30.46","FEW:02 30 BKN:07 250","30.45","10.00","26","200",,"17",,,,,,,,,,,,,,,,,,,,,,,,,,,,,,,,,,,,,"MET12502/15/20 18:51:02 METAR KJFK 152351Z 20015KT 10SM FEW030 BKN250 M01/M07 A3047 RMK AO2 SLP316 T10111072 11011 21044 56017 (JT)","FM-15","7",,,,,,,,,,,,,,,,,,,,,,,,,,,,"2009-05-01"
"74486094789","2020-02-15T19:00:00","FM-12","4",,"ESE","1.5","mi","TEMP, PRECIP, SNOW",,,"PSY, SRG, SNOWBOARD",,,"FAA CWO",,,,,,,,,,,,,,,,,,,,,,,,,,,,"19","30",,,"+0.05","6","64","30.46","26","30.44","9.94","26","200",,"17",,,,,,,,,,,,,,,,,,,,,,,,,,,,,,,,,,,,,"SYN08074486 32566 62015 11011 21072 30307 40316 56017 92351 333 11011 21100 555 91600=","FM-12","4",,,,,,,,,,,,,,,,,,,,,,,,,,,,"2009-05-01"
"74486094789","2020-02-15T19:51:00","FM-15","7",,"ESE","1.5","mi","TEMP, PRECIP, SNOW",,,"PSY, SRG, SNOWBOARD",,,"FAA CWO",,,,,,,,,,,,,,,,,,,,,,,,,,,"30.44","16","30","0.00",,,,"56","30.43","FEW:02 30 BKN:07 250","30.42","10.00","26","200",,"20",,,,,,,,,,,,,,,,,,,,,,,,,,,,,,,,,,,,,"MET10202/15/20 19:51:01 METAR KJFK 160051Z 20017KT 10SM FEW030 BKN250 M01/M09 A3044 RMK AO2 SLP306 T10111089","FM-15","7",,,,,,,,,,,,,,,,,,,,,,,,,,,,"2009-05-01"
"74486094789","2020-02-15T20:51:00","FM-15","7",,"ESE","1.5","mi","TEMP, PRECIP, SNOW",,,"PSY, SRG, SNOWBOARD",,,"FAA CWO",,,,,,,,,,,,,,,,,,,,,,,,,,,"30.42","18","30","0.00",,,,"61","30.41","BKN:07 250","30.40","10.00","26","220",,"16",,,,,,,,,,,,,,,,,,,,,,,,,,,,,,,,,,,,,"MET09502/15/20 20:51:01 METAR KJFK 160151Z 22014KT 10SM BKN250 M01/M08 A3042 RMK AO2 SLP299 T10111078","FM-15","7",,,,,,,,,,,,,,,,,,,,,,,,,,,,"2009-05-01"
"74486094789","2020-02-15T21:51:00","FM-15","7",,"ESE","1.5","mi","TEMP, PRECIP, SNOW",,,"PSY, SRG, SNOWBOARD",,,"FAA CWO",,,,,,,,,,,,,,,,,,,,,,,,,,,"30.39","16","29","0.00",,"+0.07","6","58","30.39","BKN:07 250","30.37","10.00","25","210",,"20",,,,,,,,,,,,,,,,,,,,,,,,,,,,,,,,,,,,,"MET10102/15/20 21:51:01 METAR KJFK 160251Z 21017KT 10SM BKN250 M02/M09 A3039 RMK AO2 SLP292 T10171089 56024","FM-15","7",,,,,,,,,,,,,,,,,,,,,,,,,,,,"2009-05-01"
"74486094789","2020-02-15T22:00:00","FM-12","4",,"ESE","1.5","mi","TEMP, PRECIP, SNOW",,,"PSY, SRG, SNOWBOARD",,,"FAA CWO",,,,,,,,,,,,,,,,,,,,,,,,,,,,"16","29",,,"+0.07","6","58","30.39",,"30.36","9.94","25","210",,"20",,,,,,,,,,,,,,,,,,,,,,,,,,,,,,,,,,,,,"SYN06474486 32966 62117 11017 21089 30280 40292 56024 90251 555 91603=","FM-12","4",,,,,,,,,,,,,,,,,,,,,,,,,,,,"2009-05-01"
"74486094789","2020-02-15T22:51:00","FM-15","7",,"ESE","1.5","mi","TEMP, PRECIP, SNOW",,,"PSY, SRG, SNOWBOARD",,,"FAA CWO",,,,,,,,,,,,,,,,,,,,,,,,,,,"30.38","17","29","0.00",,,,"61","30.38","BKN:07 250","30.35","10.00","25","210",,"15",,,,,,,,,,,,,,,,,,,,,,,,,,,,,,,,,,,,,"MET09502/15/20 22:51:01 METAR KJFK 160351Z 21013KT 10SM BKN250 M02/M08 A3038 RMK AO2 SLP288 T10171083","FM-15","7",,,,,,,,,,,,,,,,,,,,,,,,,,,,"2009-05-01"
"74486094789","2020-02-15T23:51:00","FM-15","7",,"ESE","1.5","mi","TEMP, PRECIP, SNOW",,,"PSY, SRG, SNOWBOARD",,,"FAA CWO",,,,,,,,,,,,,,,,,,,,,,,,,,,"30.37","21","30","0.00",,,,"69","30.37","BKN:07 250","30.35","10.00","27","210",,"16",,,,,,,,,,,,,,,,,,,,,,,,,,,,,,,,,,,,,"MET10502/15/20 23:51:02 METAR KJFK 160451Z 21014KT 10SM BKN250 M01/M06 A3037 RMK AO2 SLP283 T10111061 410111100","FM-15","7",,,,,,,,,,,,,,,,,,,,,,,,,,,,"2009-05-01"
"74486094789","2020-02-15T23:59:00","SOD  ","6",,"ESE","1.5","mi","TEMP, PRECIP, SNOW",,,"PSY, SRG, SNOWBOARD",,,"FAA CWO",,,,"8","22","53","30.55","30.56","19","11.2","0","-12.9","43","30","14","230","27","0.00","0","0.0","220","23",,,,,,,,,,,,,,,,,,,,,,,,,,,,,,,,,,,,,,,,,,,,,,,,,,,,,,,,,"SOD73924 HR PRECIPITATION (IN): 0.00 SNOW DEPTH (IN):0     24 HR SNOWFALL (IN):0.0  24 HR MAX TEMP (F): 3024 HR MIN TEMP (F): 14AVERAGE STATION PRESSURE:30.560 MINIMUM SEA LEVEL PRESSURE:30.36 TIME OF OCCURRENCE:2359 PEAK WIND SPEED (MPH): 27 PEAK WIND DIR (DEG):230 PEAK WIND TIME (LST):      FASTEST 2MIN SPEED (MPH): 23FASTEST 2MIN DIR (DEG):220 FASTEST 2MIN TIME (LST):     AVERAGE WIND SPEED (MPH):11.2 24 HR AVG TEMP (F): 22DEPART FROM NORMAL:-13  HEATING DEGREE DAYS: 43 COOLING DEGREE DAYS:  0 LATEST DAY MAX TEMP (0700-1900 LST):30  LATEST NIGHT MIN TEMP(1900-0800 LST):14 HOURLY INCREMENTAL PRECIPITATION VALUES (IN):.00 0.00 0.00 0.00 0.00 0.00 0.00 0.00 0.00 0.00 0.00 0.00 0.00 0.00 0.00 0.00 0.00 0.00 0.00 0.00 0.00 0.00 0.00 0.00","SOD  ","6",,,,,,,,,,,,,,,,,,,,,,,,,"0649","1730",,"2009-05-01"
"74486094789","2020-02-16T00:51:00","FM-15","7",,"ESE","1.5","mi","TEMP, PRECIP, SNOW",,,"PSY, SRG, SNOWBOARD",,,"FAA CWO",,,,,,,,,,,,,,,,,,,,,,,,,,,"30.35","23","31","0.00",,"+0.05","8","72","30.35","FEW:02 25 FEW:02 100 SCT:04 180","30.32","10.00","28","210","28","20",,,,,,,,,,,,,,,,,,,,,,,,,,,,,,,,,,,,,"MET15302/16/20 00:51:02 METAR KJFK 160551Z 21017G24KT 10SM FEW025 FEW100 SCT180 M01/M05 A3035 RMK AO2 PK WND 21026/0540 SLP276 T10061050 10000 21022 58016 (DM)","FM-15","7",,,,,,,,,,,,,,,,,,,,,,,,,,,,"2009-05-01"
"74486094789","2020-02-16T01:00:00","FM-12","4",,"ESE","1.5","mi","TEMP, PRECIP, SNOW",,,"PSY, SRG, SNOWBOARD",,,"FAA CWO",,,,,,,,,,,,,,,,,,,,,,,,,,,,"23","31",,,"+0.05","8","72","30.35","26","30.32","9.94","28","210",,"20",,,,,,,,,,,,,,,,,,,,,,,,,,,,,,,,,,,,,"SYN08674486 32566 62117 11006 21050 30266 40276 58016 90551 333 10000 21100 91024 555 91606=","FM-12","4",,,,,,,,,,,,,,,,,,,,,,,,,,,,"2009-05-01"
"74486094789","2020-02-16T01:51:00","FM-15","7",,"ESE","1.5","mi","TEMP, PRECIP, SNOW",,,"PSY, SRG, SNOWBOARD",,,"FAA CWO",,,,,,,,,,,,,,,,,,,,,,,,,,,"30.32","20","31","0.00",,,,"64","30.32","FEW:02 25 BKN:07 130 BKN:07 220","30.29","10.00","27","220",,"18",,,,,,,,,,,,,,,,,,,,,,,,,,,,,,,,,,,,,"MET11402/16/20 01:51:02 METAR KJFK 160651Z 22016KT 10SM FEW025 BKN130 BKN220 M01/M07 A3032 RMK AO2 SLP267 T10061067 (DM)","FM-15","7",,,,,,,,,,,,,,,,,,,,,,,,,,,,"2009-05-01"
"74486094789","2020-02-16T02:51:00","FM-15","7",,"ESE","1.5","mi","TEMP, PRECIP, SNOW",,,"PSY, SRG, SNOWBOARD",,,"FAA CWO",,,,,,,,,,,,,,,,,,,,,,,,,,,"30.30","23","32","0.00",,,,"69","30.29","BKN:07 140 BKN:07 210","30.27","10.00","29","220",,"18",,,,,,,,,,,,,,,,,,,,,,,,,,,,,,,,,,,,,"MET10602/16/20 02:51:02 METAR KJFK 160751Z 22016KT 10SM BKN140 BKN210 00/M05 A3030 RMK AO2 SLP258 T00001050 (DM)","FM-15","7",,,,,,,,,,,,,,,,,,,,,,,,,,,,"2009-05-01"
"74486094789","2020-02-16T03:51:00","FM-15","7",,"ESE","1.5","mi","TEMP, PRECIP, SNOW",,,"PSY, SRG, SNOWBOARD",,,"FAA CWO",,,,,,,,,,,,,,,,,,,,,,,,,,,"30.28","23","32","0.00",,"+0.07","6","69","30.28","BKN:07 140 OVC:08 200","30.25","10.00","29","230",,"17",,,,,,,,,,,,,,,,,,,,,,,,,,,,,,,,,,,,,"MET11202/16/20 03:51:02 METAR KJFK 160851Z 23015KT 10SM BKN140 OVC200 00/M05 A3028 RMK AO2 SLP253 T00001050 56023 (DM)","FM-15","7",,,,,,,,,,,,,,,,,,,,,,,,,,,,"2009-05-01"
"74486094789","2020-02-16T04:00:00","FM-12","4",,"ESE","1.5","mi","TEMP, PRECIP, SNOW",,,"PSY, SRG, SNOWBOARD",,,"FAA CWO",,,,,,,,,,,,,,,,,,,,,,,,,,,,"23","32",,,"+0.07","6","69","30.28",,"30.25","9.94","29","230",,"17",,,,,,,,,,,,,,,,,,,,,,,,,,,,,,,,,,,,,"SYN06474486 32966 82315 10000 21050 30243 40253 56023 90851 555 91609=","FM-12","4",,,,,,,,,,,,,,,,,,,,,,,,,,,,"2009-05-01"
"74486094789","2020-02-16T04:51:00","FM-15","7",,"ESE","1.5","mi","TEMP, PRECIP, SNOW",,,"PSY, SRG, SNOWBOARD",,,"FAA CWO",,,,,,,,,,,,,,,,,,,,,,,,,,,"30.26","24","32","0.00",,,,"73","30.26","SCT:04 140 OVC:08 190","30.24","10.00","29","230",,"13",,,,,,,,,,,,,,,,,,,,,,,,,,,,,,,,,,,,,"MET10602/16/20 04:51:02 METAR KJFK 160951Z 23011KT 10SM SCT140 OVC190 00/M04 A3026 RMK AO2 SLP247 T00001044 (DM)","FM-15","7",,,,,,,,,,,,,,,,,,,,,,,,,,,,"2009-05-01"
"74486094789","2020-02-16T05:51:00","FM-15","7",,"ESE","1.5","mi","TEMP, PRECIP, SNOW",,,"PSY, SRG, SNOWBOARD",,,"FAA CWO",,,,,,,,,,,,,,,,,,,,,,,,,,,"30.26","25","32","0.00",,,,"75","30.25","SCT:04 140 OVC:08 170","30.24","10.00","29","230",,"15",,,,,,,,,,,,,,,,,,,,,,,,,,,,,,,,,,,,,"MET10602/16/20 05:51:02 METAR KJFK 161051Z 23013KT 10SM SCT140 OVC170 00/M04 A3026 RMK AO2 SLP245 T00001039 (DM)","FM-15","7",,,,,,,,,,,,,,,,,,,,,,,,,,,,"2009-05-01"
"74486094789","2020-02-16T06:51:00","FM-15","7",,"ESE","1.5","mi","TEMP, PRECIP, SNOW",,,"PSY, SRG, SNOWBOARD",,,"FAA CWO",,,,,,,,,,,,,,,,,,,,,,,,,,,"30.25","26","32","0.00",,"+0.03","6","79","30.25","FEW:02 140 BKN:07 180 BKN:07 250","30.22","10.00","30","230",,"13",,,,,,,,,,,,,,,,,,,,,,,,,,,,,,,,,,,,,"MET13102/16/20 06:51:02 METAR KJFK 161151Z 23011KT 10SM FEW140 BKN180 BKN250 00/M03 A3025 RMK AO2 SLP243 T00001033 10006 21006 56010 (ML)","FM-15","7",,,,,,,,,,,,,,,,,,,,,,,,,,,,"2009-05-01"
"74486094789","2020-02-16T07:00:00","FM-12","4",,"ESE","1.5","mi","TEMP, PRECIP, SNOW",,,"PSY, SRG, SNOWBOARD",,,"FAA CWO",,,,,,,,,,,,,,,,,,,,,,,,,,,,"26","32",,,"+0.03","6","79","30.25",,"30.22","9.94","30","230",,"13",,,,,,,,,,,,,,,,,,,,,,,,,,,,,,,,,,,,,"SYN08074486 32966 62311 10000 21033 30232 40243 56010 91151 333 11011 21022 555 91612=","FM-12","4",,,,,,,,,,,,,,,,,,,,,,,,,,,,"2009-05-01"
"74486094789","2020-02-16T07:51:00","FM-15","7",,"ESE","1.5","mi","TEMP, PRECIP, SNOW",,,"PSY, SRG, SNOWBOARD",,,"FAA CWO",,,,,,,,,,,,,,,,,,,,,,,,,,,"30.25","27","33","0.00",,,,"78","30.24","FEW:02 30 FEW:02 140 BKN:07 180","30.22","10.00","31","220",,"14",,,,,,,,,,,,,,,,,,,,,,,,,,,,,,,,,,,,,"MET11302/16/20 07:51:02 METAR KJFK 161251Z 22012KT 10SM FEW030 FEW140 BKN180 01/M03 A3025 RMK AO2 SLP242 T00061028 (ML)","FM-15","7",,,,,,,,,,,,,,,,,,,,,,,,,,,,"2009-05-01"
"74486094789","2020-02-16T08:51:00","FM-15","7",,"ESE","1.5","mi","TEMP, PRECIP, SNOW",,,"PSY, SRG, SNOWBOARD",,,"FAA CWO",,,,,,,,,,,,,,,,,,,,,,,,,,,"30.24","27","35","0.00",,,,"72","30.24","FEW:02 30 BKN:07 110 BKN:07 180","30.22","10.00","32","230",,"13",,,,,,,,,,,,,,,,,,,,,,,,,,,,,,,,,,,,,"MET11302/16/20 08:51:02 METAR KJFK 161351Z 23011KT 10SM FEW030 BKN110 BKN180 02/M03 A3024 RMK AO2 SLP240 T00171028 (ML)","FM-15","7",,,,,,,,,,,,,,,,,,,,,,,,,,,,"2009-05-01"
"74486094789","2020-02-16T09:51:00","FM-15","7",,"ESE","1.5","mi","TEMP, PRECIP, SNOW",,,"PSY, SRG, SNOWBOARD",,,"FAA CWO",,,,,,,,,,,,,,,,,,,,,,,,,,,"30.22","27","36","0.00",,"+0.03","8","70","30.22","FEW:02 30 FEW:02 110 SCT:04 140","30.19","10.00","33","240",,"16",,,,,,,,,,,,,,,,,,,,,,,,,,,,,,,,,,,,,"MET11902/16/20 09:51:02 METAR KJFK 161451Z 24014KT 10SM FEW030 FEW110 SCT140 02/M03 A3022 RMK AO2 SLP233 T00221028 58010 (ML)","FM-15","7",,,,,,,,,,,,,,,,,,,,,,,,,,,,"2009-05-01"
"74486094789","2020-02-16T10:00:00","FM-12","4",,"ESE","1.5","mi","TEMP, PRECIP, SNOW",,,"PSY, SRG, SNOWBOARD",,,"FAA CWO",,,,,,,,,,,,,,,,,,,,,,,,,,,,"27","36",,,"+0.03","8","70","30.22","26","30.19","9.94","33","240",,"16",,,,,,,,,,,,,,,,,,,,,,,,,,,,,,,,,,,,,"SYN06474486 32566 62414 10022 21028 30222 40233 58010 91451 555 91615=","FM-12","4",,,,,,,,,,,,,,,,,,,,,,,,,,,,"2009-05-01"
"74486094789","2020-02-16T10:51:00","FM-15","7",,"ESE","1.5","mi","TEMP, PRECIP, SNOW",,,"PSY, SRG, SNOWBOARD",,,"FAA CWO",,,,,,,,,,,,,,,,,,,,,,,,,,,"30.20","28","38","0.00",,,,"68","30.20","FEW:02 110 SCT:04 140 BKN:07 180","30.17","10.00","34","230",,"15",,,,,,,,,,,,,,,,,,,,,,,,,,,,,,,,,,,,,"MET11302/16/20 10:51:02 METAR KJFK 161551Z 23013KT 10SM FEW110 SCT140 BKN180 03/M02 A3020 RMK AO2 SLP226 T00331022 (ML)","FM-15","7",,,,,,,,,,,,,,,,,,,,,,,,,,,,"2009-05-01"
"74486094789","2020-02-16T11:51:00","FM-15","7",,"ESE","1.5","mi","TEMP, PRECIP, SNOW",,,"PSY, SRG, SNOWBOARD",,,"FAA CWO",,,,,,,,,,,,,,,,,,,,,,,,,,,"30.16","27","38","0.00",,,,"65","30.16","SCT:04 110 SCT:04 140 BKN:07 180","30.14","10.00","34","230",,"11",,,,,,,,,,,,,,,,,,,,,,,,,,,,,,,,,,,,,"MET11302/16/20 11:51:02 METAR KJFK 161651Z 23010KT 10SM SCT110 SCT140 BKN180 03/M03 A3016 RMK AO2 SLP214 T00331028 (ML)","FM-15","7",,,,,,,,,,,,,,,,,,,,,,,,,,,,"2009-05-01"
"74486094789","2020-02-16T12:51:00","FM-15","7",,"ESE","1.5","mi","TEMP, PRECIP, SNOW",,,"PSY, SRG, SNOWBOARD",,,"FAA CWO",,,,,,,,,,,,,,,,,,,,,,,,,,,"30.14","27","40","0.00",,"+0.09","8","60","30.13","BKN:07 110 BKN:07 140 BKN:07 180","30.11","10.00","35","240",,"9",,,,,,,,,,,,,,,,,,,,,,,,,,,,,,,,,,,,,"MET13102/16/20 12:51:02 METAR KJFK 161751Z 24008KT 10SM BKN110 BKN140 BKN180 04/M03 A3014 RMK AO2 SLP204 T00441028 10050 20000 58029 (ML)","FM-15","7",,,,,,,,,,,,,,,,,,,,,,,,,,,,"2009-05-01"
"74486094789","2020-02-16T13:00:00","FM-12","4",,"ESE","1.5","mi","TEMP, PRECIP, SNOW",,,"PSY, SRG, SNOWBOARD",,,"FAA CWO",,,,,,,,,,,,,,,,,,,,,,,,,,,,"27","40",,,"+0.09","8","60","30.13",,"30.11","9.94","35","240",,"9",,,,,,,,,,,,,,,,,,,,,,,,,,,,,,,,,,,,,"SYN08074486 32966 62408 10044 21028 30195 40204 58029 91751 333 10050 21043 555 91618=","FM-12","4",,,,,,,,,,,,,,,,,,,,,,,,,,,,"2009-05-01"
"74486094789","2020-02-16T13:51:00","FM-15","7",,"ESE","1.5","mi","TEMP, PRECIP, SNOW",,,"PSY, SRG, SNOWBOARD",,,"FAA CWO",,,,,,,,,,,,,,,,,,,,,,,,,,,"30.11","25","42","0.00",,,,"51","30.11","BKN:07 100 BKN:07 180 BKN:07 250","30.09","10.00","35","230",,"7",,,,,,,,,,,,,,,,,,,,,,,,,,,,,,,,,,,,,"MET11302/16/20 13:51:02 METAR KJFK 161851Z 23006KT 10SM BKN100 BKN180 BKN250 06/M04 A3011 RMK AO2 SLP196 T00561039 (ML)","FM-15","7",,,,,,,,,,,,,,,,,,,,,,,,,,,,"2009-05-01"
"74486094789","2020-02-16T14:51:00","FM-15","7",,"ESE","1.5","mi","TEMP, PRECIP, SNOW",,,"PSY, SRG, SNOWBOARD",,,"FAA CWO",,,,,,,,,,,,,,,,,,,,,,,,,,,"30.11","26","41","0.00",,,,"55","30.11","BKN:07 100 BKN:07 140 BKN:07 250","30.09","10.00","35","230",,"7",,,,,,,,,,,,,,,,,,,,,,,,,,,,,,,,,,,,,"MET11302/16/20 14:51:02 METAR KJFK 161951Z 23006KT 10SM BKN100 BKN140 BKN250 05/M03 A3011 RMK AO2 SLP195 T00501033 (RG)","FM-15","7",,,,,,,,,,,,,,,,,,,,,,,,,,,,"2009-05-01"
"74486094789","2020-02-16T15:51:00","FM-15","7",,"ESE","1.5","mi","TEMP, PRECIP, SNOW",,,"PSY, SRG, SNOWBOARD",,,"FAA CWO",,,,,,,,,,,,,,,,,,,,,,,,,,,"30.09","27","44","0.00",,"+0.04","6","51","30.09","BKN:07 140 BKN:07 250","30.06","10.00","37","240",,"3",,,,,,,,,,,,,,,,,,,,,,,,,,,,,,,,,,,,,"MET11202/16/20 15:51:02 METAR KJFK 162051Z 24003KT 10SM BKN140 BKN250 07/M03 A3009 RMK AO2 SLP190 T00671028 56014 (RG)","FM-15","7",,,,,,,,,,,,,,,,,,,,,,,,,,,,"2009-05-01"
"74486094789","2020-02-16T16:00:00","FM-12","4",,"ESE","1.5","mi","TEMP, PRECIP, SNOW",,,"PSY, SRG, SNOWBOARD",,,"FAA CWO",,,,,,,,,,,,,,,,,,,,,,,,,,,,"27","44",,,"+0.04","6","51","30.09",,"30.06","9.94","37","240",,"3",,,,,,,,,,,,,,,,,,,,,,,,,,,,,,,,,,,,,"SYN06474486 32966 62403 10067 21028 30178 40190 56014 92051 555 91621=","FM-12","4",,,,,,,,,,,,,,,,,,,,,,,,,,,,"2009-05-01"
"74486094789","2020-02-16T16:51:00","FM-15","7",,"ESE","1.5","mi","TEMP, PRECIP, SNOW",,,"PSY, SRG, SNOWBOARD",,,"FAA CWO",,,,,,,,,,,,,,,,,,,,,,,,,,,"30.10","25","42","0.00",,,,"51","30.10","SCT:04 140 SCT:04 250","30.08","10.00","35","190",,"7",,,,,,,,,,,,,,,,,,,,,,,,,,,,,,,,,,,,,"MET10602/16/20 16:51:02 METAR KJFK 162151Z 19006KT 10SM SCT140 SCT250 06/M04 A3010 RMK AO2 SLP194 T00561039 (RG)","FM-15","7",,,,,,,,,,,,,,,,,,,,,,,,,,,,"2009-05-01"
"74486094789","2020-02-16T17:51:00","FM-15","7",,"ESE","1.5","mi","TEMP, PRECIP, SNOW",,,"PSY, SRG, SNOWBOARD",,,"FAA CWO",,,,,,,,,,,,,,,,,,,,,,,,,,,"30.11","28","39","0.00",,,,"65","30.10","FEW:02 55 SCT:04 150 BKN:07 250","30.09","10.00","35","160",,"5",,,,,,,,,,,,,,,,,,,,,,,,,,,,,,,,,,,,,"MET11302/16/20 17:51:02 METAR KJFK 162251Z 16004KT 10SM FEW055 SCT150 BKN250 04/M02 A3011 RMK AO2 SLP194 T00391022 (RG)","FM-15","7",,,,,,,,,,,,,,,,,,,,,,,,,,,,"2009-05-01"
"74486094789","2020-02-16T18:51:00","FM-15","7",,"ESE","1.5","mi","TEMP, PRECIP, SNOW",,,"PSY, SRG, SNOWBOARD",,,"FAA CWO",,,,,,,,,,,,,,,,,,,,,,,,,,,"30.12","29","39","0.00",,"-0.03","3","67","30.12","SCT:04 150 SCT:04 250","30.09","10.00","35","000",,"0",,,,,,,,,,,,,,,,,,,,,,,,,,,,,,,,,,,,,"MET12402/16/20 18:51:02 METAR KJFK 162351Z 00000KT 10SM SCT150 SCT250 04/M02 A3012 RMK AO2 SLP199 T00391017 10072 20033 53009 (RG)","FM-15","7",,,,,,,,,,,,,,,,,,,,,,,,,,,,"2009-05-01"
"74486094789","2020-02-16T19:00:00","FM-12","4",,"ESE","1.5","mi","TEMP, PRECIP, SNOW",,,"PSY, SRG, SNOWBOARD",,,"FAA CWO",,,,,,,,,,,,,,,,,,,,,,,,,,,,"29","39",,,"-0.03","3","67","30.12",,"30.09","9.94","35","000",,"0",,,,,,,,,,,,,,,,,,,,,,,,,,,,,,,,,,,,,"SYN08074486 32966 40000 10039 21017 30188 40199 53009 92351 333 10072 21005 555 91700=","FM-12","4",,,,,,,,,,,,,,,,,,,,,,,,,,,,"2009-05-01"
"74486094789","2020-02-16T19:51:00","FM-15","7",,"ESE","1.5","mi","TEMP, PRECIP, SNOW",,,"PSY, SRG, SNOWBOARD",,,"FAA CWO",,,,,,,,,,,,,,,,,,,,,,,,,,,"30.12","28","38","0.00",,,,"68","30.11","SCT:04 110 SCT:04 250","30.09","10.00","34","000",,"0",,,,,,,,,,,,,,,,,,,,,,,,,,,,,,,,,,,,,"MET10102/16/20 19:51:01 METAR KJFK 170051Z 00000KT 10SM SCT110 SCT250 03/M02 A3012 RMK AO2 SLP198 T00331022","FM-15","7",,,,,,,,,,,,,,,,,,,,,,,,,,,,"2009-05-01"
"74486094789","2020-02-16T20:51:00","FM-15","7",,"ESE","1.5","mi","TEMP, PRECIP, SNOW",,,"PSY, SRG, SNOWBOARD",,,"FAA CWO",,,,,,,,,,,,,,,,,,,,,,,,,,,"30.11","30","36","0.00",,,,"79","30.11","SCT:04 120 SCT:04 250","30.09","10.00","34","130",,"3",,,,,,,,,,,,,,,,,,,,,,,,,,,,,,,,,,,,,"MET10102/16/20 20:51:01 METAR KJFK 170151Z 13003KT 10SM SCT120 SCT250 02/M01 A3011 RMK AO2 SLP195 T00221011","FM-15","7",,,,,,,,,,,,,,,,,,,,,,,,,,,,"2009-05-01"
"74486094789","2020-02-16T21:51:00","FM-15","7",,"ESE","1.5","mi","TEMP, PRECIP, SNOW",,,"PSY, SRG, SNOWBOARD",,,"FAA CWO",,,,,,,,,,,,,,,,,,,,,,,,,,,"30.11","30","36","0.00",,"+0.01","6","79","30.11","SCT:04 120 SCT:04 250","30.09","10.00","34","000",,"0",,,,,,,,,,,,,,,,,,,,,,,,,,,,,,,,,,,,,"MET10702/16/20 21:51:01 METAR KJFK 170251Z 00000KT 10SM SCT120 SCT250 02/M01 A3011 RMK AO2 SLP195 T00221011 56004","FM-15","7",,,,,,,,,,,,,,,,,,,,,,,,,,,,"2009-05-01"
"74486094789","2020-02-16T22:00:00","FM-12","4",,"ESE","1.5","mi","TEMP, PRECIP, SNOW",,,"PSY, SRG, SNOWBOARD",,,"FAA CWO",,,,,,,,,,,,,,,,,,,,,,,,,,,,"30","36",,,"+0.01","6","79","30.11",,"30.08","9.94","34","000",,"0",,,,,,,,,,,,,,,,,,,,,,,,,,,,,,,,,,,,,"SYN06474486 32966 40000 10022 21011 30185 40195 56004 90251 555 91703=","FM-12","4",,,,,,,,,,,,,,,,,,,,,,,,,,,,"2009-05-01"
"74486094789","2020-02-16T22:51:00","FM-15","7",,"ESE","1.5","mi","TEMP, PRECIP, SNOW",,,"PSY, SRG, SNOWBOARD",,,"FAA CWO",,,,,,,,,,,,,,,,,,,,,,,,,,,"30.12","31","37","0.00",,,,"79","30.12","OVC:08 70","30.09","10.00","35","000",,"0",,,,,,,,,,,,,,,,,,,,,,,,,,,,,,,,,,,,,"MET09402/16/20 22:51:01 METAR KJFK 170351Z 00000KT 10SM OVC070 03/M01 A3012 RMK AO2 SLP199 T00281006","FM-15","7",,,,,,,,,,,,,,,,,,,,,,,,,,,,"2009-05-01"
"74486094789","2020-02-16T23:51:00","FM-15","7",,"ESE","1.5","mi","TEMP, PRECIP, SNOW",,,"PSY, SRG, SNOWBOARD",,,"FAA CWO",,,,,,,,,,,,,,,,,,,,,,,,,,,"30.13","32","38","0.00",,,,"79","30.12","OVC:08 70","30.11","10.00","36","000",,"0",,,,,,,,,,,,,,,,,,,,,,,,,,,,,,,,,,,,,"MET10302/16/20 23:51:02 METAR KJFK 170451Z 00000KT 10SM OVC070 03/00 A3013 RMK AO2 SLP201 T00330000 400721011","FM-15","7",,,,,,,,,,,,,,,,,,,,,,,,,,,,"2009-05-01"
"74486094789","2020-02-16T23:59:00","SOD  ","6",,"ESE","1.5","mi","TEMP, PRECIP, SNOW",,,"PSY, SRG, SNOWBOARD",,,"FAA CWO",,,,"27","38","68","30.18","30.19","33","9.3","0","2.9","27","45","30","210","29","0.00","0","0.0","210","24",,,,,,,,,,,,,,,,,,,,,,,,,,,,,,,,,,,,,,,,,,,,,,,,,,,,,,,,,"SOD73924 HR PRECIPITATION (IN): 0.00 SNOW DEPTH (IN):0     24 HR SNOWFALL (IN):0.0  24 HR MAX TEMP (F): 4524 HR MIN TEMP (F): 30AVERAGE STATION PRESSURE:30.185 MINIMUM SEA LEVEL PRESSURE:30.09 TIME OF OCCURRENCE:1734 PEAK WIND SPEED (MPH): 29 PEAK WIND DIR (DEG):210 PEAK WIND TIME (LST):      FASTEST 2MIN SPEED (MPH): 24FASTEST 2MIN DIR (DEG):210 FASTEST 2MIN TIME (LST):     AVERAGE WIND SPEED (MPH): 9.3 24 HR AVG TEMP (F): 38DEPART FROM NORMAL:  3  HEATING DEGREE DAYS: 27 COOLING DEGREE DAYS:  0 LATEST DAY MAX TEMP (0700-1900 LST):45  LATEST NIGHT MIN TEMP(1900-0800 LST):28 HOURLY INCREMENTAL PRECIPITATION VALUES (IN):.00 0.00 0.00 0.00 0.00 0.00 0.00 0.00 0.00 0.00 0.00 0.00 0.00 0.00 0.00 0.00 0.00 0.00 0.00 0.00 0.00 0.00 0.00 0.00","SOD  ","6",,,,,,,,,,,,,,,,,,,,,,,,,"0648","1731",,"2009-05-01"
"74486094789","2020-02-17T00:51:00","FM-15","7",,"ESE","1.5","mi","TEMP, PRECIP, SNOW",,,"PSY, SRG, SNOWBOARD",,,"FAA CWO",,,,,,,,,,,,,,,,,,,,,,,,,,,"30.12","33","38","0.00",,"-0.01","0","83","30.12","SCT:04 70 OVC:08 90","30.09","10.00","36","000",,"0",,,,,,,,,,,,,,,,,,,,,,,,,,,,,,,,,,,,,"MET12302/17/20 00:51:02 METAR KJFK 170551Z 00000KT 10SM SCT070 OVC090 03/01 A3012 RMK AO2 SLP201 T00330006 10039 20011 50005 (JC)","FM-15","7",,,,,,,,,,,,,,,,,,,,,,,,,,,,"2009-05-01"
"74486094789","2020-02-17T01:00:00","FM-12","4",,"ESE","1.5","mi","TEMP, PRECIP, SNOW",,,"PSY, SRG, SNOWBOARD",,,"FAA CWO",,,,,,,,,,,,,,,,,,,,,,,,,,,,"33","38",,,"0.01","9","83","30.12","74","30.09","9.94","36","000",,"0",,,,,,,,,,,,,,,,,,,,,,,,,,,,,,,,,,,,,"SYN08074486 32866 80000 10033 20006 30188 40201 50005 90551 333 10039 21005 555 91706=","FM-12","4",,,,,,,,,,,,,,,,,,,,,,,,,,,,"2009-05-01"
"74486094789","2020-02-17T01:51:00","FM-15","7",,"ESE","1.5","mi","TEMP, PRECIP, SNOW",,,"PSY, SRG, SNOWBOARD",,,"FAA CWO",,,,,,,,,,,,,,,,,,,,,,,,,,,"30.12","33","37","0.00",,,,"86","30.12","OVC:08 100","30.09","10.00","35","000",,"0",,,,,,,,,,,,,,,,,,,,,,,,,,,,,,,,,,,,,"MET09802/17/20 01:51:02 METAR KJFK 170651Z 00000KT 10SM OVC100 03/01 A3012 RMK AO2 SLP200 T00280006 (JC)","FM-15","7",,,,,,,,,,,,,,,,,,,,,,,,,,,,"2009-05-01"
"74486094789","2020-02-17T02:51:00","FM-15","7",,"ESE","1.5","mi","TEMP, PRECIP, SNOW",,,"PSY, SRG, SNOWBOARD",,,"FAA CWO",,,,,,,,,,,,,,,,,,,,,,,,,,,"30.12","33","36","0.00",,,,"89","30.12","BKN:07 100","30.09","10.00","35","000",,"0",,,,,,,,,,,,,,,,,,,,,,,,,,,,,,,,,,,,,"MET09302/17/20 02:51:02 METAR KJFK 170751Z 00000KT 10SM BKN100 02/01 A3012 RMK AO2 SLP200 T00220006","FM-15","7",,,,,,,,,,,,,,,,,,,,,,,,,,,,"2009-05-01"
"74486094789","2020-02-17T03:51:00","FM-15","7",,"ESE","1.5","mi","TEMP, PRECIP, SNOW",,,"PSY, SRG, SNOWBOARD",,,"FAA CWO",,,,,,,,,,,,,,,,,,,,,,,,,,,"30.13","33","36","0.00",,"-0.01","3","89","30.13","FEW:02 100 OVC:08 200","30.11","10.00","35","350",,"3",,,,,,,,,,,,,,,,,,,,,,,,,,,,,,,,,,,,,"MET10602/17/20 03:51:02 METAR KJFK 170851Z 35003KT 10SM FEW100 OVC200 02/01 A3013 RMK AO2 SLP203 T00220006 53002","FM-15","7",,,,,,,,,,,,,,,,,,,,,,,,,,,,"2009-05-01"
"74486094789","2020-02-17T04:00:00","FM-12","4",,"ESE","1.5","mi","TEMP, PRECIP, SNOW",,,"PSY, SRG, SNOWBOARD",,,"FAA CWO",,,,,,,,,,,,,,,,,,,,,,,,,,,,"33","36",,,"-0.01","3","89","30.13",,"30.10","9.94","35","350",,"3",,,,,,,,,,,,,,,,,,,,,,,,,,,,,,,,,,,,,"SYN06474486 32966 83503 10022 20006 30192 40203 53002 90851 555 91709=","FM-12","4",,,,,,,,,,,,,,,,,,,,,,,,,,,,"2009-05-01"
"74486094789","2020-02-17T04:51:00","FM-15","7",,"ESE","1.5","mi","TEMP, PRECIP, SNOW",,,"PSY, SRG, SNOWBOARD",,,"FAA CWO",,,,,,,,,,,,,,,,,,,,,,,,,,,"30.16","29","34","0.00",,,,"82","30.16","BKN:07 190","30.14","10.00","32","000",,"0",,,,,,,,,,,,,,,,,,,,,,,,,,,,,,,,,,,,,"MET09402/17/20 04:51:02 METAR KJFK 170951Z 00000KT 10SM BKN190 01/M02 A3016 RMK AO2 SLP212 T00111017","FM-15","7",,,,,,,,,,,,,,,,,,,,,,,,,,,,"2009-05-01"
"74486094789","2020-02-17T05:51:00","FM-15","7",,"ESE","1.5","mi","TEMP, PRECIP, SNOW",,,"PSY, SRG, SNOWBOARD",,,"FAA CWO",,,,,,,,,,,,,,,,,,,,,,,,,,,"30.18","27","37","0.00",,,,"67","30.17","BKN:07 250","30.16","10.00","33","330",,"8",,,,,,,,,,,,,,,,,,,,,,,,,,,,,,,,,,,,,"MET09402/17/20 05:51:02 METAR KJFK 171051Z 33007KT 10SM BKN250 03/M03 A3018 RMK AO2 SLP218 T00281028","FM-15","7",,,,,,,,,,,,,,,,,,,,,,,,,,,,"2009-05-01"
"74486094789","2020-02-17T06:51:00","FM-15","7",,"ESE","1.5","mi","TEMP, PRECIP, SNOW",,,"PSY, SRG, SNOWBOARD",,,"FAA CWO",,,,,,,,,,,,,,,,,,,,,,,,,,,"30.21","26","37","0.00",,"-0.07","3","65","30.20","FEW:02 190 SCT:04 250","30.19","10.00","33","330",,"8",,,,,,,,,,,,,,,,,,,,,,,,,,,,,,,,,,,,,"MET11902/17/20 06:51:02 METAR KJFK 171151Z 33007KT 10SM FEW190 SCT250 03/M03 A3021 RMK AO2 SLP228 T00281033 10039 20011 53025","FM-15","7",,,,,,,,,,,,,,,,,,,,,,,,,,,,"2009-05-01"
"74486094789","2020-02-17T07:00:00","FM-12","4",,"ESE","1.5","mi","TEMP, PRECIP, SNOW",,,"PSY, SRG, SNOWBOARD",,,"FAA CWO",,,,,,,,,,,,,,,,,,,,,,,,,,,,"26","37",,,"-0.07","3","65","30.20",,"30.18","9.94","33","330",,"8",,,,,,,,,,,,,,,,,,,,,,,,,,,,,,,,,,,,,"SYN08074486 32966 43307 10028 21033 30219 40228 53025 91151 333 10072 20011 555 91712=","FM-12","4",,,,,,,,,,,,,,,,,,,,,,,,,,,,"2009-05-01"
"74486094789","2020-02-17T07:51:00","FM-15","7",,"ESE","1.5","mi","TEMP, PRECIP, SNOW",,,"PSY, SRG, SNOWBOARD",,,"FAA CWO",,,,,,,,,,,,,,,,,,,,,,,,,,,"30.24","28","40","0.00",,,,"63","30.24","FEW:02 190 FEW:02 250","30.22","10.00","35","330",,"7",,,,,,,,,,,,,,,,,,,,,,,,,,,,,,,,,,,,,"MET10102/17/20 07:51:02 METAR KJFK 171251Z 33006KT 10SM FEW190 FEW250 04/M02 A3024 RMK AO2 SLP240 T00441022","FM-15","7",,,,,,,,,,,,,,,,,,,,,,,,,,,,"2009-05-01"
"74486094789","2020-02-17T08:51:00","FM-15","7",,"ESE","1.5","mi","TEMP, PRECIP, SNOW",,,"PSY, SRG, SNOWBOARD",,,"FAA CWO",,,,,,,,,,,,,,,,,,,,,,,,,,,"30.26","24","41","0.00",,,,"51","30.26","SCT:04 250","30.24","10.00","35","340",,"9",,,,,,,,,,,,,,,,,,,,,,,,,,,,,,,,,,,,,"MET09402/17/20 08:51:02 METAR KJFK 171351Z 34008KT 10SM SCT250 05/M04 A3026 RMK AO2 SLP248 T00501044","FM-15","7",,,,,,,,,,,,,,,,,,,,,,,,,,,,"2009-05-01"
"74486094789","2020-02-17T09:51:00","FM-15","7",,"ESE","1.5","mi","TEMP, PRECIP, SNOW",,,"PSY, SRG, SNOWBOARD",,,"FAA CWO",,,,,,,,,,,,,,,,,,,,,,,,,,,"30.27","25","45","0.00",,"-0.06","1","46","30.26","FEW:02 190 FEW:02 250","30.24","10.00","37","020",,"9",,,,,,,,,,,,,,,,,,,,,,,,,,,,,,,,,,,,,"MET10702/17/20 09:51:02 METAR KJFK 171451Z 02008KT 10SM FEW190 FEW250 07/M04 A3027 RMK AO2 SLP248 T00721039 51020","FM-15","7",,,,,,,,,,,,,,,,,,,,,,,,,,,,"2009-05-01"
"74486094789","2020-02-17T10:00:00","FM-12","4",,"ESE","1.5","mi","TEMP, PRECIP, SNOW",,,"PSY, SRG, SNOWBOARD",,,"FAA CWO",,,,,,,,,,,,,,,,,,,,,,,,,,,,"25","45",,,"-0.06","1","46","30.26",,"30.24","9.94","37","020",,"9",,,,,,,,,,,,,,,,,,,,,,,,,,,,,,,,,,,,,"SYN06474486 32966 20208 10072 21039 30239 40248 51020 91451 555 91715=","FM-12","4",,,,,,,,,,,,,,,,,,,,,,,,,,,,"2009-05-01"
"74486094789","2020-02-17T10:51:00","FM-15","7",,"ESE","1.5","mi","TEMP, PRECIP, SNOW",,,"PSY, SRG, SNOWBOARD",,,"FAA CWO",,,,,,,,,,,,,,,,,,,,,,,,,,,"30.27","24","46","0.00",,,,"42","30.26","FEW:02 250","30.24","10.00","37","050",,"6",,,,,,,,,,,,,,,,,,,,,,,,,,,,,,,,,,,,,"MET09402/17/20 10:51:02 METAR KJFK 171551Z 05005KT 10SM FEW250 08/M04 A3027 RMK AO2 SLP248 T00781044","FM-15","7",,,,,,,,,,,,,,,,,,,,,,,,,,,,"2009-05-01"
"74486094789","2020-02-17T11:51:00","FM-15","7",,"ESE","1.5","mi","TEMP, PRECIP, SNOW",,,"PSY, SRG, SNOWBOARD",,,"FAA CWO",,,,,,,,,,,,,,,,,,,,,,,,,,,"30.27","23","48","0.00",,,,"37","30.27","FEW:02 250","30.24","10.00","38","VRB",,"3",,,,,,,,,,,,,,,,,,,,,,,,,,,,,,,,,,,,,"MET09402/17/20 11:51:02 METAR KJFK 171651Z VRB03KT 10SM FEW250 09/M05 A3027 RMK AO2 SLP249 T00891050","FM-15","7",,,,,,,,,,,,,,,,,,,,,,,,,,,,"2009-05-01"
"74486094789","2020-02-17T12:51:00","FM-15","7",,"ESE","1.5","mi","TEMP, PRECIP, SNOW",,,"PSY, SRG, SNOWBOARD",,,"FAA CWO",,,,,,,,,,,,,,,,,,,,,,,,,,,"30.26","21","49","0.00",,"+0.01","8","33","30.25","SCT:04 250","30.24","10.00","38","320",,"7",,,,,,,,,,,,,,,,,,,,,,,,,,,,,,,,,,,,,"MET11202/17/20 12:51:02 METAR KJFK 171751Z 32006KT 10SM SCT250 09/M06 A3026 RMK AO2 SLP245 T00941061 10094 20022 58003","FM-15","7",,,,,,,,,,,,,,,,,,,,,,,,,,,,"2009-05-01"
"74486094789","2020-02-17T13:00:00","FM-12","4",,"ESE","1.5","mi","TEMP, PRECIP, SNOW",,,"PSY, SRG, SNOWBOARD",,,"FAA CWO",,,,,,,,,,,,,,,,,,,,,,,,,,,,"21","49",,,"+0.01","8","33","30.25",,"30.23","9.94","38","320",,"7",,,,,,,,,,,,,,,,,,,,,,,,,,,,,,,,,,,,,"SYN08074486 32966 43206 10094 21061 30236 40245 58003 91751 333 10094 20022 555 91718=","FM-12","4",,,,,,,,,,,,,,,,,,,,,,,,,,,,"2009-05-01"
"74486094789","2020-02-17T13:51:00","FM-15","7",,"ESE","1.5","mi","TEMP, PRECIP, SNOW",,,"PSY, SRG, SNOWBOARD",,,"FAA CWO",,,,,,,,,,,,,,,,,,,,,,,,,,,"30.25","25","49","0.00",,,,"39","30.24","BKN:07 250","30.22","10.00","39","200",,"8",,,,,,,,,,,,,,,,,,,,,,,,,,,,,,,,,,,,,"MET09402/17/20 13:51:02 METAR KJFK 171851Z 20007KT 10SM BKN250 09/M04 A3025 RMK AO2 SLP241 T00941039","FM-15","7",,,,,,,,,,,,,,,,,,,,,,,,,,,,"2009-05-01"
"74486094789","2020-02-17T14:51:00","FM-15","7",,"ESE","1.5","mi","TEMP, PRECIP, SNOW",,,"PSY, SRG, SNOWBOARD",,,"FAA CWO",,,,,,,,,,,,,,,,,,,,,,,,,,,"30.26","22","49","0.00",,,,"35","30.26","BKN:07 250","30.24","10.00","39","200",,"9",,,,,,,,,,,,,,,,,,,,,,,,,,,,,,,,,,,,,"MET09402/17/20 14:51:02 METAR KJFK 171951Z 20008KT 10SM BKN250 09/M06 A3026 RMK AO2 SLP247 T00941056","FM-15","7",,,,,,,,,,,,,,,,,,,,,,,,,,,,"2009-05-01"
"74486094789","2020-02-17T15:51:00","FM-15","7",,"ESE","1.5","mi","TEMP, PRECIP, SNOW",,,"PSY, SRG, SNOWBOARD",,,"FAA CWO",,,,,,,,,,,,,,,,,,,,,,,,,,,"30.27","29","47","0.00",,"-0.01","3","50","30.27","SCT:04 250","30.24","10.00","40","190",,"10",,,,,,,,,,,,,,,,,,,,,,,,,,,,,,,,,,,,,"MET10002/17/20 15:51:02 METAR KJFK 172051Z 19009KT 10SM SCT250 08/M02 A3027 RMK AO2 SLP249 T00831017 53005","FM-15","7",,,,,,,,,,,,,,,,,,,,,,,,,,,,"2009-05-01"
"74486094789","2020-02-17T16:00:00","FM-12","4",,"ESE","1.5","mi","TEMP, PRECIP, SNOW",,,"PSY, SRG, SNOWBOARD",,,"FAA CWO",,,,,,,,,,,,,,,,,,,,,,,,,,,,"29","47",,,"-0.01","3","50","30.27",,"30.24","9.94","40","190",,"10",,,,,,,,,,,,,,,,,,,,,,,,,,,,,,,,,,,,,"SYN06474486 32966 41909 10083 21017 30239 40249 53005 92051 555 91721=","FM-12","4",,,,,,,,,,,,,,,,,,,,,,,,,,,,"2009-05-01"
"74486094789","2020-02-17T16:51:00","FM-15","7",,"ESE","1.5","mi","TEMP, PRECIP, SNOW",,,"PSY, SRG, SNOWBOARD",,,"FAA CWO",,,,,,,,,,,,,,,,,,,,,,,,,,,"30.27","27","45","0.00",,,,"49","30.27","BKN:07 250","30.24","10.00","38","200",,"7",,,,,,,,,,,,,,,,,,,,,,,,,,,,,,,,,,,,,"MET09402/17/20 16:51:02 METAR KJFK 172151Z 20006KT 10SM BKN250 07/M03 A3027 RMK AO2 SLP251 T00721028","FM-15","7",,,,,,,,,,,,,,,,,,,,,,,,,,,,"2009-05-01"
"74486094789","2020-02-17T17:51:00","FM-15","7",,"ESE","1.5","mi","TEMP, PRECIP, SNOW",,,"PSY, SRG, SNOWBOARD",,,"FAA CWO",,,,,,,,,,,,,,,,,,,,,,,,,,,"30.30","30","42","0.00",,,,"62","30.29","BKN:07 250","30.27","10.00","37","120",,"5",,,,,,,,,,,,,,,,,,,,,,,,,,,,,,,,,,,,,"MET09402/17/20 17:51:02 METAR KJFK 172251Z 12004KT 10SM BKN250 06/M01 A3030 RMK AO2 SLP259 T00561011","FM-15","7",,,,,,,,,,,,,,,,,,,,,,,,,,,,"2009-05-01"
"74486094789","2020-02-17T18:51:00","FM-15","7",,"ESE","1.5","mi","TEMP, PRECIP, SNOW",,,"PSY, SRG, SNOWBOARD",,,"FAA CWO",,,,,,,,,,,,,,,,,,,,,,,,,,,"30.32","31","41","0.00",,"-0.05","3","67","30.32","BKN:07 250","30.29","10.00","37","120",,"3",,,,,,,,,,,,,,,,,,,,,,,,,,,,,,,,,,,,,"MET11202/17/20 18:51:02 METAR KJFK 172351Z 12003KT 10SM BKN250 05/M01 A3032 RMK AO2 SLP266 T00501006 10106 20044 53017","FM-15","7",,,,,,,,,,,,,,,,,,,,,,,,,,,,"2009-05-01"
"74486094789","2020-02-17T19:00:00","FM-12","4",,"ESE","1.5","mi","TEMP, PRECIP, SNOW",,,"PSY, SRG, SNOWBOARD",,,"FAA CWO",,,,,,,,,,,,,,,,,,,,,,,,,,,,"31","41",,,"-0.05","3","67","30.32",,"30.29","9.94","37","120",,"3",,,,,,,,,,,,,,,,,,,,,,,,,,,,,,,,,,,,,"SYN08074486 32966 61203 10050 21006 30256 40266 53017 92351 333 10106 20011 555 91800=","FM-12","4",,,,,,,,,,,,,,,,,,,,,,,,,,,,"2009-05-01"
"74486094789","2020-02-17T19:51:00","FM-15","7",,"ESE","1.5","mi","TEMP, PRECIP, SNOW",,,"PSY, SRG, SNOWBOARD",,,"FAA CWO",,,,,,,,,,,,,,,,,,,,,,,,,,,"30.34","29","38","0.00",,,,"70","30.34","BKN:07 250","30.32","10.00","34","000",,"0",,,,,,,,,,,,,,,,,,,,,,,,,,,,,,,,,,,,,"MET09402/17/20 19:51:01 METAR KJFK 180051Z 00000KT 10SM BKN250 03/M02 A3034 RMK AO2 SLP273 T00331017","FM-15","7",,,,,,,,,,,,,,,,,,,,,,,,,,,,"2009-05-01"
"74486094789","2020-02-17T20:51:00","FM-15","7",,"ESE","1.5","mi","TEMP, PRECIP, SNOW",,,"PSY, SRG, SNOWBOARD",,,"FAA CWO",,,,,,,,,,,,,,,,,,,,,,,,,,,"30.36","31","38","0.00",,,,"76","30.36","BKN:07 250","30.34","10.00","35","000",,"0",,,,,,,,,,,,,,,,,,,,,,,,,,,,,,,,,,,,,"MET09402/17/20 20:51:01 METAR KJFK 180151Z 00000KT 10SM BKN250 03/M01 A3036 RMK AO2 SLP280 T00331006","FM-15","7",,,,,,,,,,,,,,,,,,,,,,,,,,,,"2009-05-01"
"74486094789","2020-02-17T21:51:00","FM-15","7",,"ESE","1.5","mi","TEMP, PRECIP, SNOW",,,"PSY, SRG, SNOWBOARD",,,"FAA CWO",,,,,,,,,,,,,,,,,,,,,,,,,,,"30.37","30","39","0.00",,"-0.05","1","70","30.37","BKN:07 210","30.35","10.00","35","030",,"6",,,,,,,,,,,,,,,,,,,,,,,,,,,,,,,,,,,,,"MET10002/17/20 21:51:01 METAR KJFK 180251Z 03005KT 10SM BKN210 04/M01 A3037 RMK AO2 SLP283 T00391011 51018","FM-15","7",,,,,,,,,,,,,,,,,,,,,,,,,,,,"2009-05-01"
"74486094789","2020-02-17T22:00:00","FM-12","4",,"ESE","1.5","mi","TEMP, PRECIP, SNOW",,,"PSY, SRG, SNOWBOARD",,,"FAA CWO",,,,,,,,,,,,,,,,,,,,,,,,,,,,"30","39",,,"-0.05","1","70","30.37",,"30.34","9.94","35","030",,"6",,,,,,,,,,,,,,,,,,,,,,,,,,,,,,,,,,,,,"SYN06474486 32966 60305 10039 21011 30273 40283 51018 90251 555 91803=","FM-12","4",,,,,,,,,,,,,,,,,,,,,,,,,,,,"2009-05-01"
"74486094789","2020-02-17T22:51:00","FM-15","7",,"ESE","1.5","mi","TEMP, PRECIP, SNOW",,,"PSY, SRG, SNOWBOARD",,,"FAA CWO",,,,,,,,,,,,,,,,,,,,,,,,,,,"30.39","27","38","0.00",,,,"65","30.39","BKN:07 190","30.37","10.00","34","050",,"13",,,,,,,,,,,,,,,,,,,,,,,,,,,,,,,,,,,,,"MET09402/17/20 22:51:02 METAR KJFK 180351Z 05011KT 10SM BKN190 03/M03 A3039 RMK AO2 SLP290 T00331028","FM-15","7",,,,,,,,,,,,,,,,,,,,,,,,,,,,"2009-05-01"
"74486094789","2020-02-17T23:51:00","FM-15","7",,"ESE","1.5","mi","TEMP, PRECIP, SNOW",,,"PSY, SRG, SNOWBOARD",,,"FAA CWO",,,,,,,,,,,,,,,,,,,,,,,,,,,"30.39","23","37","0.00",,,,"57","30.39","BKN:07 190","30.37","10.00","32","060",,"11",,,,,,,,,,,,,,,,,,,,,,,,,,,,,,,,,,,,,"MET10402/17/20 23:51:02 METAR KJFK 180451Z 06010KT 10SM BKN190 03/M05 A3039 RMK AO2 SLP291 T00281050 401060011","FM-15","7",,,,,,,,,,,,,,,,,,,,,,,,,,,,"2009-05-01"
"74486094789","2020-02-17T23:59:00","SOD  ","6",,"ESE","1.5","mi","TEMP, PRECIP, SNOW",,,"PSY, SRG, SNOWBOARD",,,"FAA CWO",,,,"28","43","60","30.25","30.23","36","5.6","0","7.8","22","51","34","240","19","0.00","0","0.0","050","15",,,,,,,,,,,,,,,,,,,,,,,,,,,,,,,,,,,,,,,,,,,,,,,,,,,,,,,,,"SOD74324 HR PRECIPITATION (IN): 0.00 SNOW DEPTH (IN):0     24 HR SNOWFALL (IN):0.0  24 HR MAX TEMP (F): 5124 HR MIN TEMP (F): 34AVERAGE STATION PRESSURE(D):30.231 MINIMUM SEA LEVEL PRESSURE:30.11 TIME OF OCCURRENCE:0019 PEAK WIND SPEED (MPH): 19 PEAK WIND DIR (DEG):240 PEAK WIND TIME (LST):      FASTEST 2MIN SPEED (MPH): 15FASTEST 2MIN DIR (DEG): 50 FASTEST 2MIN TIME (LST):     AVERAGE WIND SPEED (MPH): 5.6 24 HR AVG TEMP (F): 43DEPART FROM NORMAL:  8  HEATING DEGREE DAYS: 22 COOLING DEGREE DAYS:  0 LATEST DAY MAX TEMP (0700-1900 LST): 51 LATEST NIGHT MIN TEMP(1900-0800 LST):34 HOURLY INCREMENTAL PRECIPITATION VALUES (IN):0.00 0.00 0.00 0.00 0.00 0.00 0.00 0.00 0.00 0.00 0.00 0.00 0.00 0.00 0.00 0.00 0.00 0.00 0.00 0.00 0.00 0.00 0.00 0.00","SOD  ","6",,,,,,,,,,,,,,,,,,,,,,,,,"0647","1732",,"2009-05-01"
"74486094789","2020-02-18T00:51:00","FM-15","7",,"ESE","1.5","mi","TEMP, PRECIP, SNOW",,,"PSY, SRG, SNOWBOARD",,,"FAA CWO",,,,,,,,,,,,,,,,,,,,,,,,,,,"30.40","21","37","0.00",,"-0.03","1","52","30.40","BKN:07 170","30.37","10.00","31","060",,"11",,,,,,,,,,,,,,,,,,,,,,,,,,,,,,,,,,,,,"MET11202/18/20 00:51:02 METAR KJFK 180551Z 06010KT 10SM BKN170 03/M06 A3040 RMK AO2 SLP294 T00281061 10050 20017 51011","FM-15","7",,,,,,,,,,,,,,,,,,,,,,,,,,,,"2009-05-01"
"74486094789","2020-02-18T01:00:00","FM-12","4",,"ESE","1.5","mi","TEMP, PRECIP, SNOW",,,"PSY, SRG, SNOWBOARD",,,"FAA CWO",,,,,,,,,,,,,,,,,,,,,,,,,,,,"21","37",,,"-0.03","1","52","30.40",,"30.37","9.94","31","060",,"11",,,,,,,,,,,,,,,,,,,,,,,,,,,,,,,,,,,,,"SYN08074486 32966 60610 10028 21061 30283 40294 51011 90551 333 10050 20011 555 91806=","FM-12","4",,,,,,,,,,,,,,,,,,,,,,,,,,,,"2009-05-01"
"74486094789","2020-02-18T01:51:00","FM-15","7",,"ESE","1.5","mi","TEMP, PRECIP, SNOW",,,"PSY, SRG, SNOWBOARD",,,"FAA CWO",,,,,,,,,,,,,,,,,,,,,,,,,,,"30.40","21","37","0.00",,,,"52","30.40","OVC:08 130","30.37","10.00","31","060",,"11",,,,,,,,,,,,,,,,,,,,,,,,,,,,,,,,,,,,,"MET09402/18/20 01:51:02 METAR KJFK 180651Z 06010KT 10SM OVC130 03/M06 A3040 RMK AO2 SLP294 T00281061","FM-15","7",,,,,,,,,,,,,,,,,,,,,,,,,,,,"2009-05-01"
"74486094789","2020-02-18T02:51:00","FM-15","7",,"ESE","1.5","mi","TEMP, PRECIP, SNOW",,,"PSY, SRG, SNOWBOARD",,,"FAA CWO",,,,,,,,,,,,,,,,,,,,,,,,,,,"30.36","23","37","0.00",,,,"57","30.36","OVC:08 100","30.34","10.00","32","070",,"15",,,,,,,,,,,,,,,,,,,,,,,,,,,,,,,,,,,,,"MET09402/18/20 02:51:02 METAR KJFK 180751Z 07013KT 10SM OVC100 03/M05 A3036 RMK AO2 SLP281 T00281050","FM-15","7",,,,,,,,,,,,,,,,,,,,,,,,,,,,"2009-05-01"
"74486094789","2020-02-18T03:51:00","FM-15","7",,"ESE","1.5","mi","TEMP, PRECIP, SNOW",,,"PSY, SRG, SNOWBOARD",,,"FAA CWO",,,,,,,,,,,,,,,,,,,,,,,,,,,"30.35","24","37","0.00",,"+0.05","8","59","30.35","OVC:08 120","30.32","10.00","32","060",,"10",,,,,,,,,,,,,,,,,,,,,,,,,,,,,,,,,,,,,"MET10002/18/20 03:51:02 METAR KJFK 180851Z 06009KT 10SM OVC120 03/M04 A3035 RMK AO2 SLP278 T00281044 58016","FM-15","7",,,,,,,,,,,,,,,,,,,,,,,,,,,,"2009-05-01"
"74486094789","2020-02-18T04:00:00","FM-12","4",,"ESE","1.5","mi","TEMP, PRECIP, SNOW",,,"PSY, SRG, SNOWBOARD",,,"FAA CWO",,,,,,,,,,,,,,,,,,,,,,,,,,,,"24","37",,,"+0.05","8","59","30.35",,"30.32","9.94","32","060",,"10",,,,,,,,,,,,,,,,,,,,,,,,,,,,,,,,,,,,,"SYN06474486 32966 40609 10028 21044 30266 40278 58016 90851 555 91809=","FM-12","4",,,,,,,,,,,,,,,,,,,,,,,,,,,,"2009-05-01"
"74486094789","2020-02-18T04:51:00","FM-15","7",,"ESE","1.5","mi","TEMP, PRECIP, SNOW",,,"PSY, SRG, SNOWBOARD",,,"FAA CWO",,,,,,,,,,,,,,,,,,,,,,,,,,,"30.35","27","38","0.00",,,,"65","30.35","OVC:08 120","30.32","10.00","34","070",,"9",,,,,,,,,,,,,,,,,,,,,,,,,,,,,,,,,,,,,"MET09402/18/20 04:51:02 METAR KJFK 180951Z 07008KT 10SM OVC120 03/M03 A3035 RMK AO2 SLP276 T00331028","FM-15","7",,,,,,,,,,,,,,,,,,,,,,,,,,,,"2009-05-01"
"74486094789","2020-02-18T05:51:00","FM-15","7",,"ESE","1.5","mi","TEMP, PRECIP, SNOW",,,"PSY, SRG, SNOWBOARD",,,"FAA CWO",,,,,,,,,,,,,,,,,,,,,,,,,,,"30.34","29","38","0.00",,,,"70","30.34","FEW:02 21 OVC:08 120","30.32","10.00","34","050",,"9",,,,,,,,,,,,,,,,,,,,,,,,,,,,,,,,,,,,,"MET10102/18/20 05:51:02 METAR KJFK 181051Z 05008KT 10SM FEW021 OVC120 03/M02 A3034 RMK AO2 SLP275 T00331017","FM-15","7",,,,,,,,,,,,,,,,,,,,,,,,,,,,"2009-05-01"
"74486094789","2020-02-18T06:51:00","FM-15","7",,"ESE","1.5","mi","TEMP, PRECIP, SNOW",,,"PSY, SRG, SNOWBOARD",,,"FAA CWO",,,,,,,,,,,,,,,,,,,,,,,,,,,"30.35","31","41","0.00",,"+0.00","5","67","30.35","SCT:04 25 BKN:07 120 OVC:08 160","30.32","10.00","37","100",,"9",,,,,,,,,,,,,,,,,,,,,,,,,,,,,,,,,,,,,"MET13602/18/20 06:51:02 METAR KJFK 181151Z 10008KT 10SM SCT025 BKN120 OVC160 05/M01 A3035 RMK AO2 SLP277 SCT V BKN T00501006 10050 20028 55001","FM-15","7",,,,,,,,,,,,,,,,,,,,,,,,,,,,"2009-05-01"
"74486094789","2020-02-18T07:00:00","FM-12","4",,"ESE","1.5","mi","TEMP, PRECIP, SNOW",,,"PSY, SRG, SNOWBOARD",,,"FAA CWO",,,,,,,,,,,,,,,,,,,,,,,,,,,,"31","41",,,"+0.00","5","67","30.35","26","30.32","9.94","37","100",,"9",,,,,,,,,,,,,,,,,,,,,,,,,,,,,,,,,,,,,"SYN08074486 32566 81008 10050 21006 30266 40277 55001 91151 333 10106 20017 555 91812=","FM-12","4",,,,,,,,,,,,,,,,,,,,,,,,,,,,"2009-05-01"
"74486094789","2020-02-18T07:51:00","FM-15","7",,"ESE","1.5","mi","TEMP, PRECIP, SNOW",,,"PSY, SRG, SNOWBOARD",,,"FAA CWO",,,,,,,,,,,,,,,,,,,,,,,,,,,"30.34","31","43","0.00",,,,"63","30.33","FEW:02 25 SCT:04 50 OVC:08 120","30.32","10.00","38","100",,"13",,,,,,,,,,,,,,,,,,,,,,,,,,,,,,,,,,,,,"MET10802/18/20 07:51:02 METAR KJFK 181251Z 10011KT 10SM FEW025 SCT050 OVC120 06/M01 A3034 RMK AO2 SLP272 T00611006","FM-15","7",,,,,,,,,,,,,,,,,,,,,,,,,,,,"2009-05-01"
"74486094789","2020-02-18T08:51:00","FM-15","7",,"ESE","1.5","mi","TEMP, PRECIP, SNOW",,,"PSY, SRG, SNOWBOARD",,,"FAA CWO",,,,,,,,,,,,,,,,,,,,,,,,,,,"30.32","29","44","0.00",,,,"55","30.32","FEW:02 27 BKN:07 49 OVC:08 90","30.29","10.00","38","120",,"15",,,,,,,,,,,,,,,,,,,,,,,,,,,,,,,,,,,,,"MET11002/18/20 08:51:02 METAR KJFK 181351Z 12013KT 10SM FEW027 BKN049 OVC090 07/M02 A3032 RMK AO2 SLP267 T00671017 $","FM-15","7",,,,,,,,,,,,,,,,,,,,,,,,,,,,"2009-05-01"
"74486094789","2020-02-18T09:16:00","FM-16","7",,"ESE","1.5","mi","TEMP, PRECIP, SNOW",,,"PSY, SRG, SNOWBOARD",,,"FAA CWO",,,,,,,,,,,,,,,,,,,,,,,,,,,"30.30","30","44",,,,,"58",,"BKN:07 27 BKN:07 49 OVC:08 85","30.27","10.00","38","090",,"16",,,,,,,,,,,,,,,,,,,,,,,,,,,,,,,,,,,,,"MET10302/18/20 09:16:02 SPECI KJFK 181416Z 09014KT 10SM BKN027 BKN049 OVC085 07/M01 A3030 RMK AO2 T00671011 $","FM-16","7",,,,,,,,,,,,,,,,,,,,,,,,,,,,"2009-05-01"
"74486094789","2020-02-18T09:51:00","FM-15","7",,"ESE","1.5","mi","TEMP, PRECIP, SNOW",,,"PSY, SRG, SNOWBOARD",,,"FAA CWO",,,,,,,,,,,,,,,,,,,,,,,,,,,"30.31","30","44","T",,"+0.04","8","58","30.30","BKN:07 21 BKN:07 27 OVC:08 45","30.29","10.00","38","100",,"15",,,,,,,,,,,,,,,,,,,,,,,,,,,,,,,,,,,,,"MET13702/18/20 09:51:02 METAR KJFK 181451Z 10013KT 10SM BKN021 BKN027 OVC045 07/M01 A3031 RMK AO2 RAB19E47 SLP262 P0000 60000 T00671011 58015 $","FM-15","7",,,,,,,,,,,,,,,,,,,,,,,,,,,,"2009-05-01"
"74486094789","2020-02-18T10:00:00","FM-12","4",,"ESE","1.5","mi","TEMP, PRECIP, SNOW",,,"PSY, SRG, SNOWBOARD",,,"FAA CWO",,,,,,,,,,,,,,,,,,,,,,,,,,,,"30","44",,,"+0.04","8","58","30.30","26","30.28","9.94","38","100",,"15",,,,,,,,,,,,,,,,,,,,,,,,,,,,,,,,,,,,,"SYN07074486 12566 81013 10067 21011 30253 40262 58015 69907 91451 555 91815=","FM-12","4",,,,,,,,,,,,,,,,,,,,,,,,,,,,"2009-05-01"
"74486094789","2020-02-18T10:51:00","FM-15","7",,"ESE","1.5","mi","TEMP, PRECIP, SNOW",,,"PSY, SRG, SNOWBOARD",,,"FAA CWO",,,,,,,,,,,,,,,,,,,,,,,,,,,"30.27","35","45","0.00",,,,"68","30.27","BKN:07 20 OVC:08 39","30.24","10.00","41","090",,"14",,,,,,,,,,,,,,,,,,,,,,,,,,,,,,,,,,,,,"MET10202/18/20 10:51:02 METAR KJFK 181551Z 09012KT 10SM BKN020 OVC039 07/02 A3027 RMK AO2 SLP251 T00720017 $","FM-15","7",,,,,,,,,,,,,,,,,,,,,,,,,,,,"2009-05-01"
"74486094789","2020-02-18T11:51:00","FM-15","7",,"ESE","1.5","mi","TEMP, PRECIP, SNOW",,,"PSY, SRG, SNOWBOARD",,,"FAA CWO",,,,,,,,,,,,,,,,,,,,,,,,,,,"30.21","36","47","0.00",,,,"66","30.21","FEW:02 21 BKN:07 28 OVC:08 70","30.19","10.00","42","100",,"21",,,,,,,,,,,,,,,,,,,,,,,,,,,,,,,,,,,,,"MET11602/18/20 11:51:02 METAR KJFK 181651Z 10018KT 10SM FEW021 BKN028 OVC070 08/02 A3021 RMK AO2 PRESFR SLP230 T00830022 $","FM-15","7",,,,,,,,,,,,,,,,,,,,,,,,,,,,"2009-05-01"
"74486094789","2020-02-18T12:51:00","FM-15","7",,"ESE","1.5","mi","TEMP, PRECIP, SNOW",,,"PSY, SRG, SNOWBOARD",,,"FAA CWO",,,,,,,,,,,,,,,,,,,,,,,,,,,"30.16","43","48","0.00",,"+0.14","8","83","30.16","BKN:07 22 BKN:07 30 OVC:08 80","30.14","10.00","46","100","24","14",,,,,,,,,,,,,,,,,,,,,,,,,,,,,,,,,,,,,"MET13402/18/20 12:51:02 METAR KJFK 181751Z 10012G21KT 10SM BKN022 BKN030 OVC080 09/06 A3016 RMK AO2 SLP214 60000 T00890061 10094 20050 58048","FM-15","7",,,,,,,,,,,,,,,,,,,,,,,,,,,,"2009-05-01"
"74486094789","2020-02-18T13:00:00","FM-12","4",,"ESE","1.5","mi","TEMP, PRECIP, SNOW",,,"PSY, SRG, SNOWBOARD",,,"FAA CWO",,,,,,,,,,,,,,,,,,,,,,,,,,,,"43","48",,,"+0.14","8","83","30.16","26","30.13","9.94","46","100",,"14",,,,,,,,,,,,,,,,,,,,,,,,,,,,,,,,,,,,,"SYN09274486 12566 81012 10089 20061 30202 40214 58048 69901 91751 333 10094 20044 91021 555 91818=","FM-12","4",,,,,,,,,,,,,,,,,,,,,,,,,,,,"2009-05-01"
"74486094789","2020-02-18T13:51:00","FM-15","7",,"ESE","1.5","mi","TEMP, PRECIP, SNOW",,,"PSY, SRG, SNOWBOARD",,,"FAA CWO",,,,,,,,,,,,,,,,,,,,,,,,,,,"30.12","43","47","0.00",,,,"86","30.12","BKN:07 18 BKN:07 25 OVC:08 60","30.09","10.00","45","090",,"13",,,,,,,,,,,,,,,,,,,,,,,,,,,,,,,,,,,,,"MET10902/18/20 13:51:02 METAR KJFK 181851Z 09011KT 10SM BKN018 BKN025 OVC060 08/06 A3012 RMK AO2 SLP200 T00830061 $","FM-15","7",,,,,,,,,,,,,,,,,,,,,,,,,,,,"2009-05-01"
"74486094789","2020-02-18T14:47:00","FM-16","7",,"ESE","1.5","mi","TEMP, PRECIP, SNOW",,,"PSY, SRG, SNOWBOARD",,,"FAA CWO",,,,,,,,,,,,,,,,,,,,,,,,,,,"30.08","45","46",,,,,"93",,"BKN:07 12 OVC:08 22","30.06","10.00","46","100",,"14",,,,,,,,,,,,,,,,,,,,,,,,,,,,,,,,,,,,,"MET08502/18/20 14:47:02 SPECI KJFK 181947Z 10012KT 10SM BKN012 OVC022 08/07 A3008 RMK AO2 $","FM-16","7",,,,,,,,,,,,,,,,,,,,,,,,,,,,"2009-05-01"
"74486094789","2020-02-18T14:51:00","FM-15","7",,"ESE","1.5","mi","TEMP, PRECIP, SNOW",,,"PSY, SRG, SNOWBOARD",,,"FAA CWO",,,,,,,,,,,,,,,,,,,,,,,,,,,"30.09","44","47","0.00",,,,"90","30.09","BKN:07 12 OVC:08 22","30.06","10.00","46","090",,"11",,,,,,,,,,,,,,,,,,,,,,,,,,,,,,,,,,,,,"MET10202/18/20 14:51:02 METAR KJFK 181951Z 09010KT 10SM BKN012 OVC022 08/07 A3009 RMK AO2 SLP188 T00830067 $","FM-15","7",,,,,,,,,,,,,,,,,,,,,,,,,,,,"2009-05-01"
"74486094789","2020-02-18T15:13:00","FM-16","7",,"ESE","1.5","mi","TEMP, PRECIP, SNOW",,,"PSY, SRG, SNOWBOARD",,,"FAA CWO",,,,,,,,,,,,,,,,,,,,,,,,,,,"30.08","45","47",,,,,"93",,"OVC:08 9","30.06","9.00","46","090",,"11",,,,,,,,,,,,,,,,,,,,,,,,,,,,,,,,,,,,,"MET08702/18/20 15:13:02 SPECI KJFK 182013Z 09010KT 9SM OVC009 08/07 A3008 RMK AO2 T00830072 $","FM-16","7",,,,,,,,,,,,,,,,,,,,,,,,,,,,"2009-05-01"
"74486094789","2020-02-18T15:51:00","FM-15","7",,"ESE","1.5","mi","TEMP, PRECIP, SNOW",,,"PSY, SRG, SNOWBOARD",,,"FAA CWO",,,,,,,,,,,,,,,,,,,,,,,,,,,"30.06","45","47","T","-RA:02 |RA |RA","+0.10","6","93","30.06","OVC:08 8","30.03","7.00","46","050",,"8",,,,,,,,,,,,,,,,,,,,,,,,,,,,,,,,,,,,,"MET12202/18/20 15:51:02 METAR KJFK 182051Z 05007KT 7SM -RA OVC008 08/07 A3006 RMK AO2 RAB35 SLP179 P0000 60000 T00830072 56035 $","FM-15","7",,,,,,,,,,,,,,,,,,,,,,,,,,,,"2009-05-01"
"74486094789","2020-02-18T16:00:00","FM-12","4",,"ESE","1.5","mi","TEMP, PRECIP, SNOW",,,"PSY, SRG, SNOWBOARD",,,"FAA CWO",,,,,,,,,,,,,,,,,,,,,,,,,,,,"45","47",,"||RA","+0.10","6","93","30.06","8","30.03","6.84","46","050",,"8",,,,,,,,,,,,,,,,,,,,,,,,,,,,,,,,,,,,,"SYN07674486 11361 80507 10083 20072 30168 40179 56035 69907 761// 92051 555 91821=","FM-12","4",,,,,,,,,,,,,,,,,,,,,,,,,,,,"2009-05-01"
"74486094789","2020-02-18T16:37:00","FM-16","7",,"ESE","1.5","mi","TEMP, PRECIP, SNOW",,,"PSY, SRG, SNOWBOARD",,,"FAA CWO",,,,,,,,,,,,,,,,,,,,,,,,,,,"30.03","46","46","T","BR:1 ||",,,"100",,"OVC:08 6","30.01","2.50","46","050",,"8",,,,,,,,,,,,,,,,,,,,,,,,,,,,,,,,,,,,,"MET11802/18/20 16:37:02 SPECI KJFK 182137Z 05007KT 2 1/2SM BR OVC006 08/08 A3003 RMK AO2 SFC VIS 3 RAE2058 P0000 T00780078 $","FM-16","7",,,,,,,,,,,,,,,,,,,,,,,,,,,,"2009-05-01"
"74486094789","2020-02-18T16:51:00","FM-15","7",,"ESE","1.5","mi","TEMP, PRECIP, SNOW",,,"PSY, SRG, SNOWBOARD",,,"FAA CWO",,,,,,,,,,,,,,,,,,,,,,,,,,,"30.02","46","46","0.00","BR:1 ||",,,"100","30.02","OVC:08 5","30.00","2.50","46","040",,"7",,,,,,,,,,,,,,,,,,,,,,,,,,,,,,,,,,,,,"MET12502/18/20 16:51:02 METAR KJFK 182151Z 04006KT 2 1/2SM BR OVC005 08/08 A3002 RMK AO2 SFC VIS 3 RAE2058 SLP165 P0000 T00780078 $","FM-15","7",,,,,,,,,,,,,,,,,,,,,,,,,,,,"2009-05-01"
"74486094789","2020-02-18T17:12:00","FM-16","7",,"ESE","1.5","mi","TEMP, PRECIP, SNOW",,,"PSY, SRG, SNOWBOARD",,,"FAA CWO",,,,,,,,,,,,,,,,,,,,,,,,,,,"30.02","46","46",,"BR:1 ||",,,"100",,"OVC:08 4","30.00","2.50","46","030",,"7",,,,,,,,,,,,,,,,,,,,,,,,,,,,,,,,,,,,,"MET10402/18/20 17:12:02 SPECI KJFK 182212Z 03006KT 2 1/2SM BR OVC004 08/08 A3002 RMK AO2 SFC VIS 3 T00780078 $","FM-16","7",,,,,,,,,,,,,,,,,,,,,,,,,,,,"2009-05-01"
"74486094789","2020-02-18T17:51:00","FM-15","7",,"ESE","1.5","mi","TEMP, PRECIP, SNOW",,,"PSY, SRG, SNOWBOARD",,,"FAA CWO",,,,,,,,,,,,,,,,,,,,,,,,,,,"30.01","44","44","0.00","BR:1 ||",,,"100","30.01","OVC:08 3","29.98","2.50","44","350",,"8",,,,,,,,,,,,,,,,,,,,,,,,,,,,,,,,,,,,,"MET10902/18/20 17:51:02 METAR KJFK 182251Z 35007KT 2 1/2SM BR OVC003 07/07 A3001 RMK AO2 SFC VIS 3 SLP162 T00670067","FM-15","7",,,,,,,,,,,,,,,,,,,,,,,,,,,,"2009-05-01"
"74486094789","2020-02-18T18:51:00","FM-15","7",,"ESE","1.5","mi","TEMP, PRECIP, SNOW",,,"PSY, SRG, SNOWBOARD",,,"FAA CWO",,,,,,,,,,,,,,,,,,,,,,,,,,,"30.01","42","42","0.00","BR:1 ||","+0.05","6","100","30.01","OVC:08 3","29.98","2.50","42","340",,"8",,,,,,,,,,,,,,,,,,,,,,,,,,,,,,,,,,,,,"MET13502/18/20 18:51:02 METAR KJFK 182351Z 34007KT 2 1/2SM BR OVC003 06/06 A3001 RMK AO2 SFC VIS 3 SLP161 60000 T00560056 10089 20056 56018 $","FM-15","7",,,,,,,,,,,,,,,,,,,,,,,,,,,,"2009-05-01"
"74486094789","2020-02-18T19:00:00","FM-12","4",,"ESE","1.5","mi","TEMP, PRECIP, SNOW",,,"PSY, SRG, SNOWBOARD",,,"FAA CWO",,,,,,,,,,,,,,,,,,,,,,,,,,,,"42","42",,,"+0.05","6","100","30.01","2","29.98","2.49","42","340",,"8",,,,,,,,,,,,,,,,,,,,,,,,,,,,,,,,,,,,,"SYN09274486 11140 83407 10056 20056 30151 40161 56018 69901 710// 92351 333 10094 20028 555 91900=","FM-12","4",,,,,,,,,,,,,,,,,,,,,,,,,,,,"2009-05-01"
"74486094789","2020-02-18T19:46:00","FM-16","7",,"ESE","1.5","mi","TEMP, PRECIP, SNOW",,,"PSY, SRG, SNOWBOARD",,,"FAA CWO",,,,,,,,,,,,,,,,,,,,,,,,,,,"30.01","43","43",,"BR:1 |s |",,,"100",,"OVC:08 3","29.98","0.25","43","340",,"10",,,,,,,,,,,,,,,,,,,,,,,,,,,,,,,,,,,,,"MET10502/18/20 19:46:01 SPECI KJFK 190046Z 34009KT 1/4SM R04R/P6000FT BR OVC003 06/06 A3001 RMK AO2 SFC VIS 2 $","FM-16","7",,,,,,,,,,,,,,,,,,,,,,,,,,,,"2009-05-01"
"74486094789","2020-02-18T19:51:00","FM-15","7",,"ESE","1.5","mi","TEMP, PRECIP, SNOW",,,"PSY, SRG, SNOWBOARD",,,"FAA CWO",,,,,,,,,,,,,,,,,,,,,,,,,,,"30.00","42","42","0.00","BR:1 |s |",,,"100","30.00","OVC:08 3","29.98","0.25","42","340",,"9",,,,,,,,,,,,,,,,,,,,,,,,,,,,,,,,,,,,,"MET12202/18/20 19:51:01 METAR KJFK 190051Z 34008KT 1/4SM R04R/P6000FT BR OVC003 06/06 A3000 RMK AO2 SFC VIS 2 SLP159 T00560056 $","FM-15","7",,,,,,,,,,,,,,,,,,,,,,,,,,,,"2009-05-01"
"74486094789","2020-02-18T20:51:00","FM-15","7",,"ESE","1.5","mi","TEMP, PRECIP, SNOW",,,"PSY, SRG, SNOWBOARD",,,"FAA CWO",,,,,,,,,,,,,,,,,,,,,,,,,,,"30.00","42","42","0.00","BR:1 |s |",,,"100","30.00","OVC:08 3","29.98","0.25","42","360",,"7",,,,,,,,,,,,,,,,,,,,,,,,,,,,,,,,,,,,,"MET12202/18/20 20:51:01 METAR KJFK 190151Z 36006KT 1/4SM R04R/P6000FT BR OVC003 06/06 A3000 RMK AO2 SFC VIS 3 SLP159 T00560056 $","FM-15","7",,,,,,,,,,,,,,,,,,,,,,,,,,,,"2009-05-01"
"74486094789","2020-02-18T21:48:00","FM-16","7",,"ESE","1.5","mi","TEMP, PRECIP, SNOW",,,"PSY, SRG, SNOWBOARD",,,"FAA CWO",,,,,,,,,,,,,,,,,,,,,,,,,,,"30.00","43","43",,"BR:1 ||",,,"100",,"BKN:07 5 BKN:07 36 OVC:08 42","29.98","3.00","43","350",,"3",,,,,,,,,,,,,,,,,,,,,,,,,,,,,,,,,,,,,"MET10402/18/20 21:48:01 SPECI KJFK 190248Z 35003KT 3SM BR BKN005 BKN036 OVC042 06/06 A3000 RMK AO2 SFC VIS 6 $","FM-16","7",,,,,,,,,,,,,,,,,,,,,,,,,,,,"2009-05-01"
"74486094789","2020-02-18T21:51:00","FM-15","7",,"ESE","1.5","mi","TEMP, PRECIP, SNOW",,,"PSY, SRG, SNOWBOARD",,,"FAA CWO",,,,,,,,,,,,,,,,,,,,,,,,,,,"30.01","43","43","0.00","BR:1 ||","+0.00","5","100","30.01","BKN:07 5 BKN:07 36 OVC:08 42","29.98","3.00","43","000",,"0",,,,,,,,,,,,,,,,,,,,,,,,,,,,,,,,,,,,,"MET12702/18/20 21:51:01 METAR KJFK 190251Z 00000KT 3SM BR BKN005 BKN036 OVC042 06/06 A3001 RMK AO2 SFC VIS 6 SLP161 T00610061 55000 $","FM-15","7",,,,,,,,,,,,,,,,,,,,,,,,,,,,"2009-05-01"
"74486094789","2020-02-18T22:00:00","FM-12","4",,"ESE","1.5","mi","TEMP, PRECIP, SNOW",,,"PSY, SRG, SNOWBOARD",,,"FAA CWO",,,,,,,,,,,,,,,,,,,,,,,,,,,,"43","43",,,"+0.00","5","100","30.01","5","29.98","2.98","43","000",,"0",,,,,,,,,,,,,,,,,,,,,,,,,,,,,,,,,,,,,"SYN07074486 31248 80000 10061 20061 30151 40161 55000 710// 90251 555 91903=","FM-12","4",,,,,,,,,,,,,,,,,,,,,,,,,,,,"2009-05-01"
"74486094789","2020-02-18T22:49:00","FM-16","6",,"ESE","1.5","mi","TEMP, PRECIP, SNOW",,,"PSY, SRG, SNOWBOARD",,,"FAA CWO",,,,,,,,,,,,,,,,,,,,,,,,,,,"30.00","45","45",,"BR:1 ||",,,"100",,"SCT:04 5 BKN:07 40 OVC:08 55","29.98","6.00","45","290",,"3",,,,,,,,,,,,,,,,,,,,,,,,,,,,,,,,,,,,,"MET10402/18/20 22:49:03 SPECI KJFK 190349Z 29003KT 6SM BR SCT005 BKN040 OVC055 07/07 A3000 RMK AO2 $ FIBI (ML)","FM-16","6",,,,,,,,,,,,,,,,,,,,,,,,,,,,"2009-05-01"
"74486094789","2020-02-18T22:51:00","FM-15","7",,"ESE","1.5","mi","TEMP, PRECIP, SNOW",,,"PSY, SRG, SNOWBOARD",,,"FAA CWO",,,,,,,,,,,,,,,,,,,,,,,,,,,"30.00","44","45","0.00","BR:1 ||",,,"97","29.99","SCT:04 5 BKN:07 40 OVC:08 55","29.98","6.00","45","300",,"3",,,,,,,,,,,,,,,,,,,,,,,,,,,,,,,,,,,,,"MET11102/18/20 22:51:02 METAR KJFK 190351Z 30003KT 6SM BR SCT005 BKN040 OVC055 07/07 A3000 RMK AO2 SLP157 T00720067 $","FM-15","7",,,,,,,,,,,,,,,,,,,,,,,,,,,,"2009-05-01"
"74486094789","2020-02-18T23:51:00","FM-15","7",,"ESE","1.5","mi","TEMP, PRECIP, SNOW",,,"PSY, SRG, SNOWBOARD",,,"FAA CWO",,,,,,,,,,,,,,,,,,,,,,,,,,,"30.01","44","45","0.00",,,,"97","30.01","FEW:02 5 SCT:04 40 OVC:08 60","29.98","7.00","45","290",,"7",,,,,,,,,,,,,,,,,,,,,,,,,,,,,,,,,,,,,"MET11802/18/20 23:51:02 METAR KJFK 190451Z 29006KT 7SM FEW005 SCT040 OVC060 07/07 A3001 RMK AO2 SLP162 T00720067 400940022 $","FM-15","7",,,,,,,,,,,,,,,,,,,,,,,,,,,,"2009-05-01"
"74486094789","2020-02-18T23:59:00","SOD  ","6",,"ESE","1.5","mi","TEMP, PRECIP, SNOW",,,"PSY, SRG, SNOWBOARD",,,"FAA CWO",,,,"36","43","79","30.19","30.13","40","10.4","0","7.6","22","49","36","100","28","T","0","0.0","100","22","RA BR",,,,,,,,,,,,,,,,,,,,,,,,,,,,,,,,,,,,,,,,,,,,,,,,,,,,,,,,"SOD78824 HR PRECIPITATION (IN):    T SNOW DEPTH (IN):0     24 HR SNOWFALL (IN):0.0  WEATHER(CODE):12  24 HR MAX TEMP (F): 4924 HR MIN TEMP (F): 36AVERAGE STATION PRESSURE(D):30.132 MINIMUM SEA LEVEL PRESSURE:29.98 TIME OF OCCURRENCE:2244 PEAK WIND SPEED (MPH): 28 PEAK WIND DIR (DEG):100 PEAK WIND TIME (LST):      FASTEST 2MIN SPEED (MPH): 22FASTEST 2MIN DIR (DEG):100 FASTEST 2MIN TIME (LST):     AVERAGE WIND SPEED (MPH):10.4 24 HR AVG TEMP (F): 43DEPART FROM NORMAL:  8  SKY COVER SR-SS (TENTHS): 1HEATING DEGREE DAYS: 22 COOLING DEGREE DAYS:  0 LATEST DAY MAX TEMP (0700-1900 LST): 49 LATEST NIGHT MIN TEMP(1900-0800 LST):35 HOURLY INCREMENTAL PRECIPITATION VALUES (IN):0.00 0.00 0.00 0.00 0.00 0.00 0.00 0.00 0.00T     0.00 0.00 0.00 0.00 0.00T     0.00 0.00 0.00 0.00 0.00 0.00 0.00 0.00","SOD  ","6",,,,,,,,,,,,,,,,,,,,,,,,,"0645","1733",,"2009-05-01"
"74486094789","2020-02-19T00:51:00","FM-15","7",,"ESE","1.5","mi","TEMP, PRECIP, SNOW",,,"PSY, SRG, SNOWBOARD",,,"FAA CWO",,,,,,,,,,,,,,,,,,,,,,,,,,,"30.02","43","45","0.00",,"-0.01","3","93","30.01","FEW:02 5 SCT:04 31 OVC:08 60","30.00","7.00","44","250",,"7",,,,,,,,,,,,,,,,,,,,,,,,,,,,,,,,,,,,,"MET12602/19/20 00:51:02 METAR KJFK 190551Z 25006KT 7SM FEW005 SCT031 OVC060 07/06 A3002 RMK AO2 SLP164 T00720061 10083 20050 53003 $","FM-15","7",,,,,,,,,,,,,,,,,,,,,,,,,,,,"2009-05-01"
"74486094789","2020-02-19T01:00:00","FM-12","4",,"ESE","1.5","mi","TEMP, PRECIP, SNOW",,,"PSY, SRG, SNOWBOARD",,,"FAA CWO",,,,,,,,,,,,,,,,,,,,,,,,,,,,"43","45",,,"-0.01","3","93","30.01","5","29.99","6.84","44","250",,"7",,,,,,,,,,,,,,,,,,,,,,,,,,,,,,,,,,,,,"SYN08074486 32261 82506 10072 20061 30155 40164 53003 90551 333 10083 20028 555 91906=","FM-12","4",,,,,,,,,,,,,,,,,,,,,,,,,,,,"2009-05-01"
"74486094789","2020-02-19T01:51:00","FM-15","7",,"ESE","1.5","mi","TEMP, PRECIP, SNOW",,,"PSY, SRG, SNOWBOARD",,,"FAA CWO",,,,,,,,,,,,,,,,,,,,,,,,,,,"30.02","44","48","0.00",,,,"86","30.02","FEW:02 35 OVC:08 70","30.00","10.00","46","290","18","8",,,,,,,,,,,,,,,,,,,,,,,,,,,,,,,,,,,,,"MET10502/19/20 01:51:02 METAR KJFK 190651Z 29007G16KT 10SM FEW035 OVC070 09/07 A3002 RMK AO2 SLP166 T00890067 $","FM-15","7",,,,,,,,,,,,,,,,,,,,,,,,,,,,"2009-05-01"
"74486094789","2020-02-19T02:51:00","FM-15","7",,"ESE","1.5","mi","TEMP, PRECIP, SNOW",,,"PSY, SRG, SNOWBOARD",,,"FAA CWO",,,,,,,,,,,,,,,,,,,,,,,,,,,"30.03","39","47","0.00",,,,"74","30.02","SCT:04 30 OVC:08 80","30.01","10.00","43","320","28","17",,,,,,,,,,,,,,,,,,,,,,,,,,,,,,,,,,,,,"MET10502/19/20 02:51:02 METAR KJFK 190751Z 32015G24KT 10SM SCT030 OVC080 08/04 A3003 RMK AO2 SLP167 T00830039 $","FM-15","7",,,,,,,,,,,,,,,,,,,,,,,,,,,,"2009-05-01"
"74486094789","2020-02-19T03:51:00","FM-15","7",,"ESE","1.5","mi","TEMP, PRECIP, SNOW",,,"PSY, SRG, SNOWBOARD",,,"FAA CWO",,,,,,,,,,,,,,,,,,,,,,,,,,,"30.08","36","45","0.00",,"-0.06","3","71","30.07","FEW:02 30 OVC:08 85","30.06","10.00","41","330",,"14",,,,,,,,,,,,,,,,,,,,,,,,,,,,,,,,,,,,,"MET11502/19/20 03:51:02 METAR KJFK 190851Z 33012KT 10SM FEW030 OVC085 07/02 A3008 RMK AO2 PRESRR SLP184 T00720022 53020 $","FM-15","7",,,,,,,,,,,,,,,,,,,,,,,,,,,,"2009-05-01"
"74486094789","2020-02-19T04:00:00","FM-12","4",,"ESE","1.5","mi","TEMP, PRECIP, SNOW",,,"PSY, SRG, SNOWBOARD",,,"FAA CWO",,,,,,,,,,,,,,,,,,,,,,,,,,,,"36","45",,,"-0.06","3","71","30.07","26","30.05","9.94","41","330",,"14",,,,,,,,,,,,,,,,,,,,,,,,,,,,,,,,,,,,,"SYN06474486 32566 83312 10072 20022 30175 40184 53020 90851 555 91909=","FM-12","4",,,,,,,,,,,,,,,,,,,,,,,,,,,,"2009-05-01"
"74486094789","2020-02-19T04:51:00","FM-15","7",,"ESE","1.5","mi","TEMP, PRECIP, SNOW",,,"PSY, SRG, SNOWBOARD",,,"FAA CWO",,,,,,,,,,,,,,,,,,,,,,,,,,,"30.09","31","44","0.00",,,,"60","30.09","FEW:02 35 OVC:08 95","30.06","10.00","39","310",,"16",,,,,,,,,,,,,,,,,,,,,,,,,,,,,,,,,,,,,"MET10302/19/20 04:51:02 METAR KJFK 190951Z 31014KT 10SM FEW035 OVC095 07/M01 A3009 RMK AO2 SLP190 T00671006 $","FM-15","7",,,,,,,,,,,,,,,,,,,,,,,,,,,,"2009-05-01"
"74486094789","2020-02-19T05:51:00","FM-15","7",,"ESE","1.5","mi","TEMP, PRECIP, SNOW",,,"PSY, SRG, SNOWBOARD",,,"FAA CWO",,,,,,,,,,,,,,,,,,,,,,,,,,,"30.13","29","43","0.00",,,,"58","30.13","FEW:02 35 OVC:08 100","30.11","10.00","37","320","32","20",,,,,,,,,,,,,,,,,,,,,,,,,,,,,,,,,,,,,"MET12402/19/20 05:51:02 METAR KJFK 191051Z 32017G28KT 10SM FEW035 OVC100 06/M02 A3013 RMK AO2 PK WND 32028/1043 SLP203 T00611017 $","FM-15","7",,,,,,,,,,,,,,,,,,,,,,,,,,,,"2009-05-01"
"74486094789","2020-02-19T06:51:00","FM-15","7",,"ESE","1.5","mi","TEMP, PRECIP, SNOW",,,"PSY, SRG, SNOWBOARD",,,"FAA CWO",,,,,,,,,,,,,,,,,,,,,,,,,,,"30.15","28","43","0.00",,"-0.07","1","56","30.14","BKN:07 100","30.12","10.00","37","320",,"18",,,,,,,,,,,,,,,,,,,,,,,,,,,,,,,,,,,,,"MET11402/19/20 06:51:02 METAR KJFK 191151Z 32016KT 10SM BKN100 06/M02 A3015 RMK AO2 SLP208 T00611022 10089 20061 51024 $","FM-15","7",,,,,,,,,,,,,,,,,,,,,,,,,,,,"2009-05-01"
"74486094789","2020-02-19T07:00:00","FM-12","4",,"ESE","1.5","mi","TEMP, PRECIP, SNOW",,,"PSY, SRG, SNOWBOARD",,,"FAA CWO",,,,,,,,,,,,,,,,,,,,,,,,,,,,"28","43",,,"-0.07","1","56","30.14",,"30.12","9.94","37","320",,"18",,,,,,,,,,,,,,,,,,,,,,,,,,,,,,,,,,,,,"SYN08074486 32966 63216 10061 21022 30199 40208 51024 91151 333 10094 20050 555 91912=","FM-12","4",,,,,,,,,,,,,,,,,,,,,,,,,,,,"2009-05-01"
"74486094789","2020-02-19T07:51:00","FM-15","7",,"ESE","1.5","mi","TEMP, PRECIP, SNOW",,,"PSY, SRG, SNOWBOARD",,,"FAA CWO",,,,,,,,,,,,,,,,,,,,,,,,,,,"30.18","30","43","0.00",,,,"60","30.18","FEW:02 75 SCT:04 120 SCT:04 250","30.16","10.00","38","300",,"10",,,,,,,,,,,,,,,,,,,,,,,,,,,,,,,,,,,,,"MET11002/19/20 07:51:02 METAR KJFK 191251Z 30009KT 10SM FEW075 SCT120 SCT250 06/M01 A3018 RMK AO2 SLP219 T00611011 $","FM-15","7",,,,,,,,,,,,,,,,,,,,,,,,,,,,"2009-05-01"
"74486094789","2020-02-19T08:51:00","FM-15","7",,"ESE","1.5","mi","TEMP, PRECIP, SNOW",,,"PSY, SRG, SNOWBOARD",,,"FAA CWO",,,,,,,,,,,,,,,,,,,,,,,,,,,"30.21","23","44","0.00",,,,"43","30.21","FEW:02 120 SCT:04 250","30.19","10.00","36","320","25","15",,,,,,,,,,,,,,,,,,,,,,,,,,,,,,,,,,,,,"MET10602/19/20 08:51:02 METAR KJFK 191351Z 32013G22KT 10SM FEW120 SCT250 07/M05 A3021 RMK AO2 SLP230 T00671050 $","FM-15","7",,,,,,,,,,,,,,,,,,,,,,,,,,,,"2009-05-01"
"74486094789","2020-02-19T09:51:00","FM-15","7",,"ESE","1.5","mi","TEMP, PRECIP, SNOW",,,"PSY, SRG, SNOWBOARD",,,"FAA CWO",,,,,,,,,,,,,,,,,,,,,,,,,,,"30.22","23","45","0.00",,"-0.08","1","42","30.22","FEW:02 120 SCT:04 250","30.19","10.00","37","300","25","16",,,,,,,,,,,,,,,,,,,,,,,,,,,,,,,,,,,,,"MET11002/19/20 09:51:02 METAR KJFK 191451Z 30014G22KT 10SM FEW120 SCT250 07/M05 A3022 RMK AO2 SLP234 T00721050 51026","FM-15","7",,,,,,,,,,,,,,,,,,,,,,,,,,,,"2009-05-01"
"74486094789","2020-02-19T10:00:00","FM-12","4",,"ESE","1.5","mi","TEMP, PRECIP, SNOW",,,"PSY, SRG, SNOWBOARD",,,"FAA CWO",,,,,,,,,,,,,,,,,,,,,,,,,,,,"23","45",,,"-0.08","1","42","30.22",,"30.19","9.94","37","300",,"16",,,,,,,,,,,,,,,,,,,,,,,,,,,,,,,,,,,,,"SYN07474486 32966 43014 10072 21050 30222 40234 51026 91451 333 91022 555 91915=","FM-12","4",,,,,,,,,,,,,,,,,,,,,,,,,,,,"2009-05-01"
"74486094789","2020-02-19T10:51:00","FM-15","7",,"ESE","1.5","mi","TEMP, PRECIP, SNOW",,,"PSY, SRG, SNOWBOARD",,,"FAA CWO",,,,,,,,,,,,,,,,,,,,,,,,,,,"30.22","21","46","0.00",,,,"37","30.22","FEW:02 55 SCT:04 250","30.19","10.00","37","310","29","23",,,,,,,,,,,,,,,,,,,,,,,,,,,,,,,,,,,,,"MET12202/19/20 10:51:02 METAR KJFK 191551Z 31020G25KT 10SM FEW055 SCT250 08/M06 A3022 RMK AO2 PK WND 32030/1508 SLP234 T00781061","FM-15","7",,,,,,,,,,,,,,,,,,,,,,,,,,,,"2009-05-01"
"74486094789","2020-02-19T11:51:00","FM-15","7",,"ESE","1.5","mi","TEMP, PRECIP, SNOW",,,"PSY, SRG, SNOWBOARD",,,"FAA CWO",,,,,,,,,,,,,,,,,,,,,,,,,,,"30.21","22","48","0.00",,,,"36","30.21","FEW:02 55 SCT:04 250","30.19","10.00","38","300",,"16",,,,,,,,,,,,,,,,,,,,,,,,,,,,,,,,,,,,,"MET11902/19/20 11:51:02 METAR KJFK 191651Z 30014KT 10SM FEW055 SCT250 09/M06 A3021 RMK AO2 PK WND 31028/1615 SLP231 T00891056","FM-15","7",,,,,,,,,,,,,,,,,,,,,,,,,,,,"2009-05-01"
"74486094789","2020-02-19T12:51:00","FM-15","7",,"ESE","1.5","mi","TEMP, PRECIP, SNOW",,,"PSY, SRG, SNOWBOARD",,,"FAA CWO",,,,,,,,,,,,,,,,,,,,,,,,,,,"30.20","19","49","0.00",,"+0.03","8","31","30.19","FEW:02 60 SCT:04 250","30.17","10.00","38","280","26","21",,,,,,,,,,,,,,,,,,,,,,,,,,,,,,,,,,,,,"MET12402/19/20 12:51:02 METAR KJFK 191751Z 28018G23KT 10SM FEW060 SCT250 09/M07 A3020 RMK AO2 SLP224 T00941072 10100 20050 58010 $","FM-15","7",,,,,,,,,,,,,,,,,,,,,,,,,,,,"2009-05-01"
"74486094789","2020-02-19T13:00:00","FM-12","4",,"ESE","1.5","mi","TEMP, PRECIP, SNOW",,,"PSY, SRG, SNOWBOARD",,,"FAA CWO",,,,,,,,,,,,,,,,,,,,,,,,,,,,"19","49",,,"+0.03","8","31","30.19","57","30.16","9.94","38","280",,"21",,,,,,,,,,,,,,,,,,,,,,,,,,,,,,,,,,,,,"SYN08674486 32766 42818 10094 21072 30215 40224 58010 91751 333 10100 20050 91023 555 91918=","FM-12","4",,,,,,,,,,,,,,,,,,,,,,,,,,,,"2009-05-01"
"74486094789","2020-02-19T13:51:00","FM-15","7",,"ESE","1.5","mi","TEMP, PRECIP, SNOW",,,"PSY, SRG, SNOWBOARD",,,"FAA CWO",,,,,,,,,,,,,,,,,,,,,,,,,,,"30.20","19","49","0.00",,,,"31","30.20","FEW:02 65 SCT:04 250","30.17","10.00","38","300","25","17",,,,,,,,,,,,,,,,,,,,,,,,,,,,,,,,,,,,,"MET12402/19/20 13:51:02 METAR KJFK 191851Z 30015G22KT 10SM FEW065 SCT250 09/M07 A3020 RMK AO2 PK WND 28028/1754 SLP227 T00941072 $","FM-15","7",,,,,,,,,,,,,,,,,,,,,,,,,,,,"2009-05-01"
"74486094789","2020-02-19T14:51:00","FM-15","7",,"ESE","1.5","mi","TEMP, PRECIP, SNOW",,,"PSY, SRG, SNOWBOARD",,,"FAA CWO",,,,,,,,,,,,,,,,,,,,,,,,,,,"30.22","15","49","0.00",,,,"26","30.22","FEW:02 65 SCT:04 250","30.19","10.00","37","310","28","18",,,,,,,,,,,,,,,,,,,,,,,,,,,,,,,,,,,,,"MET12402/19/20 14:51:02 METAR KJFK 191951Z 31016G24KT 10SM FEW065 SCT250 09/M09 A3022 RMK AO2 PK WND 29029/1919 SLP232 T00941094 $","FM-15","7",,,,,,,,,,,,,,,,,,,,,,,,,,,,"2009-05-01"
"74486094789","2020-02-19T15:51:00","FM-15","7",,"ESE","1.5","mi","TEMP, PRECIP, SNOW",,,"PSY, SRG, SNOWBOARD",,,"FAA CWO",,,,,,,,,,,,,,,,,,,,,,,,,,,"30.24","16","47","0.00",,"-0.04","3","29","30.24","FEW:02 65 SCT:04 250","30.22","10.00","36","320",,"17",,,,,,,,,,,,,,,,,,,,,,,,,,,,,,,,,,,,,"MET12702/19/20 15:51:02 METAR KJFK 192051Z 32015KT 10SM FEW065 SCT250 08/M09 A3024 RMK AO2 PK WND 29026/2009 SLP239 T00831089 53014 $","FM-15","7",,,,,,,,,,,,,,,,,,,,,,,,,,,,"2009-05-01"
"74486094789","2020-02-19T16:00:00","FM-12","4",,"ESE","1.5","mi","TEMP, PRECIP, SNOW",,,"PSY, SRG, SNOWBOARD",,,"FAA CWO",,,,,,,,,,,,,,,,,,,,,,,,,,,,"16","47",,,"-0.04","3","29","30.24","57","30.21","9.94","36","320",,"17",,,,,,,,,,,,,,,,,,,,,,,,,,,,,,,,,,,,,"SYN06474486 32766 43215 10083 21089 30229 40239 53014 92051 555 91921=","FM-12","4",,,,,,,,,,,,,,,,,,,,,,,,,,,,"2009-05-01"
"74486094789","2020-02-19T16:51:00","FM-15","7",,"ESE","1.5","mi","TEMP, PRECIP, SNOW",,,"PSY, SRG, SNOWBOARD",,,"FAA CWO",,,,,,,,,,,,,,,,,,,,,,,,,,,"30.26","11","44","0.00",,,,"26","30.26","FEW:02 65 BKN:07 250","30.24","10.00","33","330",,"15",,,,,,,,,,,,,,,,,,,,,,,,,,,,,,,,,,,,,"MET10302/19/20 16:51:02 METAR KJFK 192151Z 33013KT 10SM FEW065 BKN250 07/M12 A3026 RMK AO2 SLP247 T00671117 $","FM-15","7",,,,,,,,,,,,,,,,,,,,,,,,,,,,"2009-05-01"
"74486094789","2020-02-19T17:51:00","FM-15","7",,"ESE","1.5","mi","TEMP, PRECIP, SNOW",,,"PSY, SRG, SNOWBOARD",,,"FAA CWO",,,,,,,,,,,,,,,,,,,,,,,,,,,"30.30","12","42","0.00",,,,"29","30.29","BKN:07 250","30.27","10.00","32","330",,"11",,,,,,,,,,,,,,,,,,,,,,,,,,,,,,,,,,,,,"MET09602/19/20 17:51:02 METAR KJFK 192251Z 33010KT 10SM BKN250 06/M11 A3030 RMK AO2 SLP259 T00561111 $","FM-15","7",,,,,,,,,,,,,,,,,,,,,,,,,,,,"2009-05-01"
"74486094789","2020-02-19T18:51:00","FM-15","7",,"ESE","1.5","mi","TEMP, PRECIP, SNOW",,,"PSY, SRG, SNOWBOARD",,,"FAA CWO",,,,,,,,,,,,,,,,,,,,,,,,,,,"30.33","15","40","0.00",,"-0.09","3","36","30.33","SCT:04 250","30.30","10.00","32","350",,"11",,,,,,,,,,,,,,,,,,,,,,,,,,,,,,,,,,,,,"MET11402/19/20 18:51:02 METAR KJFK 192351Z 35010KT 10SM SCT250 04/M09 A3033 RMK AO2 SLP270 T00441094 10106 20044 53031 $","FM-15","7",,,,,,,,,,,,,,,,,,,,,,,,,,,,"2009-05-01"
"74486094789","2020-02-19T19:00:00","FM-12","4",,"ESE","1.5","mi","TEMP, PRECIP, SNOW",,,"PSY, SRG, SNOWBOARD",,,"FAA CWO",,,,,,,,,,,,,,,,,,,,,,,,,,,,"15","40",,,"-0.09","3","36","30.33",,"30.29","9.94","32","350",,"11",,,,,,,,,,,,,,,,,,,,,,,,,,,,,,,,,,,,,"SYN08074486 32966 43510 10044 21094 30259 40270 53031 92351 333 10106 20044 555 92000=","FM-12","4",,,,,,,,,,,,,,,,,,,,,,,,,,,,"2009-05-01"
"74486094789","2020-02-19T19:51:00","FM-15","7",,"ESE","1.5","mi","TEMP, PRECIP, SNOW",,,"PSY, SRG, SNOWBOARD",,,"FAA CWO",,,,,,,,,,,,,,,,,,,,,,,,,,,"30.35","15","39","0.00",,,,"38","30.35","SCT:04 250","30.32","10.00","31","330",,"14",,,,,,,,,,,,,,,,,,,,,,,,,,,,,,,,,,,,,"MET09602/19/20 19:51:01 METAR KJFK 200051Z 33012KT 10SM SCT250 04/M09 A3035 RMK AO2 SLP278 T00391094 $","FM-15","7",,,,,,,,,,,,,,,,,,,,,,,,,,,,"2009-05-01"
"74486094789","2020-02-19T20:51:00","FM-15","7",,"ESE","1.5","mi","TEMP, PRECIP, SNOW",,,"PSY, SRG, SNOWBOARD",,,"FAA CWO",,,,,,,,,,,,,,,,,,,,,,,,,,,"30.37","17","37","0.00",,,,"44","30.36","SCT:04 250","30.35","10.00","30","330",,"13",,,,,,,,,,,,,,,,,,,,,,,,,,,,,,,,,,,,,"MET09602/19/20 20:51:01 METAR KJFK 200151Z 33011KT 10SM SCT250 03/M08 A3037 RMK AO2 SLP282 T00281083 $","FM-15","7",,,,,,,,,,,,,,,,,,,,,,,,,,,,"2009-05-01"
"74486094789","2020-02-19T21:51:00","FM-15","7",,"ESE","1.5","mi","TEMP, PRECIP, SNOW",,,"PSY, SRG, SNOWBOARD",,,"FAA CWO",,,,,,,,,,,,,,,,,,,,,,,,,,,"30.39","17","35","0.00",,"-0.06","1","48","30.38","SCT:04 250","30.37","10.00","29","340",,"11",,,,,,,,,,,,,,,,,,,,,,,,,,,,,,,,,,,,,"MET10202/19/20 21:51:01 METAR KJFK 200251Z 34010KT 10SM SCT250 02/M08 A3039 RMK AO2 SLP289 T00171083 51019 $","FM-15","7",,,,,,,,,,,,,,,,,,,,,,,,,,,,"2009-05-01"
"74486094789","2020-02-19T22:00:00","FM-12","4",,"ESE","1.5","mi","TEMP, PRECIP, SNOW",,,"PSY, SRG, SNOWBOARD",,,"FAA CWO",,,,,,,,,,,,,,,,,,,,,,,,,,,,"17","35",,,"-0.06","1","48","30.38",,"30.36","9.94","29","340",,"11",,,,,,,,,,,,,,,,,,,,,,,,,,,,,,,,,,,,,"SYN06474486 32966 43410 10017 21083 30280 40289 51019 90251 555 92003=","FM-12","4",,,,,,,,,,,,,,,,,,,,,,,,,,,,"2009-05-01"
"74486094789","2020-02-19T22:51:00","FM-15","7",,"ESE","1.5","mi","TEMP, PRECIP, SNOW",,,"PSY, SRG, SNOWBOARD",,,"FAA CWO",,,,,,,,,,,,,,,,,,,,,,,,,,,"30.39","17","35","0.00",,,,"48","30.39","FEW:02 250","30.37","10.00","29","330","23","16",,,,,,,,,,,,,,,,,,,,,,,,,,,,,,,,,,,,,"MET09902/19/20 22:51:01 METAR KJFK 200351Z 33014G20KT 10SM FEW250 02/M08 A3039 RMK AO2 SLP292 T00171083 $","FM-15","7",,,,,,,,,,,,,,,,,,,,,,,,,,,,"2009-05-01"
"74486094789","2020-02-19T23:51:00","FM-15","7",,"ESE","1.5","mi","TEMP, PRECIP, SNOW",,,"PSY, SRG, SNOWBOARD",,,"FAA CWO",,,,,,,,,,,,,,,,,,,,,,,,,,,"30.39","17","33","0.00",,,,"52","30.39","SCT:04 250","30.37","10.00","28","350",,"13",,,,,,,,,,,,,,,,,,,,,,,,,,,,,,,,,,,,,"MET10602/19/20 23:51:02 METAR KJFK 200451Z 35011KT 10SM SCT250 01/M08 A3039 RMK AO2 SLP292 T00061083 401060006 $","FM-15","7",,,,,,,,,,,,,,,,,,,,,,,,,,,,"2009-05-01"
"74486094789","2020-02-19T23:59:00","SOD  ","6",,"ESE","1.5","mi","TEMP, PRECIP, SNOW",,,"PSY, SRG, SNOWBOARD",,,"FAA CWO",,,,"23","42","46","30.21","30.19","36","15.0","0","6.4","23","51","33","320","35","0.00","0","0.0","310","26",,,,,,,,,,,,,,,,,,,,,,,,,,,,,,,,,,,,,,,,,,,,,,,,,,,,,,,,,"SOD76024 HR PRECIPITATION (IN): 0.00 SNOW DEPTH (IN):0     24 HR SNOWFALL (IN):0.0  WEATHER(CODE):1  24 HR MAX TEMP (F): 5124 HR MIN TEMP (F): 33AVERAGE STATION PRESSURE(D):30.192 MINIMUM SEA LEVEL PRESSURE:30.00 TIME OF OCCURRENCE:0028 PEAK WIND SPEED (MPH): 35 PEAK WIND DIR (DEG):320 PEAK WIND TIME (LST):      FASTEST 2MIN SPEED (MPH): 26FASTEST 2MIN DIR (DEG):310 FASTEST 2MIN TIME (LST):     AVERAGE WIND SPEED (MPH):15.0 24 HR AVG TEMP (F): 42DEPART FROM NORMAL:  6  HEATING DEGREE DAYS: 23 COOLING DEGREE DAYS:  0 LATEST DAY MAX TEMP (0700-1900 LST): 51 LATEST NIGHT MIN TEMP(1900-0800 LST):41 HOURLY INCREMENTAL PRECIPITATION VALUES (IN):0.00 0.00 0.00 0.00 0.00 0.00 0.00 0.00 0.00 0.00 0.00 0.00 0.00 0.00 0.00 0.00 0.00 0.00 0.00 0.00 0.00 0.00 0.00 0.00","SOD  ","6",,,,,,,,,,,,,,,,,,,,,,,,,"0644","1735",,"2009-05-01"
"74486094789","2020-02-20T00:51:00","FM-15","7",,"ESE","1.5","mi","TEMP, PRECIP, SNOW",,,"PSY, SRG, SNOWBOARD",,,"FAA CWO",,,,,,,,,,,,,,,,,,,,,,,,,,,"30.41","17","32","0.00",,"-0.03","3","54","30.41","BKN:07 200 BKN:07 250","30.38","10.00","27","340",,"15",,,,,,,,,,,,,,,,,,,,,,,,,,,,,,,,,,,,,"MET12602/20/20 00:51:02 METAR KJFK 200551Z 34013KT 10SM BKN200 BKN250 00/M08 A3041 RMK AO2 SLP298 T00001083 10044 20000 53009 $ (DM)","FM-15","7",,,,,,,,,,,,,,,,,,,,,,,,,,,,"2009-05-01"
"74486094789","2020-02-20T01:00:00","FM-12","4",,"ESE","1.5","mi","TEMP, PRECIP, SNOW",,,"PSY, SRG, SNOWBOARD",,,"FAA CWO",,,,,,,,,,,,,,,,,,,,,,,,,,,,"17","32",,,"-0.03","3","54","30.41",,"30.38","9.94","27","340",,"15",,,,,,,,,,,,,,,,,,,,,,,,,,,,,,,,,,,,,"SYN08074486 32966 63413 10000 21083 30287 40298 53009 90551 333 10089 20000 555 92006=","FM-12","4",,,,,,,,,,,,,,,,,,,,,,,,,,,,"2009-05-01"
"74486094789","2020-02-20T01:51:00","FM-15","7",,"ESE","1.5","mi","TEMP, PRECIP, SNOW",,,"PSY, SRG, SNOWBOARD",,,"FAA CWO",,,,,,,,,,,,,,,,,,,,,,,,,,,"30.41","16","32","0.00",,,,"52","30.41","BKN:07 180 BKN:07 250","30.38","10.00","27","330","23","17",,,,,,,,,,,,,,,,,,,,,,,,,,,,,,,,,,,,,"MET11102/20/20 01:51:02 METAR KJFK 200651Z 33015G20KT 10SM BKN180 BKN250 00/M09 A3041 RMK AO2 SLP298 T00001089 $ (DM)","FM-15","7",,,,,,,,,,,,,,,,,,,,,,,,,,,,"2009-05-01"
"74486094789","2020-02-20T02:51:00","FM-15","7",,"ESE","1.5","mi","TEMP, PRECIP, SNOW",,,"PSY, SRG, SNOWBOARD",,,"FAA CWO",,,,,,,,,,,,,,,,,,,,,,,,,,,"30.42","14","31","0.00",,,,"49","30.42","BKN:07 180 OVC:08 250","30.40","10.00","26","330",,"21",,,,,,,,,,,,,,,,,,,,,,,,,,,,,,,,,,,,,"MET10902/20/20 02:51:02 METAR KJFK 200751Z 33018KT 10SM BKN180 OVC250 M01/M10 A3042 RMK AO2 SLP301 T10061100 $ (DM)","FM-15","7",,,,,,,,,,,,,,,,,,,,,,,,,,,,"2009-05-01"
"74486094789","2020-02-20T03:51:00","FM-15","7",,"ESE","1.5","mi","TEMP, PRECIP, SNOW",,,"PSY, SRG, SNOWBOARD",,,"FAA CWO",,,,,,,,,,,,,,,,,,,,,,,,,,,"30.44","14","30","0.00",,"-0.03","3","51","30.44","SCT:04 180 SCT:04 250","30.42","10.00","25","330",,"14",,,,,,,,,,,,,,,,,,,,,,,,,,,,,,,,,,,,,"MET11502/20/20 03:51:02 METAR KJFK 200851Z 33012KT 10SM SCT180 SCT250 M01/M10 A3044 RMK AO2 SLP308 T10111100 53010 $ (DM)","FM-15","7",,,,,,,,,,,,,,,,,,,,,,,,,,,,"2009-05-01"
"74486094789","2020-02-20T04:00:00","FM-12","4",,"ESE","1.5","mi","TEMP, PRECIP, SNOW",,,"PSY, SRG, SNOWBOARD",,,"FAA CWO",,,,,,,,,,,,,,,,,,,,,,,,,,,,"14","30",,,"-0.03","3","51","30.44",,"30.41","9.94","25","330",,"14",,,,,,,,,,,,,,,,,,,,,,,,,,,,,,,,,,,,,"SYN06474486 32966 43312 11011 21100 30297 40308 53010 90851 555 92009=","FM-12","4",,,,,,,,,,,,,,,,,,,,,,,,,,,,"2009-05-01"
"74486094789","2020-02-20T04:51:00","FM-15","7",,"ESE","1.5","mi","TEMP, PRECIP, SNOW",,,"PSY, SRG, SNOWBOARD",,,"FAA CWO",,,,,,,,,,,,,,,,,,,,,,,,,,,"30.46","14","29","0.00",,,,"54","30.45","BKN:07 160 BKN:07 250","30.43","10.00","24","320",,"14",,,,,,,,,,,,,,,,,,,,,,,,,,,,,,,,,,,,,"MET10902/20/20 04:51:02 METAR KJFK 200951Z 32012KT 10SM BKN160 BKN250 M02/M10 A3046 RMK AO2 SLP312 T10171100 $ (DM)","FM-15","7",,,,,,,,,,,,,,,,,,,,,,,,,,,,"2009-05-01"
"74486094789","2020-02-20T05:51:00","FM-15","7",,"ESE","1.5","mi","TEMP, PRECIP, SNOW",,,"PSY, SRG, SNOWBOARD",,,"FAA CWO",,,,,,,,,,,,,,,,,,,,,,,,,,,"30.46","12","29","0.00",,,,"49","30.46","SCT:04 160 BKN:07 250","30.43","10.00","24","330",,"13",,,,,,,,,,,,,,,,,,,,,,,,,,,,,,,,,,,,,"MET10902/20/20 05:51:02 METAR KJFK 201051Z 33011KT 10SM SCT160 BKN250 M02/M11 A3046 RMK AO2 SLP315 T10171111 $ (DM)","FM-15","7",,,,,,,,,,,,,,,,,,,,,,,,,,,,"2009-05-01"
"74486094789","2020-02-20T06:51:00","FM-15","7",,"ESE","1.5","mi","TEMP, PRECIP, SNOW",,,"PSY, SRG, SNOWBOARD",,,"FAA CWO",,,,,,,,,,,,,,,,,,,,,,,,,,,"30.47","12","29","0.00",,"-0.03","1","49","30.47","SCT:04 180 BKN:07 250","30.45","10.00","24","340",,"10",,,,,,,,,,,,,,,,,,,,,,,,,,,,,,,,,,,,,"MET12702/20/20 06:51:02 METAR KJFK 201151Z 34009KT 10SM SCT180 BKN250 M02/M11 A3047 RMK AO2 SLP317 T10171111 10000 21022 51009 $ (BH)","FM-15","7",,,,,,,,,,,,,,,,,,,,,,,,,,,,"2009-05-01"
"74486094789","2020-02-20T07:00:00","FM-12","4",,"ESE","1.5","mi","TEMP, PRECIP, SNOW",,,"PSY, SRG, SNOWBOARD",,,"FAA CWO",,,,,,,,,,,,,,,,,,,,,,,,,,,,"12","29",,,"-0.03","1","49","30.47",,"30.44","9.94","24","340",,"10",,,,,,,,,,,,,,,,,,,,,,,,,,,,,,,,,,,,,"SYN08074486 32966 63409 11017 21111 30307 40317 51009 91151 333 10106 21022 555 92012=","FM-12","4",,,,,,,,,,,,,,,,,,,,,,,,,,,,"2009-05-01"
"74486094789","2020-02-20T07:51:00","FM-15","7",,"ESE","1.5","mi","TEMP, PRECIP, SNOW",,,"PSY, SRG, SNOWBOARD",,,"FAA CWO",,,,,,,,,,,,,,,,,,,,,,,,,,,"30.48","13","31","0.00",,,,"47","30.48","FEW:02 180 BKN:07 250","30.45","10.00","26","330",,"10",,,,,,,,,,,,,,,,,,,,,,,,,,,,,,,,,,,,,"MET10902/20/20 07:51:02 METAR KJFK 201251Z 33009KT 10SM FEW180 BKN250 M01/M11 A3048 RMK AO2 SLP322 T10061106 $ (BH)","FM-15","7",,,,,,,,,,,,,,,,,,,,,,,,,,,,"2009-05-01"
"74486094789","2020-02-20T08:51:00","FM-15","7",,"ESE","1.5","mi","TEMP, PRECIP, SNOW",,,"PSY, SRG, SNOWBOARD",,,"FAA CWO",,,,,,,,,,,,,,,,,,,,,,,,,,,"30.49","13","32","0.00",,,,"45","30.49","FEW:02 180 BKN:07 250","30.47","10.00","26","330",,"13",,,,,,,,,,,,,,,,,,,,,,,,,,,,,,,,,,,,,"MET10802/20/20 08:51:02 METAR KJFK 201351Z 33011KT 10SM FEW180 BKN250 00/M11 A3049 RMK AO2 SLP325 T00001106 $ (BH)","FM-15","7",,,,,,,,,,,,,,,,,,,,,,,,,,,,"2009-05-01"
"74486094789","2020-02-20T09:51:00","FM-15","7",,"ESE","1.5","mi","TEMP, PRECIP, SNOW",,,"PSY, SRG, SNOWBOARD",,,"FAA CWO",,,,,,,,,,,,,,,,,,,,,,,,,,,"30.49","14","34","0.00",,"-0.02","0","44","30.49","FEW:02 50 FEW:02 180 BKN:07 250","30.47","10.00","28","300","18","13",,,,,,,,,,,,,,,,,,,,,,,,,,,,,,,,,,,,,"MET12402/20/20 09:51:02 METAR KJFK 201451Z 30011G16KT 10SM FEW050 FEW180 BKN250 01/M10 A3049 RMK AO2 SLP324 T00111100 50007 $ (BH)","FM-15","7",,,,,,,,,,,,,,,,,,,,,,,,,,,,"2009-05-01"
"74486094789","2020-02-20T10:00:00","FM-12","4",,"ESE","1.5","mi","TEMP, PRECIP, SNOW",,,"PSY, SRG, SNOWBOARD",,,"FAA CWO",,,,,,,,,,,,,,,,,,,,,,,,,,,,"14","34",,,"0.02","9","44","30.49","57","30.46","9.94","28","300",,"13",,,,,,,,,,,,,,,,,,,,,,,,,,,,,,,,,,,,,"SYN07474486 32766 63011 10011 21100 30314 40324 50007 91451 333 91016 555 92015=","FM-12","4",,,,,,,,,,,,,,,,,,,,,,,,,,,,"2009-05-01"
"74486094789","2020-02-20T10:51:00","FM-15","7",,"ESE","1.5","mi","TEMP, PRECIP, SNOW",,,"PSY, SRG, SNOWBOARD",,,"FAA CWO",,,,,,,,,,,,,,,,,,,,,,,,,,,"30.46","11","35","0.00",,,,"37","30.46","FEW:02 50 SCT:04 120 SCT:04 180","30.43","10.00","28","330","17","11",,,,,,,,,,,,,,,,,,,,,,,,,,,,,,,,,,,,,"MET11802/20/20 10:51:02 METAR KJFK 201551Z 33010G15KT 10SM FEW050 SCT120 SCT180 02/M12 A3046 RMK AO2 SLP314 T00171117 $ (BH)","FM-15","7",,,,,,,,,,,,,,,,,,,,,,,,,,,,"2009-05-01"
"74486094789","2020-02-20T11:51:00","FM-15","7",,"ESE","1.5","mi","TEMP, PRECIP, SNOW",,,"PSY, SRG, SNOWBOARD",,,"FAA CWO",,,,,,,,,,,,,,,,,,,,,,,,,,,"30.45","9","35","0.00",,,,"34","30.45","FEW:02 50 BKN:07 120 BKN:07 250","30.42","10.00","27","310",,"11",,,,,,,,,,,,,,,,,,,,,,,,,,,,,,,,,,,,,"MET11502/20/20 11:51:02 METAR KJFK 201651Z 31010KT 10SM FEW050 BKN120 BKN250 02/M13 A3045 RMK AO2 SLP311 T00171128 $ (BH)","FM-15","7",,,,,,,,,,,,,,,,,,,,,,,,,,,,"2009-05-01"
"74486094789","2020-02-20T12:51:00","FM-15","7",,"ESE","1.5","mi","TEMP, PRECIP, SNOW",,,"PSY, SRG, SNOWBOARD",,,"FAA CWO",,,,,,,,,,,,,,,,,,,,,,,,,,,"30.43","9","35","0.00",,"+0.06","6","34","30.42","FEW:02 50 BKN:07 130 OVC:08 250","30.40","10.00","27","290",,"8",,,,,,,,,,,,,,,,,,,,,,,,,,,,,,,,,,,,,"MET13302/20/20 12:51:02 METAR KJFK 201751Z 29007KT 10SM FEW050 BKN130 OVC250 02/M13 A3043 RMK AO2 SLP303 T00171128 10022 21022 56022 $ (BH)","FM-15","7",,,,,,,,,,,,,,,,,,,,,,,,,,,,"2009-05-01"
"74486094789","2020-02-20T13:00:00","FM-12","4",,"ESE","1.5","mi","TEMP, PRECIP, SNOW",,,"PSY, SRG, SNOWBOARD",,,"FAA CWO",,,,,,,,,,,,,,,,,,,,,,,,,,,,"9","35",,,"+0.06","6","34","30.42","57","30.40","9.94","27","290",,"8",,,,,,,,,,,,,,,,,,,,,,,,,,,,,,,,,,,,,"SYN08074486 32766 82907 10017 21128 30293 40303 56022 91751 333 10022 21022 555 92018=","FM-12","4",,,,,,,,,,,,,,,,,,,,,,,,,,,,"2009-05-01"
"74486094789","2020-02-20T13:51:00","FM-15","7",,"ESE","1.5","mi","TEMP, PRECIP, SNOW",,,"PSY, SRG, SNOWBOARD",,,"FAA CWO",,,,,,,,,,,,,,,,,,,,,,,,,,,"30.41","9","36","0.00",,,,"32","30.40","FEW:02 60 BKN:07 140 OVC:08 250","30.38","10.00","28","280","16","8",,,,,,,,,,,,,,,,,,,,,,,,,,,,,,,,,,,,,"MET11802/20/20 13:51:02 METAR KJFK 201851Z 28007G14KT 10SM FEW060 BKN140 OVC250 02/M13 A3041 RMK AO2 SLP296 T00221128 $ (BH)","FM-15","7",,,,,,,,,,,,,,,,,,,,,,,,,,,,"2009-05-01"
"74486094789","2020-02-20T14:51:00","FM-15","7",,"ESE","1.5","mi","TEMP, PRECIP, SNOW",,,"PSY, SRG, SNOWBOARD",,,"FAA CWO",,,,,,,,,,,,,,,,,,,,,,,,,,,"30.39","10","36","0.00",,,,"34","30.39","FEW:02 60 BKN:07 150 OVC:08 250","30.37","10.00","28","280","23","13",,,,,,,,,,,,,,,,,,,,,,,,,,,,,,,,,,,,,"MET11802/20/20 14:51:02 METAR KJFK 201951Z 28011G20KT 10SM FEW060 BKN150 OVC250 02/M12 A3039 RMK AO2 SLP291 T00221122 $ (RR)","FM-15","7",,,,,,,,,,,,,,,,,,,,,,,,,,,,"2009-05-01"
"74486094789","2020-02-20T15:51:00","FM-15","7",,"ESE","1.5","mi","TEMP, PRECIP, SNOW",,,"PSY, SRG, SNOWBOARD",,,"FAA CWO",,,,,,,,,,,,,,,,,,,,,,,,,,,"30.39","11","36","0.00",,"+0.04","6","35","30.39","FEW:02 60 BKN:07 150 BKN:07 250","30.37","10.00","28","310",,"14",,,,,,,,,,,,,,,,,,,,,,,,,,,,,,,,,,,,,"MET12102/20/20 15:51:02 METAR KJFK 202051Z 31012KT 10SM FEW060 BKN150 BKN250 02/M12 A3039 RMK AO2 SLP290 T00221117 56012 $ (RR)","FM-15","7",,,,,,,,,,,,,,,,,,,,,,,,,,,,"2009-05-01"
"74486094789","2020-02-20T16:00:00","FM-12","4",,"ESE","1.5","mi","TEMP, PRECIP, SNOW",,,"PSY, SRG, SNOWBOARD",,,"FAA CWO",,,,,,,,,,,,,,,,,,,,,,,,,,,,"11","36",,,"+0.04","6","35","30.39","57","30.36","9.94","28","310",,"14",,,,,,,,,,,,,,,,,,,,,,,,,,,,,,,,,,,,,"SYN06474486 32766 63112 10022 21117 30280 40290 56012 92051 555 92021=","FM-12","4",,,,,,,,,,,,,,,,,,,,,,,,,,,,"2009-05-01"
"74486094789","2020-02-20T16:51:00","FM-15","7",,"ESE","1.5","mi","TEMP, PRECIP, SNOW",,,"PSY, SRG, SNOWBOARD",,,"FAA CWO",,,,,,,,,,,,,,,,,,,,,,,,,,,"30.39","11","35","0.00",,,,"37","30.38","FEW:02 50 BKN:07 150 BKN:07 250","30.37","10.00","28","310",,"11",,,,,,,,,,,,,,,,,,,,,,,,,,,,,,,,,,,,,"MET11502/20/20 16:51:02 METAR KJFK 202151Z 31010KT 10SM FEW050 BKN150 BKN250 02/M12 A3039 RMK AO2 SLP289 T00171117 $ (RR)","FM-15","7",,,,,,,,,,,,,,,,,,,,,,,,,,,,"2009-05-01"
"74486094789","2020-02-20T17:51:00","FM-15","7",,"ESE","1.5","mi","TEMP, PRECIP, SNOW",,,"PSY, SRG, SNOWBOARD",,,"FAA CWO",,,,,,,,,,,,,,,,,,,,,,,,,,,"30.39","12","33","0.00",,,,"42","30.39","FEW:02 60 SCT:04 150 BKN:07 250","30.37","10.00","27","290",,"14",,,,,,,,,,,,,,,,,,,,,,,,,,,,,,,,,,,,,"MET11502/20/20 17:51:02 METAR KJFK 202251Z 29012KT 10SM FEW060 SCT150 BKN250 01/M11 A3039 RMK AO2 SLP291 T00061111 $ (RR)","FM-15","7",,,,,,,,,,,,,,,,,,,,,,,,,,,,"2009-05-01"
"74486094789","2020-02-20T18:51:00","FM-15","7",,"ESE","1.5","mi","TEMP, PRECIP, SNOW",,,"PSY, SRG, SNOWBOARD",,,"FAA CWO",,,,,,,,,,,,,,,,,,,,,,,,,,,"30.42","11","34","0.00",,"-0.03","3","38","30.42","BKN:07 60 BKN:07 150 BKN:07 230","30.40","10.00","27","320",,"16",,,,,,,,,,,,,,,,,,,,,,,,,,,,,,,,,,,,,"MET13302/20/20 18:51:02 METAR KJFK 202351Z 32014KT 10SM BKN060 BKN150 BKN230 01/M12 A3042 RMK AO2 SLP300 T00111117 10028 20006 53010 $ (RR)","FM-15","7",,,,,,,,,,,,,,,,,,,,,,,,,,,,"2009-05-01"
"74486094789","2020-02-20T19:00:00","FM-12","4",,"ESE","1.5","mi","TEMP, PRECIP, SNOW",,,"PSY, SRG, SNOWBOARD",,,"FAA CWO",,,,,,,,,,,,,,,,,,,,,,,,,,,,"11","34",,,"-0.03","3","38","30.42","57","30.39","9.94","27","320",,"16",,,,,,,,,,,,,,,,,,,,,,,,,,,,,,,,,,,,,"SYN08074486 32766 63214 10011 21117 30290 40300 53010 92351 333 10028 21021 555 92100=","FM-12","4",,,,,,,,,,,,,,,,,,,,,,,,,,,,"2009-05-01"
"74486094789","2020-02-20T19:51:00","FM-15","7",,"ESE","1.5","mi","TEMP, PRECIP, SNOW",,,"PSY, SRG, SNOWBOARD",,,"FAA CWO",,,,,,,,,,,,,,,,,,,,,,,,,,,"30.42","11","32","0.00",,,,"41","30.42","SCT:04 65 BKN:07 210","30.40","10.00","26","310",,"14",,,,,,,,,,,,,,,,,,,,,,,,,,,,,,,,,,,,,"MET10302/20/20 19:51:01 METAR KJFK 210051Z 31012KT 10SM SCT065 BKN210 00/M12 A3042 RMK AO2 SLP300 T00001117 $","FM-15","7",,,,,,,,,,,,,,,,,,,,,,,,,,,,"2009-05-01"
"74486094789","2020-02-20T20:51:00","FM-15","7",,"ESE","1.5","mi","TEMP, PRECIP, SNOW",,,"PSY, SRG, SNOWBOARD",,,"FAA CWO",,,,,,,,,,,,,,,,,,,,,,,,,,,"30.43","9","32","0.00",,,,"38","30.42","FEW:02 60 BKN:07 230","30.40","10.00","25","330",,"17",,,,,,,,,,,,,,,,,,,,,,,,,,,,,,,,,,,,,"MET10302/20/20 20:51:01 METAR KJFK 210151Z 33015KT 10SM FEW060 BKN230 00/M13 A3043 RMK AO2 SLP302 T00001128 $","FM-15","7",,,,,,,,,,,,,,,,,,,,,,,,,,,,"2009-05-01"
"74486094789","2020-02-20T21:51:00","FM-15","7",,"ESE","1.5","mi","TEMP, PRECIP, SNOW",,,"PSY, SRG, SNOWBOARD",,,"FAA CWO",,,,,,,,,,,,,,,,,,,,,,,,,,,"30.45","10","30","0.00",,"-0.03","3","43","30.45","BKN:07 210","30.42","10.00","24","360",,"17",,,,,,,,,,,,,,,,,,,,,,,,,,,,,,,,,,,,,"MET12102/20/20 21:51:01 METAR KJFK 210251Z 36015KT 10SM BKN210 M01/M12 A3045 RMK AO2 PK WND 34026/0227 SLP310 T10111122 53009 $","FM-15","7",,,,,,,,,,,,,,,,,,,,,,,,,,,,"2009-05-01"
"74486094789","2020-02-20T22:00:00","FM-12","4",,"ESE","1.5","mi","TEMP, PRECIP, SNOW",,,"PSY, SRG, SNOWBOARD",,,"FAA CWO",,,,,,,,,,,,,,,,,,,,,,,,,,,,"10","30",,,"-0.03","3","43","30.45",,"30.42","9.94","24","360",,"17",,,,,,,,,,,,,,,,,,,,,,,,,,,,,,,,,,,,,"SYN06474486 32966 63615 11011 21122 30300 40310 53009 90251 555 92103=","FM-12","4",,,,,,,,,,,,,,,,,,,,,,,,,,,,"2009-05-01"
"74486094789","2020-02-20T22:51:00","FM-15","7",,"ESE","1.5","mi","TEMP, PRECIP, SNOW",,,"PSY, SRG, SNOWBOARD",,,"FAA CWO",,,,,,,,,,,,,,,,,,,,,,,,,,,"30.46","7","28","0.00",,,,"41","30.45","BKN:07 220","30.43","10.00","22","350",,"18",,,,,,,,,,,,,,,,,,,,,,,,,,,,,,,,,,,,,"MET09702/20/20 22:51:01 METAR KJFK 210351Z 35016KT 10SM BKN220 M02/M14 A3046 RMK AO2 SLP312 T10221139 $","FM-15","7",,,,,,,,,,,,,,,,,,,,,,,,,,,,"2009-05-01"
"74486094789","2020-02-20T23:51:00","FM-15","7",,"ESE","1.5","mi","TEMP, PRECIP, SNOW",,,"PSY, SRG, SNOWBOARD",,,"FAA CWO",,,,,,,,,,,,,,,,,,,,,,,,,,,"30.45","8","27","0.00",,,,"45","30.45","SCT:04 220","30.42","10.00","22","340",,"18",,,,,,,,,,,,,,,,,,,,,,,,,,,,,,,,,,,,,"MET10702/20/20 23:51:02 METAR KJFK 210451Z 34016KT 10SM SCT220 M03/M13 A3045 RMK AO2 SLP310 T10281133 400281028 $","FM-15","7",,,,,,,,,,,,,,,,,,,,,,,,,,,,"2009-05-01"
"74486094789","2020-02-20T23:59:00","SOD  ","6",,"ESE","1.5","mi","TEMP, PRECIP, SNOW",,,"PSY, SRG, SNOWBOARD",,,"FAA CWO",,,,"12","32","42","30.43","30.40","26","13.8","0","-3.8","33","37","26","340","30","0.00","0","0.0","340","24",,,,,,,,,,,,,,,,,,,,,,,,,,,,,,,,,,,,,,,,,,,,,,,,,,,,,,,,,"SOD73924 HR PRECIPITATION (IN): 0.00 SNOW DEPTH (IN):0     24 HR SNOWFALL (IN):0.0  24 HR MAX TEMP (F): 3724 HR MIN TEMP (F): 26AVERAGE STATION PRESSURE:30.405 MINIMUM SEA LEVEL PRESSURE:30.38 TIME OF OCCURRENCE:1746 PEAK WIND SPEED (MPH): 30 PEAK WIND DIR (DEG):340 PEAK WIND TIME (LST):      FASTEST 2MIN SPEED (MPH): 24FASTEST 2MIN DIR (DEG):340 FASTEST 2MIN TIME (LST):     AVERAGE WIND SPEED (MPH):13.8 24 HR AVG TEMP (F): 32DEPART FROM NORMAL: -4  HEATING DEGREE DAYS: 33 COOLING DEGREE DAYS:  0 LATEST DAY MAX TEMP (0700-1900 LST):37  LATEST NIGHT MIN TEMP(1900-0800 LST):28 HOURLY INCREMENTAL PRECIPITATION VALUES (IN):.00 0.00 0.00 0.00 0.00 0.00 0.00 0.00 0.00 0.00 0.00 0.00 0.00 0.00 0.00 0.00 0.00 0.00 0.00 0.00 0.00 0.00 0.00 0.00","SOD  ","6",,,,,,,,,,,,,,,,,,,,,,,,,"0643","1736",,"2009-05-01"
"74486094789","2020-02-21T00:51:00","FM-15","7",,"ESE","1.5","mi","TEMP, PRECIP, SNOW",,,"PSY, SRG, SNOWBOARD",,,"FAA CWO",,,,,,,,,,,,,,,,,,,,,,,,,,,"30.45","6","25","0.00",,"-0.00","1","44","30.45","FEW:02 220","30.42","10.00","20","340","24","15",,,,,,,,,,,,,,,,,,,,,,,,,,,,,,,,,,,,,"MET12302/21/20 00:51:02 METAR KJFK 210551Z 34013G21KT 10SM FEW220 M04/M14 A3045 RMK AO2 SLP311 T10391144 10011 21039 51001 $ (DM)","FM-15","7",,,,,,,,,,,,,,,,,,,,,,,,,,,,"2009-05-01"
"74486094789","2020-02-21T01:00:00","FM-12","4",,"ESE","1.5","mi","TEMP, PRECIP, SNOW",,,"PSY, SRG, SNOWBOARD",,,"FAA CWO",,,,,,,,,,,,,,,,,,,,,,,,,,,,"6","25",,,"-0.00","1","44","30.45",,"30.42","9.94","20","340",,"15",,,,,,,,,,,,,,,,,,,,,,,,,,,,,,,,,,,,,"SYN08674486 32966 23413 11039 21144 30300 40311 51001 90551 333 10011 21039 91021 555 92106=","FM-12","4",,,,,,,,,,,,,,,,,,,,,,,,,,,,"2009-05-01"
"74486094789","2020-02-21T01:51:00","FM-15","7",,"ESE","1.5","mi","TEMP, PRECIP, SNOW",,,"PSY, SRG, SNOWBOARD",,,"FAA CWO",,,,,,,,,,,,,,,,,,,,,,,,,,,"30.47","5","24","0.00",,,,"44","30.46","FEW:02 45","30.45","10.00","19","350",,"18",,,,,,,,,,,,,,,,,,,,,,,,,,,,,,,,,,,,,"MET10202/21/20 01:51:02 METAR KJFK 210651Z 35016KT 10SM FEW045 M04/M15 A3047 RMK AO2 SLP316 T10441150 $ (DM)","FM-15","7",,,,,,,,,,,,,,,,,,,,,,,,,,,,"2009-05-01"
"74486094789","2020-02-21T02:51:00","FM-15","7",,"ESE","1.5","mi","TEMP, PRECIP, SNOW",,,"PSY, SRG, SNOWBOARD",,,"FAA CWO",,,,,,,,,,,,,,,,,,,,,,,,,,,"30.45","5","23","0.00",,,,"46","30.45","FEW:02 45","30.42","10.00","18","340",,"21",,,,,,,,,,,,,,,,,,,,,,,,,,,,,,,,,,,,,"MET10202/21/20 02:51:02 METAR KJFK 210751Z 34018KT 10SM FEW045 M05/M15 A3045 RMK AO2 SLP312 T10501150 $ (DM)","FM-15","7",,,,,,,,,,,,,,,,,,,,,,,,,,,,"2009-05-01"
"74486094789","2020-02-21T03:51:00","FM-15","7",,"ESE","1.5","mi","TEMP, PRECIP, SNOW",,,"PSY, SRG, SNOWBOARD",,,"FAA CWO",,,,,,,,,,,,,,,,,,,,,,,,,,,"30.45","6","22","0.00",,"+0.00","8","50","30.45","FEW:02 45 FEW:02 250","30.42","10.00","18","010",,"17",,,,,,,,,,,,,,,,,,,,,,,,,,,,,,,,,,,,,"MET11502/21/20 03:51:02 METAR KJFK 210851Z 01015KT 10SM FEW045 FEW250 M06/M14 A3045 RMK AO2 SLP310 T10561144 58001 $ (DM)","FM-15","7",,,,,,,,,,,,,,,,,,,,,,,,,,,,"2009-05-01"
"74486094789","2020-02-21T04:00:00","FM-12","4",,"ESE","1.5","mi","TEMP, PRECIP, SNOW",,,"PSY, SRG, SNOWBOARD",,,"FAA CWO",,,,,,,,,,,,,,,,,,,,,,,,,,,,"6","22",,,"+0.00","8","50","30.45","41","30.42","9.94","18","010",,"17",,,,,,,,,,,,,,,,,,,,,,,,,,,,,,,,,,,,,"SYN06474486 32666 20115 11056 21144 30300 40310 58001 90851 555 92109=","FM-12","4",,,,,,,,,,,,,,,,,,,,,,,,,,,,"2009-05-01"
"74486094789","2020-02-21T04:51:00","FM-15","7",,"ESE","1.5","mi","TEMP, PRECIP, SNOW",,,"PSY, SRG, SNOWBOARD",,,"FAA CWO",,,,,,,,,,,,,,,,,,,,,,,,,,,"30.45","7","21","0.00",,,,"54","30.45","FEW:02 45 FEW:02 250","30.42","10.00","17","010",,"20",,,,,,,,,,,,,,,,,,,,,,,,,,,,,,,,,,,,,"MET10902/21/20 04:51:02 METAR KJFK 210951Z 01017KT 10SM FEW045 FEW250 M06/M14 A3045 RMK AO2 SLP312 T10611139 $ (DM)","FM-15","7",,,,,,,,,,,,,,,,,,,,,,,,,,,,"2009-05-01"
"74486094789","2020-02-21T05:51:00","FM-15","7",,"ESE","1.5","mi","TEMP, PRECIP, SNOW",,,"PSY, SRG, SNOWBOARD",,,"FAA CWO",,,,,,,,,,,,,,,,,,,,,,,,,,,"30.47","7","21","0.00",,,,"54","30.46","FEW:02 45 FEW:02 250","30.45","10.00","17","360",,"18",,,,,,,,,,,,,,,,,,,,,,,,,,,,,,,,,,,,,"MET10902/21/20 05:51:02 METAR KJFK 211051Z 36016KT 10SM FEW045 FEW250 M06/M14 A3047 RMK AO2 SLP316 T10611139 $ (DM)","FM-15","7",,,,,,,,,,,,,,,,,,,,,,,,,,,,"2009-05-01"
"74486094789","2020-02-21T06:51:00","FM-15","7",,"ESE","1.5","mi","TEMP, PRECIP, SNOW",,,"PSY, SRG, SNOWBOARD",,,"FAA CWO",,,,,,,,,,,,,,,,,,,,,,,,,,,"30.48","7","21","0.00",,"-0.03","3","54","30.47","FEW:02 45","30.45","10.00","17","360",,"15",,,,,,,,,,,,,,,,,,,,,,,,,,,,,,,,,,,,,"MET12002/21/20 06:51:02 METAR KJFK 211151Z 36013KT 10SM FEW045 M06/M14 A3048 RMK AO2 SLP320 T10611139 11039 21067 53010 $ (BH)","FM-15","7",,,,,,,,,,,,,,,,,,,,,,,,,,,,"2009-05-01"
"74486094789","2020-02-21T07:00:00","FM-12","4",,"ESE","1.5","mi","TEMP, PRECIP, SNOW",,,"PSY, SRG, SNOWBOARD",,,"FAA CWO",,,,,,,,,,,,,,,,,,,,,,,,,,,,"7","21",,,"-0.03","3","54","30.47","41","30.45","9.94","17","360",,"15",,,,,,,,,,,,,,,,,,,,,,,,,,,,,,,,,,,,,"SYN08074486 32666 23613 11061 21139 30310 40320 53010 91151 333 10028 21067 555 92112=","FM-12","4",,,,,,,,,,,,,,,,,,,,,,,,,,,,"2009-05-01"
"74486094789","2020-02-21T07:51:00","FM-15","7",,"ESE","1.5","mi","TEMP, PRECIP, SNOW",,,"PSY, SRG, SNOWBOARD",,,"FAA CWO",,,,,,,,,,,,,,,,,,,,,,,,,,,"30.50","8","22","0.00",,,,"55","30.50","FEW:02 45","30.47","10.00","18","340",,"14",,,,,,,,,,,,,,,,,,,,,,,,,,,,,,,,,,,,,"MET10202/21/20 07:51:02 METAR KJFK 211251Z 34012KT 10SM FEW045 M06/M13 A3050 RMK AO2 SLP328 T10561133 $ (BH)","FM-15","7",,,,,,,,,,,,,,,,,,,,,,,,,,,,"2009-05-01"
"74486094789","2020-02-21T08:51:00","FM-15","7",,"ESE","1.5","mi","TEMP, PRECIP, SNOW",,,"PSY, SRG, SNOWBOARD",,,"FAA CWO",,,,,,,,,,,,,,,,,,,,,,,,,,,"30.51","8","24","0.00",,,,"50","30.51","FEW:02 45","30.48","10.00","20","360",,"17",,,,,,,,,,,,,,,,,,,,,,,,,,,,,,,,,,,,,"MET10202/21/20 08:51:02 METAR KJFK 211351Z 36015KT 10SM FEW045 M04/M13 A3051 RMK AO2 SLP332 T10441133 $ (BH)","FM-15","7",,,,,,,,,,,,,,,,,,,,,,,,,,,,"2009-05-01"
"74486094789","2020-02-21T09:51:00","FM-15","7",,"ESE","1.5","mi","TEMP, PRECIP, SNOW",,,"PSY, SRG, SNOWBOARD",,,"FAA CWO",,,,,,,,,,,,,,,,,,,,,,,,,,,"30.52","7","26","0.00",,"-0.04","1","44","30.52","FEW:02 50","30.50","10.00","21","340",,"16",,,,,,,,,,,,,,,,,,,,,,,,,,,,,,,,,,,,,"MET10802/21/20 09:51:02 METAR KJFK 211451Z 34014KT 10SM FEW050 M03/M14 A3052 RMK AO2 SLP335 T10331139 51015 $ (BH)","FM-15","7",,,,,,,,,,,,,,,,,,,,,,,,,,,,"2009-05-01"
"74486094789","2020-02-21T10:00:00","FM-12","4",,"ESE","1.5","mi","TEMP, PRECIP, SNOW",,,"PSY, SRG, SNOWBOARD",,,"FAA CWO",,,,,,,,,,,,,,,,,,,,,,,,,,,,"7","26",,,"-0.04","1","44","30.52","57","30.49","9.94","21","340",,"16",,,,,,,,,,,,,,,,,,,,,,,,,,,,,,,,,,,,,"SYN06474486 32766 23414 11033 21139 30324 40335 51015 91451 555 92115=","FM-12","4",,,,,,,,,,,,,,,,,,,,,,,,,,,,"2009-05-01"
"74486094789","2020-02-21T10:51:00","FM-15","7",,"ESE","1.5","mi","TEMP, PRECIP, SNOW",,,"PSY, SRG, SNOWBOARD",,,"FAA CWO",,,,,,,,,,,,,,,,,,,,,,,,,,,"30.52","5","29","0.00",,,,"36","30.52","FEW:02 50","30.50","10.00","23","360",,"13",,,,,,,,,,,,,,,,,,,,,,,,,,,,,,,,,,,,,"MET10202/21/20 10:51:02 METAR KJFK 211551Z 36011KT 10SM FEW050 M02/M15 A3052 RMK AO2 SLP334 T10171150 $ (BH)","FM-15","7",,,,,,,,,,,,,,,,,,,,,,,,,,,,"2009-05-01"
"74486094789","2020-02-21T11:51:00","FM-15","7",,"ESE","1.5","mi","TEMP, PRECIP, SNOW",,,"PSY, SRG, SNOWBOARD",,,"FAA CWO",,,,,,,,,,,,,,,,,,,,,,,,,,,"30.51","5","29","0.00",,,,"36","30.51","FEW:02 55","30.48","10.00","23","320",,"7",,,,,,,,,,,,,,,,,,,,,,,,,,,,,,,,,,,,,"MET10202/21/20 11:51:02 METAR KJFK 211651Z 32006KT 10SM FEW055 M02/M15 A3051 RMK AO2 SLP331 T10171150 $ (BH)","FM-15","7",,,,,,,,,,,,,,,,,,,,,,,,,,,,"2009-05-01"
"74486094789","2020-02-21T12:51:00","FM-15","7",,"ESE","1.5","mi","TEMP, PRECIP, SNOW",,,"PSY, SRG, SNOWBOARD",,,"FAA CWO",,,,,,,,,,,,,,,,,,,,,,,,,,,"30.49","3","32","0.00",,"+0.04","8","29","30.48","CLR:00","30.47","10.00","24","340",,"6",,,,,,,,,,,,,,,,,,,,,,,,,,,,,,,,,,,,,"MET11602/21/20 12:51:02 METAR KJFK 211751Z 34005KT 10SM CLR 00/M16 A3049 RMK AO2 SLP322 T00001161 10000 21061 58013 $ (BH)","FM-15","7",,,,,,,,,,,,,,,,,,,,,,,,,,,,"2009-05-01"
"74486094789","2020-02-21T13:00:00","FM-12","4",,"ESE","1.5","mi","TEMP, PRECIP, SNOW",,,"PSY, SRG, SNOWBOARD",,,"FAA CWO",,,,,,,,,,,,,,,,,,,,,,,,,,,,"3","32",,,"+0.04","8","29","30.48",,"30.46","9.94","24","340",,"6",,,,,,,,,,,,,,,,,,,,,,,,,,,,,,,,,,,,,"SYN08074486 32966 03405 10000 21161 30314 40322 58013 91751 333 10000 21061 555 92118=","FM-12","4",,,,,,,,,,,,,,,,,,,,,,,,,,,,"2009-05-01"
"74486094789","2020-02-21T13:51:00","FM-15","7",,"ESE","1.5","mi","TEMP, PRECIP, SNOW",,,"PSY, SRG, SNOWBOARD",,,"FAA CWO",,,,,,,,,,,,,,,,,,,,,,,,,,,"30.46","1","33","0.00",,,,"25","30.46","CLR:00","30.43","10.00","25","340",,"3",,,,,,,,,,,,,,,,,,,,,,,,,,,,,,,,,,,,,"MET09802/21/20 13:51:02 METAR KJFK 211851Z 34003KT 10SM CLR 01/M17 A3046 RMK AO2 SLP315 T00061172 $ (BH)","FM-15","7",,,,,,,,,,,,,,,,,,,,,,,,,,,,"2009-05-01"
"74486094789","2020-02-21T14:51:00","FM-15","7",,"ESE","1.5","mi","TEMP, PRECIP, SNOW",,,"PSY, SRG, SNOWBOARD",,,"FAA CWO",,,,,,,,,,,,,,,,,,,,,,,,,,,"30.44","1","34","0.00",,,,"24","30.44","CLR:00","30.42","10.00","25","270",,"5",,,,,,,,,,,,,,,,,,,,,,,,,,,,,,,,,,,,,"MET09802/21/20 14:51:02 METAR KJFK 211951Z 27004KT 10SM CLR 01/M17 A3044 RMK AO2 SLP308 T00111172 $ (RR)","FM-15","7",,,,,,,,,,,,,,,,,,,,,,,,,,,,"2009-05-01"
"74486094789","2020-02-21T15:51:00","FM-15","7",,"ESE","1.5","mi","TEMP, PRECIP, SNOW",,,"PSY, SRG, SNOWBOARD",,,"FAA CWO",,,,,,,,,,,,,,,,,,,,,,,,,,,"30.43","3","34","0.00",,"+0.06","6","27","30.43","CLR:00","30.40","10.00","26","230",,"9",,,,,,,,,,,,,,,,,,,,,,,,,,,,,,,,,,,,,"MET10402/21/20 15:51:02 METAR KJFK 212051Z 23008KT 10SM CLR 01/M16 A3043 RMK AO2 SLP304 T00111161 56019 $ (RR)","FM-15","7",,,,,,,,,,,,,,,,,,,,,,,,,,,,"2009-05-01"
"74486094789","2020-02-21T16:00:00","FM-12","4",,"ESE","1.5","mi","TEMP, PRECIP, SNOW",,,"PSY, SRG, SNOWBOARD",,,"FAA CWO",,,,,,,,,,,,,,,,,,,,,,,,,,,,"3","34",,,"+0.06","6","27","30.43",,"30.40","9.94","26","230",,"9",,,,,,,,,,,,,,,,,,,,,,,,,,,,,,,,,,,,,"SYN06474486 32966 02308 10011 21161 30293 40304 56019 92051 555 92121=","FM-12","4",,,,,,,,,,,,,,,,,,,,,,,,,,,,"2009-05-01"
"74486094789","2020-02-21T16:51:00","FM-15","7",,"ESE","1.5","mi","TEMP, PRECIP, SNOW",,,"PSY, SRG, SNOWBOARD",,,"FAA CWO",,,,,,,,,,,,,,,,,,,,,,,,,,,"30.42","0","34","0.00",,,,"23","30.42","CLR:00","30.40","10.00","25","290",,"6",,,,,,,,,,,,,,,,,,,,,,,,,,,,,,,,,,,,,"MET09802/21/20 16:51:02 METAR KJFK 212151Z 29005KT 10SM CLR 01/M18 A3042 RMK AO2 SLP302 T00111178 $ (RR)","FM-15","7",,,,,,,,,,,,,,,,,,,,,,,,,,,,"2009-05-01"
"74486094789","2020-02-21T17:51:00","FM-15","7",,"ESE","1.5","mi","TEMP, PRECIP, SNOW",,,"PSY, SRG, SNOWBOARD",,,"FAA CWO",,,,,,,,,,,,,,,,,,,,,,,,,,,"30.42","7","31","0.00",,,,"36","30.42","CLR:00","30.40","10.00","24","230",,"9",,,,,,,,,,,,,,,,,,,,,,,,,,,,,,,,,,,,,"MET09902/21/20 17:51:02 METAR KJFK 212251Z 23008KT 10SM CLR M01/M14 A3042 RMK AO2 SLP300 T10061139 $ (RR)","FM-15","7",,,,,,,,,,,,,,,,,,,,,,,,,,,,"2009-05-01"
"74486094789","2020-02-21T18:51:00","FM-15","7",,"ESE","1.5","mi","TEMP, PRECIP, SNOW",,,"PSY, SRG, SNOWBOARD",,,"FAA CWO",,,,,,,,,,,,,,,,,,,,,,,,,,,"30.42","9","33","0.00",,"+0.01","5","36","30.42","CLR:00","30.40","10.00","26","240",,"9",,,,,,,,,,,,,,,,,,,,,,,,,,,,,,,,,,,,,"MET11602/21/20 18:51:02 METAR KJFK 212351Z 24008KT 10SM CLR 01/M13 A3042 RMK AO2 SLP301 T00061128 10022 21011 55003 $ (RR)","FM-15","7",,,,,,,,,,,,,,,,,,,,,,,,,,,,"2009-05-01"
"74486094789","2020-02-21T19:00:00","FM-12","4",,"ESE","1.5","mi","TEMP, PRECIP, SNOW",,,"PSY, SRG, SNOWBOARD",,,"FAA CWO",,,,,,,,,,,,,,,,,,,,,,,,,,,,"9","33",,,"+0.01","5","36","30.42",,"30.39","9.94","26","240",,"9",,,,,,,,,,,,,,,,,,,,,,,,,,,,,,,,,,,,,"SYN08074486 32966 02408 10006 21128 30290 40301 55003 92351 333 10022 21067 555 92200=","FM-12","4",,,,,,,,,,,,,,,,,,,,,,,,,,,,"2009-05-01"
"74486094789","2020-02-21T19:51:00","FM-15","7",,"ESE","1.5","mi","TEMP, PRECIP, SNOW",,,"PSY, SRG, SNOWBOARD",,,"FAA CWO",,,,,,,,,,,,,,,,,,,,,,,,,,,"30.42","8","33","0.00",,,,"35","30.41","CLR:00","30.40","10.00","26","250",,"15",,,,,,,,,,,,,,,,,,,,,,,,,,,,,,,,,,,,,"MET09302/21/20 19:51:01 METAR KJFK 220051Z 25013KT 10SM CLR 01/M13 A3042 RMK AO2 SLP299 T00061133 $","FM-15","7",,,,,,,,,,,,,,,,,,,,,,,,,,,,"2009-05-01"
"74486094789","2020-02-21T20:51:00","FM-15","7",,"ESE","1.5","mi","TEMP, PRECIP, SNOW",,,"PSY, SRG, SNOWBOARD",,,"FAA CWO",,,,,,,,,,,,,,,,,,,,,,,,,,,"30.41","10","33","0.00",,,,"38","30.41","CLR:00","30.38","10.00","26","250",,"13",,,,,,,,,,,,,,,,,,,,,,,,,,,,,,,,,,,,,"MET09302/21/20 20:51:01 METAR KJFK 220151Z 25011KT 10SM CLR 01/M12 A3041 RMK AO2 SLP298 T00061122 $","FM-15","7",,,,,,,,,,,,,,,,,,,,,,,,,,,,"2009-05-01"
"74486094789","2020-02-21T21:51:00","FM-15","7",,"ESE","1.5","mi","TEMP, PRECIP, SNOW",,,"PSY, SRG, SNOWBOARD",,,"FAA CWO",,,,,,,,,,,,,,,,,,,,,,,,,,,"30.39","10","33","0.00",,"+0.03","8","38","30.39","CLR:00","30.37","10.00","26","250",,"15",,,,,,,,,,,,,,,,,,,,,,,,,,,,,,,,,,,,,"MET09902/21/20 21:51:01 METAR KJFK 220251Z 25013KT 10SM CLR 01/M12 A3039 RMK AO2 SLP291 T00061122 58009 $","FM-15","7",,,,,,,,,,,,,,,,,,,,,,,,,,,,"2009-05-01"
"74486094789","2020-02-21T22:00:00","FM-12","4",,"ESE","1.5","mi","TEMP, PRECIP, SNOW",,,"PSY, SRG, SNOWBOARD",,,"FAA CWO",,,,,,,,,,,,,,,,,,,,,,,,,,,,"10","33",,,"+0.03","8","38","30.39",,"30.36","9.94","26","250",,"15",,,,,,,,,,,,,,,,,,,,,,,,,,,,,,,,,,,,,"SYN06474486 32966 02513 10006 21122 30280 40291 58009 90251 555 92203=","FM-12","4",,,,,,,,,,,,,,,,,,,,,,,,,,,,"2009-05-01"
"74486094789","2020-02-21T22:51:00","FM-15","7",,"ESE","1.5","mi","TEMP, PRECIP, SNOW",,,"PSY, SRG, SNOWBOARD",,,"FAA CWO",,,,,,,,,,,,,,,,,,,,,,,,,,,"30.38","11","32","0.00",,,,"41","30.38","CLR:00","30.35","10.00","26","250",,"17",,,,,,,,,,,,,,,,,,,,,,,,,,,,,,,,,,,,,"MET09302/21/20 22:51:01 METAR KJFK 220351Z 25015KT 10SM CLR 00/M12 A3038 RMK AO2 SLP287 T00001117 $","FM-15","7",,,,,,,,,,,,,,,,,,,,,,,,,,,,"2009-05-01"
"74486094789","2020-02-21T23:51:00","FM-15","7",,"ESE","1.5","mi","TEMP, PRECIP, SNOW",,,"PSY, SRG, SNOWBOARD",,,"FAA CWO",,,,,,,,,,,,,,,,,,,,,,,,,,,"30.36","10","32","0.00",,,,"40","30.36","CLR:00","30.34","10.00","25","250",,"11",,,,,,,,,,,,,,,,,,,,,,,,,,,,,,,,,,,,,"MET10302/21/20 23:51:02 METAR KJFK 220451Z 25010KT 10SM CLR 00/M12 A3036 RMK AO2 SLP280 T00001122 400221067 $","FM-15","7",,,,,,,,,,,,,,,,,,,,,,,,,,,,"2009-05-01"
"74486094789","2020-02-21T23:59:00","SOD  ","6",,"ESE","1.5","mi","TEMP, PRECIP, SNOW",,,"PSY, SRG, SNOWBOARD",,,"FAA CWO",,,,"6","28","40","30.45","30.43","22","13.0","0","-8.0","37","36","20","330","28","0.00","0","0.0","330","23",,,,,,,,,,,,,,,,,,,,,,,,,,,,,,,,,,,,,,,,,,,,,,,,,,,,,,,,,"SOD73924 HR PRECIPITATION (IN): 0.00 SNOW DEPTH (IN):0     24 HR SNOWFALL (IN):0.0  24 HR MAX TEMP (F): 3624 HR MIN TEMP (F): 20AVERAGE STATION PRESSURE:30.430 MINIMUM SEA LEVEL PRESSURE:30.35 TIME OF OCCURRENCE:2359 PEAK WIND SPEED (MPH): 28 PEAK WIND DIR (DEG):330 PEAK WIND TIME (LST):      FASTEST 2MIN SPEED (MPH): 23FASTEST 2MIN DIR (DEG):330 FASTEST 2MIN TIME (LST):     AVERAGE WIND SPEED (MPH):13.0 24 HR AVG TEMP (F): 28DEPART FROM NORMAL: -8  HEATING DEGREE DAYS: 37 COOLING DEGREE DAYS:  0 LATEST DAY MAX TEMP (0700-1900 LST):36  LATEST NIGHT MIN TEMP(1900-0800 LST):20 HOURLY INCREMENTAL PRECIPITATION VALUES (IN):.00 0.00 0.00 0.00 0.00 0.00 0.00 0.00 0.00 0.00 0.00 0.00 0.00 0.00 0.00 0.00 0.00 0.00 0.00 0.00 0.00 0.00 0.00 0.00","SOD  ","6",,,,,,,,,,,,,,,,,,,,,,,,,"0641","1737",,"2009-05-01"
"74486094789","2020-02-22T00:51:00","FM-15","7",,"ESE","1.5","mi","TEMP, PRECIP, SNOW",,,"PSY, SRG, SNOWBOARD",,,"FAA CWO",,,,,,,,,,,,,,,,,,,,,,,,,,,"30.34","12","32","0.00",,"+0.05","8","43","30.34","CLR:00","30.32","10.00","26","250",,"10",,,,,,,,,,,,,,,,,,,,,,,,,,,,,,,,,,,,,"MET11602/22/20 00:51:02 METAR KJFK 220551Z 25009KT 10SM CLR 00/M11 A3034 RMK AO2 SLP274 T00001111 10006 21006 58017 $ (DM)","FM-15","7",,,,,,,,,,,,,,,,,,,,,,,,,,,,"2009-05-01"
"74486094789","2020-02-22T01:00:00","FM-12","4",,"ESE","1.5","mi","TEMP, PRECIP, SNOW",,,"PSY, SRG, SNOWBOARD",,,"FAA CWO",,,,,,,,,,,,,,,,,,,,,,,,,,,,"12","32",,,"+0.05","8","43","30.34",,"30.31","9.94","26","250",,"10",,,,,,,,,,,,,,,,,,,,,,,,,,,,,,,,,,,,,"SYN08074486 32966 02509 10000 21111 30263 40274 58017 90551 333 10006 21067 555 92206=","FM-12","4",,,,,,,,,,,,,,,,,,,,,,,,,,,,"2009-05-01"
"74486094789","2020-02-22T01:51:00","FM-15","7",,"ESE","1.5","mi","TEMP, PRECIP, SNOW",,,"PSY, SRG, SNOWBOARD",,,"FAA CWO",,,,,,,,,,,,,,,,,,,,,,,,,,,"30.33","12","32","0.00",,,,"43","30.33","CLR:00","30.30","10.00","26","260",,"16",,,,,,,,,,,,,,,,,,,,,,,,,,,,,,,,,,,,,"MET09802/22/20 01:51:02 METAR KJFK 220651Z 26014KT 10SM CLR 00/M11 A3033 RMK AO2 SLP270 T00001111 $ (DM)","FM-15","7",,,,,,,,,,,,,,,,,,,,,,,,,,,,"2009-05-01"
"74486094789","2020-02-22T02:51:00","FM-15","7",,"ESE","1.5","mi","TEMP, PRECIP, SNOW",,,"PSY, SRG, SNOWBOARD",,,"FAA CWO",,,,,,,,,,,,,,,,,,,,,,,,,,,"30.31","14","30","0.00",,,,"51","30.31","CLR:00","30.29","10.00","25","250",,"13",,,,,,,,,,,,,,,,,,,,,,,,,,,,,,,,,,,,,"MET09902/22/20 02:51:02 METAR KJFK 220751Z 25011KT 10SM CLR M01/M10 A3031 RMK AO2 SLP263 T10111100 $ (DM)","FM-15","7",,,,,,,,,,,,,,,,,,,,,,,,,,,,"2009-05-01"
"74486094789","2020-02-22T03:51:00","FM-15","7",,"ESE","1.5","mi","TEMP, PRECIP, SNOW",,,"PSY, SRG, SNOWBOARD",,,"FAA CWO",,,,,,,,,,,,,,,,,,,,,,,,,,,"30.28","14","30","0.00",,"+0.06","8","51","30.28","CLR:00","30.25","10.00","25","250",,"14",,,,,,,,,,,,,,,,,,,,,,,,,,,,,,,,,,,,,"MET10502/22/20 03:51:02 METAR KJFK 220851Z 25012KT 10SM CLR M01/M10 A3028 RMK AO2 SLP254 T10111100 58020 $ (DM)","FM-15","7",,,,,,,,,,,,,,,,,,,,,,,,,,,,"2009-05-01"
"74486094789","2020-02-22T04:00:00","FM-12","4",,"ESE","1.5","mi","TEMP, PRECIP, SNOW",,,"PSY, SRG, SNOWBOARD",,,"FAA CWO",,,,,,,,,,,,,,,,,,,,,,,,,,,,"14","30",,,"+0.06","8","51","30.28",,"30.25","9.94","25","250",,"14",,,,,,,,,,,,,,,,,,,,,,,,,,,,,,,,,,,,,"SYN06474486 32966 02512 11011 21100 30243 40254 58020 90851 555 92209=","FM-12","4",,,,,,,,,,,,,,,,,,,,,,,,,,,,"2009-05-01"
"74486094789","2020-02-22T04:51:00","FM-15","7",,"ESE","1.5","mi","TEMP, PRECIP, SNOW",,,"PSY, SRG, SNOWBOARD",,,"FAA CWO",,,,,,,,,,,,,,,,,,,,,,,,,,,"30.29","13","30","0.00",,,,"49","30.29","CLR:00","30.27","10.00","25","250",,"11",,,,,,,,,,,,,,,,,,,,,,,,,,,,,,,,,,,,,"MET09902/22/20 04:51:02 METAR KJFK 220951Z 25010KT 10SM CLR M01/M11 A3029 RMK AO2 SLP256 T10111106 $ (DM)","FM-15","7",,,,,,,,,,,,,,,,,,,,,,,,,,,,"2009-05-01"
"74486094789","2020-02-22T05:51:00","FM-15","7",,"ESE","1.5","mi","TEMP, PRECIP, SNOW",,,"PSY, SRG, SNOWBOARD",,,"FAA CWO",,,,,,,,,,,,,,,,,,,,,,,,,,,"30.30","12","31","0.00",,,,"45","30.29","CLR:00","30.27","10.00","25","260",,"11",,,,,,,,,,,,,,,,,,,,,,,,,,,,,,,,,,,,,"MET09902/22/20 05:51:02 METAR KJFK 221051Z 26010KT 10SM CLR M01/M11 A3030 RMK AO2 SLP258 T10061111 $ (DM)","FM-15","7",,,,,,,,,,,,,,,,,,,,,,,,,,,,"2009-05-01"
"74486094789","2020-02-22T06:51:00","FM-15","7",,"ESE","1.5","mi","TEMP, PRECIP, SNOW",,,"PSY, SRG, SNOWBOARD",,,"FAA CWO",,,,,,,,,,,,,,,,,,,,,,,,,,,"30.30","12","31","0.00",,"-0.02","3","45","30.30","CLR:00","30.27","10.00","25","270",,"16",,,,,,,,,,,,,,,,,,,,,,,,,,,,,,,,,,,,,"MET11702/22/20 06:51:02 METAR KJFK 221151Z 27014KT 10SM CLR M01/M11 A3030 RMK AO2 SLP260 T10061111 10000 21011 53006 $ (RG)","FM-15","7",,,,,,,,,,,,,,,,,,,,,,,,,,,,"2009-05-01"
"74486094789","2020-02-22T07:00:00","FM-12","4",,"ESE","1.5","mi","TEMP, PRECIP, SNOW",,,"PSY, SRG, SNOWBOARD",,,"FAA CWO",,,,,,,,,,,,,,,,,,,,,,,,,,,,"12","31",,,"-0.02","3","45","30.30",,"30.27","9.94","25","270",,"16",,,,,,,,,,,,,,,,,,,,,,,,,,,,,,,,,,,,,"SYN08074486 32966 02714 11006 21111 30249 40260 53006 91151 333 10022 21011 555 92212=","FM-12","4",,,,,,,,,,,,,,,,,,,,,,,,,,,,"2009-05-01"
"74486094789","2020-02-22T07:51:00","FM-15","7",,"ESE","1.5","mi","TEMP, PRECIP, SNOW",,,"PSY, SRG, SNOWBOARD",,,"FAA CWO",,,,,,,,,,,,,,,,,,,,,,,,,,,"30.31","12","32","0.00",,,,"43","30.31","CLR:00","30.29","10.00","26","260",,"15",,,,,,,,,,,,,,,,,,,,,,,,,,,,,,,,,,,,,"MET09802/22/20 07:51:02 METAR KJFK 221251Z 26013KT 10SM CLR 00/M11 A3031 RMK AO2 SLP264 T00001111 $ (RG)","FM-15","7",,,,,,,,,,,,,,,,,,,,,,,,,,,,"2009-05-01"
"74486094789","2020-02-22T08:51:00","FM-15","7",,"ESE","1.5","mi","TEMP, PRECIP, SNOW",,,"PSY, SRG, SNOWBOARD",,,"FAA CWO",,,,,,,,,,,,,,,,,,,,,,,,,,,"30.32","12","36","0.00",,,,"37","30.32","FEW:02 250","30.29","10.00","28","270",,"16",,,,,,,,,,,,,,,,,,,,,,,,,,,,,,,,,,,,,"MET10102/22/20 08:51:02 METAR KJFK 221351Z 27014KT 10SM FEW250 02/M11 A3032 RMK AO2 SLP266 T00221111 $ (RG)","FM-15","7",,,,,,,,,,,,,,,,,,,,,,,,,,,,"2009-05-01"
"74486094789","2020-02-22T09:51:00","FM-15","7",,"ESE","1.5","mi","TEMP, PRECIP, SNOW",,,"PSY, SRG, SNOWBOARD",,,"FAA CWO",,,,,,,,,,,,,,,,,,,,,,,,,,,"30.30","11","39","0.00",,"-0.00","0","31","30.30","FEW:02 250","30.27","10.00","30","260",,"15",,,,,,,,,,,,,,,,,,,,,,,,,,,,,,,,,,,,,"MET10702/22/20 09:51:02 METAR KJFK 221451Z 26013KT 10SM FEW250 04/M12 A3030 RMK AO2 SLP260 T00391117 50000 $ (RG)","FM-15","7",,,,,,,,,,,,,,,,,,,,,,,,,,,,"2009-05-01"
"74486094789","2020-02-22T10:00:00","FM-12","4",,"ESE","1.5","mi","TEMP, PRECIP, SNOW",,,"PSY, SRG, SNOWBOARD",,,"FAA CWO",,,,,,,,,,,,,,,,,,,,,,,,,,,,"11","39",,,"0.00","9","31","30.30",,"30.27","9.94","30","260",,"15",,,,,,,,,,,,,,,,,,,,,,,,,,,,,,,,,,,,,"SYN06474486 32966 22613 10039 21117 30249 40260 50000 91451 555 92215=","FM-12","4",,,,,,,,,,,,,,,,,,,,,,,,,,,,"2009-05-01"
"74486094789","2020-02-22T10:51:00","FM-15","7",,"ESE","1.5","mi","TEMP, PRECIP, SNOW",,,"PSY, SRG, SNOWBOARD",,,"FAA CWO",,,,,,,,,,,,,,,,,,,,,,,,,,,"30.29","11","40","0.00",,,,"30","30.28","FEW:02 250","30.27","10.00","31","260",,"15",,,,,,,,,,,,,,,,,,,,,,,,,,,,,,,,,,,,,"MET10102/22/20 10:51:02 METAR KJFK 221551Z 26013KT 10SM FEW250 04/M12 A3029 RMK AO2 SLP255 T00441117 $ (RG)","FM-15","7",,,,,,,,,,,,,,,,,,,,,,,,,,,,"2009-05-01"
"74486094789","2020-02-22T11:51:00","FM-15","7",,"ESE","1.5","mi","TEMP, PRECIP, SNOW",,,"PSY, SRG, SNOWBOARD",,,"FAA CWO",,,,,,,,,,,,,,,,,,,,,,,,,,,"30.27","11","42","0.00",,,,"28","30.27","CLR:00","30.24","10.00","32","250",,"16",,,,,,,,,,,,,,,,,,,,,,,,,,,,,,,,,,,,,"MET09802/22/20 11:51:02 METAR KJFK 221651Z 25014KT 10SM CLR 06/M12 A3027 RMK AO2 SLP249 T00561117 $ (RG)","FM-15","7",,,,,,,,,,,,,,,,,,,,,,,,,,,,"2009-05-01"
"74486094789","2020-02-22T12:51:00","FM-15","7",,"ESE","1.5","mi","TEMP, PRECIP, SNOW",,,"PSY, SRG, SNOWBOARD",,,"FAA CWO",,,,,,,,,,,,,,,,,,,,,,,,,,,"30.23","15","44","0.00",,"+0.07","8","31","30.22","CLR:00","30.21","10.00","34","230",,"14",,,,,,,,,,,,,,,,,,,,,,,,,,,,,,,,,,,,,"MET11602/22/20 12:51:02 METAR KJFK 221751Z 23012KT 10SM CLR 07/M09 A3023 RMK AO2 SLP235 T00671094 10067 21006 58025 $ (RG)","FM-15","7",,,,,,,,,,,,,,,,,,,,,,,,,,,,"2009-05-01"
"74486094789","2020-02-22T13:00:00","FM-12","4",,"ESE","1.5","mi","TEMP, PRECIP, SNOW",,,"PSY, SRG, SNOWBOARD",,,"FAA CWO",,,,,,,,,,,,,,,,,,,,,,,,,,,,"15","44",,,"+0.07","8","31","30.22",,"30.20","9.94","34","230",,"14",,,,,,,,,,,,,,,,,,,,,,,,,,,,,,,,,,,,,"SYN08074486 32966 02312 10067 21094 30226 40235 58025 91751 333 10067 21011 555 92218=","FM-12","4",,,,,,,,,,,,,,,,,,,,,,,,,,,,"2009-05-01"
"74486094789","2020-02-22T13:51:00","FM-15","7",,"ESE","1.5","mi","TEMP, PRECIP, SNOW",,,"PSY, SRG, SNOWBOARD",,,"FAA CWO",,,,,,,,,,,,,,,,,,,,,,,,,,,"30.19","15","48","0.00",,,,"27","30.19","CLR:00","30.16","10.00","36","230",,"17",,,,,,,,,,,,,,,,,,,,,,,,,,,,,,,,,,,,,"MET09802/22/20 13:51:02 METAR KJFK 221851Z 23015KT 10SM CLR 09/M09 A3019 RMK AO2 SLP223 T00891094 $ (RG)","FM-15","7",,,,,,,,,,,,,,,,,,,,,,,,,,,,"2009-05-01"
"74486094789","2020-02-22T14:51:00","FM-15","7",,"ESE","1.5","mi","TEMP, PRECIP, SNOW",,,"PSY, SRG, SNOWBOARD",,,"FAA CWO",,,,,,,,,,,,,,,,,,,,,,,,,,,"30.18","9","50","0.00",,,,"19","30.17","CLR:00","30.16","10.00","36","270","24","14",,,,,,,,,,,,,,,,,,,,,,,,,,,,,,,,,,,,,"MET10102/22/20 14:51:02 METAR KJFK 221951Z 27012G21KT 10SM CLR 10/M13 A3018 RMK AO2 SLP218 T01001128 $ (JT)","FM-15","7",,,,,,,,,,,,,,,,,,,,,,,,,,,,"2009-05-01"
"74486094789","2020-02-22T15:51:00","FM-15","7",,"ESE","1.5","mi","TEMP, PRECIP, SNOW",,,"PSY, SRG, SNOWBOARD",,,"FAA CWO",,,,,,,,,,,,,,,,,,,,,,,,,,,"30.17","11","50","0.00",,"+0.05","6","21","30.17","CLR:00","30.14","10.00","36","250",,"15",,,,,,,,,,,,,,,,,,,,,,,,,,,,,,,,,,,,,"MET10402/22/20 15:51:02 METAR KJFK 222051Z 25013KT 10SM CLR 10/M12 A3017 RMK AO2 SLP217 T01001117 56018 $ (JT)","FM-15","7",,,,,,,,,,,,,,,,,,,,,,,,,,,,"2009-05-01"
"74486094789","2020-02-22T16:00:00","FM-12","4",,"ESE","1.5","mi","TEMP, PRECIP, SNOW",,,"PSY, SRG, SNOWBOARD",,,"FAA CWO",,,,,,,,,,,,,,,,,,,,,,,,,,,,"11","50",,,"+0.05","6","21","30.17",,"30.14","9.94","36","250",,"15",,,,,,,,,,,,,,,,,,,,,,,,,,,,,,,,,,,,,"SYN06474486 32966 02513 10100 21117 30205 40217 56018 92051 555 92221=","FM-12","4",,,,,,,,,,,,,,,,,,,,,,,,,,,,"2009-05-01"
"74486094789","2020-02-22T16:51:00","FM-15","7",,"ESE","1.5","mi","TEMP, PRECIP, SNOW",,,"PSY, SRG, SNOWBOARD",,,"FAA CWO",,,,,,,,,,,,,,,,,,,,,,,,,,,"30.16","12","49","0.00",,,,"22","30.16","CLR:00","30.14","10.00","36","240",,"13",,,,,,,,,,,,,,,,,,,,,,,,,,,,,,,,,,,,,"MET09602/22/20 16:51:02 METAR KJFK 222151Z 24011KT 10SM CLR 09/M11 A3016 RMK AO2 SLP214 T00941111 (JT)","FM-15","7",,,,,,,,,,,,,,,,,,,,,,,,,,,,"2009-05-01"
"74486094789","2020-02-22T17:51:00","FM-15","7",,"ESE","1.5","mi","TEMP, PRECIP, SNOW",,,"PSY, SRG, SNOWBOARD",,,"FAA CWO",,,,,,,,,,,,,,,,,,,,,,,,,,,"30.17","19","44","0.00",,,,"37","30.17","CLR:00","30.14","10.00","35","240",,"13",,,,,,,,,,,,,,,,,,,,,,,,,,,,,,,,,,,,,"MET09602/22/20 17:51:02 METAR KJFK 222251Z 24011KT 10SM CLR 07/M07 A3017 RMK AO2 SLP216 T00671072 (JT)","FM-15","7",,,,,,,,,,,,,,,,,,,,,,,,,,,,"2009-05-01"
"74486094789","2020-02-22T18:51:00","FM-15","7",,"ESE","1.5","mi","TEMP, PRECIP, SNOW",,,"PSY, SRG, SNOWBOARD",,,"FAA CWO",,,,,,,,,,,,,,,,,,,,,,,,,,,"30.20","20","44","0.00",,"-0.02","3","38","30.20","CLR:00","30.17","10.00","35","240",,"14",,,,,,,,,,,,,,,,,,,,,,,,,,,,,,,,,,,,,"MET11402/22/20 18:51:02 METAR KJFK 222351Z 24012KT 10SM CLR 07/M07 A3020 RMK AO2 SLP226 T00671067 10100 20061 53008 (JT)","FM-15","7",,,,,,,,,,,,,,,,,,,,,,,,,,,,"2009-05-01"
"74486094789","2020-02-22T19:00:00","FM-12","4",,"ESE","1.5","mi","TEMP, PRECIP, SNOW",,,"PSY, SRG, SNOWBOARD",,,"FAA CWO",,,,,,,,,,,,,,,,,,,,,,,,,,,,"20","44",,,"-0.02","3","38","30.20",,"30.16","9.94","35","240",,"14",,,,,,,,,,,,,,,,,,,,,,,,,,,,,,,,,,,,,"SYN08074486 32966 02412 10067 21067 30215 40226 53008 92351 333 10100 21010 555 92300=","FM-12","4",,,,,,,,,,,,,,,,,,,,,,,,,,,,"2009-05-01"
"74486094789","2020-02-22T19:51:00","FM-15","7",,"ESE","1.5","mi","TEMP, PRECIP, SNOW",,,"PSY, SRG, SNOWBOARD",,,"FAA CWO",,,,,,,,,,,,,,,,,,,,,,,,,,,"30.21","19","43","0.00",,,,"38","30.21","FEW:02 250","30.19","10.00","34","250",,"10",,,,,,,,,,,,,,,,,,,,,,,,,,,,,,,,,,,,,"MET09402/22/20 19:51:01 METAR KJFK 230051Z 25009KT 10SM FEW250 06/M07 A3021 RMK AO2 SLP229 T00611072","FM-15","7",,,,,,,,,,,,,,,,,,,,,,,,,,,,"2009-05-01"
"74486094789","2020-02-22T20:51:00","FM-15","7",,"ESE","1.5","mi","TEMP, PRECIP, SNOW",,,"PSY, SRG, SNOWBOARD",,,"FAA CWO",,,,,,,,,,,,,,,,,,,,,,,,,,,"30.22","18","42","0.00",,,,"38","30.22","CLR:00","30.19","10.00","33","250",,"11",,,,,,,,,,,,,,,,,,,,,,,,,,,,,,,,,,,,,"MET09102/22/20 20:51:01 METAR KJFK 230151Z 25010KT 10SM CLR 06/M08 A3022 RMK AO2 SLP233 T00561078","FM-15","7",,,,,,,,,,,,,,,,,,,,,,,,,,,,"2009-05-01"
"74486094789","2020-02-22T21:51:00","FM-15","7",,"ESE","1.5","mi","TEMP, PRECIP, SNOW",,,"PSY, SRG, SNOWBOARD",,,"FAA CWO",,,,,,,,,,,,,,,,,,,,,,,,,,,"30.22","25","37","0.00",,"-0.02","1","62","30.22","CLR:00","30.19","10.00","33","240",,"9",,,,,,,,,,,,,,,,,,,,,,,,,,,,,,,,,,,,,"MET09702/22/20 21:51:01 METAR KJFK 230251Z 24008KT 10SM CLR 03/M04 A3022 RMK AO2 SLP234 T00281039 51008","FM-15","7",,,,,,,,,,,,,,,,,,,,,,,,,,,,"2009-05-01"
"74486094789","2020-02-22T22:00:00","FM-12","4",,"ESE","1.5","mi","TEMP, PRECIP, SNOW",,,"PSY, SRG, SNOWBOARD",,,"FAA CWO",,,,,,,,,,,,,,,,,,,,,,,,,,,,"25","37",,,"-0.02","1","62","30.22",,"30.19","9.94","33","240",,"9",,,,,,,,,,,,,,,,,,,,,,,,,,,,,,,,,,,,,"SYN06474486 32966 02408 10028 21039 30222 40234 51008 90251 555 92303=","FM-12","4",,,,,,,,,,,,,,,,,,,,,,,,,,,,"2009-05-01"
"74486094789","2020-02-22T22:51:00","FM-15","7",,"ESE","1.5","mi","TEMP, PRECIP, SNOW",,,"PSY, SRG, SNOWBOARD",,,"FAA CWO",,,,,,,,,,,,,,,,,,,,,,,,,,,"30.22","24","37","0.00",,,,"59","30.22","CLR:00","30.19","10.00","32","200",,"6",,,,,,,,,,,,,,,,,,,,,,,,,,,,,,,,,,,,,"MET09102/22/20 22:51:01 METAR KJFK 230351Z 20005KT 10SM CLR 03/M04 A3022 RMK AO2 SLP233 T00281044","FM-15","7",,,,,,,,,,,,,,,,,,,,,,,,,,,,"2009-05-01"
"74486094789","2020-02-22T23:51:00","FM-15","7",,"ESE","1.5","mi","TEMP, PRECIP, SNOW",,,"PSY, SRG, SNOWBOARD",,,"FAA CWO",,,,,,,,,,,,,,,,,,,,,,,,,,,"30.21","19","38","0.00",,,,"46","30.21","CLR:00","30.19","10.00","31","260",,"11",,,,,,,,,,,,,,,,,,,,,,,,,,,,,,,,,,,,,"MET10102/22/20 23:51:02 METAR KJFK 230451Z 26010KT 10SM CLR 03/M07 A3021 RMK AO2 SLP229 T00331072 401001011","FM-15","7",,,,,,,,,,,,,,,,,,,,,,,,,,,,"2009-05-01"
"74486094789","2020-02-22T23:59:00","SOD  ","6",,"ESE","1.5","mi","TEMP, PRECIP, SNOW",,,"PSY, SRG, SNOWBOARD",,,"FAA CWO",,,,"15","40","39","30.25","30.24","31","13.2","0","3.8","25","50","30","260","25","0.00","0","0.0","260","20",,,,,,,,,,,,,,,,,,,,,,,,,,,,,,,,,,,,,,,,,,,,,,,,,,,,,,,,,"SOD73924 HR PRECIPITATION (IN): 0.00 SNOW DEPTH (IN):0     24 HR SNOWFALL (IN):0.0  24 HR MAX TEMP (F): 5024 HR MIN TEMP (F): 30AVERAGE STATION PRESSURE:30.240 MINIMUM SEA LEVEL PRESSURE:30.16 TIME OF OCCURRENCE:1723 PEAK WIND SPEED (MPH): 25 PEAK WIND DIR (DEG):260 PEAK WIND TIME (LST):      FASTEST 2MIN SPEED (MPH): 20FASTEST 2MIN DIR (DEG):260 FASTEST 2MIN TIME (LST):     AVERAGE WIND SPEED (MPH):13.2 24 HR AVG TEMP (F): 40DEPART FROM NORMAL:  4  HEATING DEGREE DAYS: 25 COOLING DEGREE DAYS:  0 LATEST DAY MAX TEMP (0700-1900 LST):50  LATEST NIGHT MIN TEMP(1900-0800 LST):30 HOURLY INCREMENTAL PRECIPITATION VALUES (IN):.00 0.00 0.00 0.00 0.00 0.00 0.00 0.00 0.00 0.00 0.00 0.00 0.00 0.00 0.00 0.00 0.00 0.00 0.00 0.00 0.00 0.00 0.00 0.00","SOD  ","6",,,,,,,,,,,,,,,,,,,,,,,,,"0640","1738",,"2009-05-01"
"74486094789","2020-02-23T00:51:00","FM-15","7",,"ESE","1.5","mi","TEMP, PRECIP, SNOW",,,"PSY, SRG, SNOWBOARD",,,"FAA CWO",,,,,,,,,,,,,,,,,,,,,,,,,,,"30.21","23","33","0.00",,"+0.02","8","66","30.20","CLR:00","30.19","10.00","29","240",,"10",,,,,,,,,,,,,,,,,,,,,,,,,,,,,,,,,,,,,"MET11402/23/20 00:51:02 METAR KJFK 230551Z 24009KT 10SM CLR 01/M05 A3021 RMK AO2 SLP228 T00061050 10072 20006 58006 (DM)","FM-15","7",,,,,,,,,,,,,,,,,,,,,,,,,,,,"2009-05-01"
"74486094789","2020-02-23T01:00:00","FM-12","4",,"ESE","1.5","mi","TEMP, PRECIP, SNOW",,,"PSY, SRG, SNOWBOARD",,,"FAA CWO",,,,,,,,,,,,,,,,,,,,,,,,,,,,"23","33",,,"+0.02","8","66","30.20",,"30.18","9.94","29","240",,"10",,,,,,,,,,,,,,,,,,,,,,,,,,,,,,,,,,,,,"SYN08074486 32966 02409 10006 21050 30219 40228 58006 90551 333 10072 21010 555 92306=","FM-12","4",,,,,,,,,,,,,,,,,,,,,,,,,,,,"2009-05-01"
"74486094789","2020-02-23T01:51:00","FM-15","7",,"ESE","1.5","mi","TEMP, PRECIP, SNOW",,,"PSY, SRG, SNOWBOARD",,,"FAA CWO",,,,,,,,,,,,,,,,,,,,,,,,,,,"30.21","27","36","0.00",,,,"70","30.20","CLR:00","30.19","10.00","33","240",,"13",,,,,,,,,,,,,,,,,,,,,,,,,,,,,,,,,,,,,"MET09602/23/20 01:51:02 METAR KJFK 230651Z 24011KT 10SM CLR 02/M03 A3021 RMK AO2 SLP228 T00221028 (DM)","FM-15","7",,,,,,,,,,,,,,,,,,,,,,,,,,,,"2009-05-01"
"74486094789","2020-02-23T02:51:00","FM-15","7",,"ESE","1.5","mi","TEMP, PRECIP, SNOW",,,"PSY, SRG, SNOWBOARD",,,"FAA CWO",,,,,,,,,,,,,,,,,,,,,,,,,,,"30.21","25","36","0.00",,,,"64","30.21","CLR:00","30.19","10.00","32","250",,"9",,,,,,,,,,,,,,,,,,,,,,,,,,,,,,,,,,,,,"MET09602/23/20 02:51:02 METAR KJFK 230751Z 25008KT 10SM CLR 02/M04 A3021 RMK AO2 SLP229 T00221039 (DM)","FM-15","7",,,,,,,,,,,,,,,,,,,,,,,,,,,,"2009-05-01"
"74486094789","2020-02-23T03:51:00","FM-15","7",,"ESE","1.5","mi","TEMP, PRECIP, SNOW",,,"PSY, SRG, SNOWBOARD",,,"FAA CWO",,,,,,,,,,,,,,,,,,,,,,,,,,,"30.22","25","33","0.00",,"-0.01","3","72","30.22","CLR:00","30.19","10.00","30","250",,"9",,,,,,,,,,,,,,,,,,,,,,,,,,,,,,,,,,,,,"MET10202/23/20 03:51:02 METAR KJFK 230851Z 25008KT 10SM CLR 01/M04 A3022 RMK AO2 SLP233 T00061039 53004 (DM)","FM-15","7",,,,,,,,,,,,,,,,,,,,,,,,,,,,"2009-05-01"
"74486094789","2020-02-23T04:00:00","FM-12","4",,"ESE","1.5","mi","TEMP, PRECIP, SNOW",,,"PSY, SRG, SNOWBOARD",,,"FAA CWO",,,,,,,,,,,,,,,,,,,,,,,,,,,,"25","33",,,"-0.01","3","72","30.22",,"30.19","9.94","30","250",,"9",,,,,,,,,,,,,,,,,,,,,,,,,,,,,,,,,,,,,"SYN06474486 32966 02508 10006 21039 30222 40233 53004 90851 555 92309=","FM-12","4",,,,,,,,,,,,,,,,,,,,,,,,,,,,"2009-05-01"
"74486094789","2020-02-23T04:51:00","FM-15","7",,"ESE","1.5","mi","TEMP, PRECIP, SNOW",,,"PSY, SRG, SNOWBOARD",,,"FAA CWO",,,,,,,,,,,,,,,,,,,,,,,,,,,"30.23","23","34","0.00",,,,"64","30.22","CLR:00","30.21","10.00","30","260",,"9",,,,,,,,,,,,,,,,,,,,,,,,,,,,,,,,,,,,,"MET09602/23/20 04:51:02 METAR KJFK 230951Z 26008KT 10SM CLR 01/M05 A3023 RMK AO2 SLP235 T00111050 (DM)","FM-15","7",,,,,,,,,,,,,,,,,,,,,,,,,,,,"2009-05-01"
"74486094789","2020-02-23T05:51:00","FM-15","7",,"ESE","1.5","mi","TEMP, PRECIP, SNOW",,,"PSY, SRG, SNOWBOARD",,,"FAA CWO",,,,,,,,,,,,,,,,,,,,,,,,,,,"30.23","21","30","0.00",,,,"69","30.23","CLR:00","30.21","10.00","27","230",,"7",,,,,,,,,,,,,,,,,,,,,,,,,,,,,,,,,,,,,"MET09702/23/20 05:51:02 METAR KJFK 231051Z 23006KT 10SM CLR M01/M06 A3023 RMK AO2 SLP237 T10111061 (DM)","FM-15","7",,,,,,,,,,,,,,,,,,,,,,,,,,,,"2009-05-01"
"74486094789","2020-02-23T06:51:00","FM-15","7",,"ESE","1.5","mi","TEMP, PRECIP, SNOW",,,"PSY, SRG, SNOWBOARD",,,"FAA CWO",,,,,,,,,,,,,,,,,,,,,,,,,,,"30.24","22","34","0.00",,"-0.02","2","61","30.24","CLR:00","30.22","10.00","30","260",,"10",,,,,,,,,,,,,,,,,,,,,,,,,,,,,,,,,,,,,"MET11402/23/20 06:51:02 METAR KJFK 231151Z 26009KT 10SM CLR 01/M06 A3024 RMK AO2 SLP239 T00111056 10028 21011 52006 (ML)","FM-15","7",,,,,,,,,,,,,,,,,,,,,,,,,,,,"2009-05-01"
"74486094789","2020-02-23T07:00:00","FM-12","4",,"ESE","1.5","mi","TEMP, PRECIP, SNOW",,,"PSY, SRG, SNOWBOARD",,,"FAA CWO",,,,,,,,,,,,,,,,,,,,,,,,,,,,"22","34",,,"-0.02","2","61","30.24",,"30.21","9.94","30","260",,"10",,,,,,,,,,,,,,,,,,,,,,,,,,,,,,,,,,,,,"SYN08074486 32966 02609 10011 21056 30229 40239 52006 91151 333 10100 21011 555 92312=","FM-12","4",,,,,,,,,,,,,,,,,,,,,,,,,,,,"2009-05-01"
"74486094789","2020-02-23T07:51:00","FM-15","7",,"ESE","1.5","mi","TEMP, PRECIP, SNOW",,,"PSY, SRG, SNOWBOARD",,,"FAA CWO",,,,,,,,,,,,,,,,,,,,,,,,,,,"30.24","23","39","0.00",,,,"53","30.24","CLR:00","30.22","10.00","33","250",,"8",,,,,,,,,,,,,,,,,,,,,,,,,,,,,,,,,,,,,"MET09602/23/20 07:51:02 METAR KJFK 231251Z 25007KT 10SM CLR 04/M05 A3024 RMK AO2 SLP241 T00391050 (ML)","FM-15","7",,,,,,,,,,,,,,,,,,,,,,,,,,,,"2009-05-01"
"74486094789","2020-02-23T08:51:00","FM-15","7",,"ESE","1.5","mi","TEMP, PRECIP, SNOW",,,"PSY, SRG, SNOWBOARD",,,"FAA CWO",,,,,,,,,,,,,,,,,,,,,,,,,,,"30.24","20","44","0.00",,,,"38","30.24","CLR:00","30.22","10.00","35","260",,"10",,,,,,,,,,,,,,,,,,,,,,,,,,,,,,,,,,,,,"MET09602/23/20 08:51:02 METAR KJFK 231351Z 26009KT 10SM CLR 07/M07 A3024 RMK AO2 SLP239 T00671067 (ML)","FM-15","7",,,,,,,,,,,,,,,,,,,,,,,,,,,,"2009-05-01"
"74486094789","2020-02-23T09:51:00","FM-15","7",,"ESE","1.5","mi","TEMP, PRECIP, SNOW",,,"PSY, SRG, SNOWBOARD",,,"FAA CWO",,,,,,,,,,,,,,,,,,,,,,,,,,,"30.23","23","46","0.00",,"+0.01","8","40","30.23","FEW:02 250","30.21","10.00","37","240",,"8",,,,,,,,,,,,,,,,,,,,,,,,,,,,,,,,,,,,,"MET10502/23/20 09:51:02 METAR KJFK 231451Z 24007KT 10SM FEW250 08/M05 A3023 RMK AO2 SLP236 T00781050 58004 (ML)","FM-15","7",,,,,,,,,,,,,,,,,,,,,,,,,,,,"2009-05-01"
"74486094789","2020-02-23T10:00:00","FM-12","4",,"ESE","1.5","mi","TEMP, PRECIP, SNOW",,,"PSY, SRG, SNOWBOARD",,,"FAA CWO",,,,,,,,,,,,,,,,,,,,,,,,,,,,"23","46",,,"+0.01","8","40","30.23",,"30.20","9.94","37","240",,"8",,,,,,,,,,,,,,,,,,,,,,,,,,,,,,,,,,,,,"SYN06474486 32966 22407 10078 21050 30226 40236 58004 91451 555 92315=","FM-12","4",,,,,,,,,,,,,,,,,,,,,,,,,,,,"2009-05-01"
"74486094789","2020-02-23T10:51:00","FM-15","7",,"ESE","1.5","mi","TEMP, PRECIP, SNOW",,,"PSY, SRG, SNOWBOARD",,,"FAA CWO",,,,,,,,,,,,,,,,,,,,,,,,,,,"30.22","23","49","0.00",,,,"36","30.22","FEW:02 250","30.19","10.00","39","230",,"9",,,,,,,,,,,,,,,,,,,,,,,,,,,,,,,,,,,,,"MET09402/23/20 10:51:02 METAR KJFK 231551Z 23008KT 10SM FEW250 09/M05 A3022 RMK AO2 SLP233 T00941050","FM-15","7",,,,,,,,,,,,,,,,,,,,,,,,,,,,"2009-05-01"
"74486094789","2020-02-23T11:51:00","FM-15","7",,"ESE","1.5","mi","TEMP, PRECIP, SNOW",,,"PSY, SRG, SNOWBOARD",,,"FAA CWO",,,,,,,,,,,,,,,,,,,,,,,,,,,"30.20","18","50","0.00",,,,"28","30.20","FEW:02 250","30.17","10.00","38","240","22","14",,,,,,,,,,,,,,,,,,,,,,,,,,,,,,,,,,,,,"MET09702/23/20 11:51:02 METAR KJFK 231651Z 24012G19KT 10SM FEW250 10/M08 A3020 RMK AO2 SLP227 T01001078","FM-15","7",,,,,,,,,,,,,,,,,,,,,,,,,,,,"2009-05-01"
"74486094789","2020-02-23T12:51:00","FM-15","7",,"ESE","1.5","mi","TEMP, PRECIP, SNOW",,,"PSY, SRG, SNOWBOARD",,,"FAA CWO",,,,,,,,,,,,,,,,,,,,,,,,,,,"30.17","17","52","0.00",,"+0.06","8","25","30.17","FEW:02 250","30.14","10.00","39","230",,"15",,,,,,,,,,,,,,,,,,,,,,,,,,,,,,,,,,,,,"MET11202/23/20 12:51:02 METAR KJFK 231751Z 23013KT 10SM FEW250 11/M08 A3017 RMK AO2 SLP216 T01111083 10111 20011 58020","FM-15","7",,,,,,,,,,,,,,,,,,,,,,,,,,,,"2009-05-01"
"74486094789","2020-02-23T13:00:00","FM-12","4",,"ESE","1.5","mi","TEMP, PRECIP, SNOW",,,"PSY, SRG, SNOWBOARD",,,"FAA CWO",,,,,,,,,,,,,,,,,,,,,,,,,,,,"17","52",,,"+0.06","8","25","30.17",,"30.14","9.94","39","230",,"15",,,,,,,,,,,,,,,,,,,,,,,,,,,,,,,,,,,,,"SYN08074486 32966 22313 10111 21083 30205 40216 58020 91751 333 10111 20011 555 92318=","FM-12","4",,,,,,,,,,,,,,,,,,,,,,,,,,,,"2009-05-01"
"74486094789","2020-02-23T13:51:00","FM-15","7",,"ESE","1.5","mi","TEMP, PRECIP, SNOW",,,"PSY, SRG, SNOWBOARD",,,"FAA CWO",,,,,,,,,,,,,,,,,,,,,,,,,,,"30.15","15","53","0.00",,,,"22","30.15","FEW:02 250","30.12","10.00","39","230",,"16",,,,,,,,,,,,,,,,,,,,,,,,,,,,,,,,,,,,,"MET09402/23/20 13:51:02 METAR KJFK 231851Z 23014KT 10SM FEW250 12/M09 A3015 RMK AO2 SLP209 T01171094","FM-15","7",,,,,,,,,,,,,,,,,,,,,,,,,,,,"2009-05-01"
"74486094789","2020-02-23T14:27:00","FM-16","7",,"ESE","1.5","mi","TEMP, PRECIP, SNOW",,,"PSY, SRG, SNOWBOARD",,,"FAA CWO",,,,,,,,,,,,,,,,,,,,,,,,,,,"30.13","23","51",,,,,"33",,"FEW:02 250","30.11","10.00","40","180",,"13",,,,,,,,,,,,,,,,,,,,,,,,,,,,,,,,,,,,,"MET09802/23/20 14:27:02 SPECI KJFK 231927Z 18011KT 10SM FEW250 11/M05 A3013 RMK AO2 WSHFT 1910 T01061050","FM-16","7",,,,,,,,,,,,,,,,,,,,,,,,,,,,"2009-05-01"
"74486094789","2020-02-23T14:51:00","FM-15","7",,"ESE","1.5","mi","TEMP, PRECIP, SNOW",,,"PSY, SRG, SNOWBOARD",,,"FAA CWO",,,,,,,,,,,,,,,,,,,,,,,,,,,"30.13","21","51","0.00",,,,"31","30.13","FEW:02 250","30.11","10.00","39","170",,"14",,,,,,,,,,,,,,,,,,,,,,,,,,,,,,,,,,,,,"MET10502/23/20 14:51:02 METAR KJFK 231951Z 17012KT 10SM FEW250 11/M06 A3013 RMK AO2 WSHFT 1910 SLP202 T01061061","FM-15","7",,,,,,,,,,,,,,,,,,,,,,,,,,,,"2009-05-01"
"74486094789","2020-02-23T15:51:00","FM-15","7",,"ESE","1.5","mi","TEMP, PRECIP, SNOW",,,"PSY, SRG, SNOWBOARD",,,"FAA CWO",,,,,,,,,,,,,,,,,,,,,,,,,,,"30.12","26","49","0.00",,"+0.05","6","41","30.11","FEW:02 250","30.09","10.00","40","180",,"15",,,,,,,,,,,,,,,,,,,,,,,,,,,,,,,,,,,,,"MET10002/23/20 15:51:02 METAR KJFK 232051Z 18013KT 10SM FEW250 09/M03 A3012 RMK AO2 SLP198 T00941033 56018","FM-15","7",,,,,,,,,,,,,,,,,,,,,,,,,,,,"2009-05-01"
"74486094789","2020-02-23T16:00:00","FM-12","4",,"ESE","1.5","mi","TEMP, PRECIP, SNOW",,,"PSY, SRG, SNOWBOARD",,,"FAA CWO",,,,,,,,,,,,,,,,,,,,,,,,,,,,"26","49",,,"+0.05","6","41","30.11",,"30.09","9.94","40","180",,"15",,,,,,,,,,,,,,,,,,,,,,,,,,,,,,,,,,,,,"SYN06474486 32966 21813 10094 21033 30188 40198 56018 92051 555 92321=","FM-12","4",,,,,,,,,,,,,,,,,,,,,,,,,,,,"2009-05-01"
"74486094789","2020-02-23T16:51:00","FM-15","7",,"ESE","1.5","mi","TEMP, PRECIP, SNOW",,,"PSY, SRG, SNOWBOARD",,,"FAA CWO",,,,,,,,,,,,,,,,,,,,,,,,,,,"30.11","29","46","0.00",,,,"51","30.11","SCT:04 250","30.09","10.00","39","180",,"17",,,,,,,,,,,,,,,,,,,,,,,,,,,,,,,,,,,,,"MET09402/23/20 16:51:02 METAR KJFK 232151Z 18015KT 10SM SCT250 08/M02 A3011 RMK AO2 SLP195 T00781017","FM-15","7",,,,,,,,,,,,,,,,,,,,,,,,,,,,"2009-05-01"
"74486094789","2020-02-23T17:51:00","FM-15","7",,"ESE","1.5","mi","TEMP, PRECIP, SNOW",,,"PSY, SRG, SNOWBOARD",,,"FAA CWO",,,,,,,,,,,,,,,,,,,,,,,,,,,"30.10","31","43","0.00",,,,"63","30.10","FEW:02 250","30.08","10.00","38","180",,"14",,,,,,,,,,,,,,,,,,,,,,,,,,,,,,,,,,,,,"MET09402/23/20 17:51:02 METAR KJFK 232251Z 18012KT 10SM FEW250 06/M01 A3010 RMK AO2 SLP192 T00611006","FM-15","7",,,,,,,,,,,,,,,,,,,,,,,,,,,,"2009-05-01"
"74486094789","2020-02-23T18:51:00","FM-15","7",,"ESE","1.5","mi","TEMP, PRECIP, SNOW",,,"PSY, SRG, SNOWBOARD",,,"FAA CWO",,,,,,,,,,,,,,,,,,,,,,,,,,,"30.11","33","42","0.00",,"+0.01","5","71","30.11","CLR:00","30.09","10.00","38","190",,"17",,,,,,,,,,,,,,,,,,,,,,,,,,,,,,,,,,,,,"MET10802/23/20 18:51:02 METAR KJFK 232351Z 19015KT 10SM CLR 06/01 A3011 RMK AO2 SLP197 T00560006 10122 20056 55002","FM-15","7",,,,,,,,,,,,,,,,,,,,,,,,,,,,"2009-05-01"
"74486094789","2020-02-23T19:00:00","FM-12","4",,"ESE","1.5","mi","TEMP, PRECIP, SNOW",,,"PSY, SRG, SNOWBOARD",,,"FAA CWO",,,,,,,,,,,,,,,,,,,,,,,,,,,,"33","42",,,"+0.01","5","71","30.11",,"30.08","9.94","38","190",,"17",,,,,,,,,,,,,,,,,,,,,,,,,,,,,,,,,,,,,"SYN08074486 32966 01915 10056 20006 30185 40197 55002 92351 333 10122 21010 555 92400=","FM-12","4",,,,,,,,,,,,,,,,,,,,,,,,,,,,"2009-05-01"
"74486094789","2020-02-23T19:51:00","FM-15","7",,"ESE","1.5","mi","TEMP, PRECIP, SNOW",,,"PSY, SRG, SNOWBOARD",,,"FAA CWO",,,,,,,,,,,,,,,,,,,,,,,,,,,"30.11","34","42","0.00",,,,"73","30.10","CLR:00","30.09","10.00","39","190",,"17",,,,,,,,,,,,,,,,,,,,,,,,,,,,,,,,,,,,,"MET09002/23/20 19:51:01 METAR KJFK 240051Z 19015KT 10SM CLR 06/01 A3011 RMK AO2 SLP194 T00560011","FM-15","7",,,,,,,,,,,,,,,,,,,,,,,,,,,,"2009-05-01"
"74486094789","2020-02-23T20:51:00","FM-15","7",,"ESE","1.5","mi","TEMP, PRECIP, SNOW",,,"PSY, SRG, SNOWBOARD",,,"FAA CWO",,,,,,,,,,,,,,,,,,,,,,,,,,,"30.12","32","42","0.00",,,,"68","30.11","CLR:00","30.09","10.00","38","200",,"15",,,,,,,,,,,,,,,,,,,,,,,,,,,,,,,,,,,,,"MET09002/23/20 20:51:01 METAR KJFK 240151Z 20013KT 10SM CLR 06/00 A3012 RMK AO2 SLP197 T00560000","FM-15","7",,,,,,,,,,,,,,,,,,,,,,,,,,,,"2009-05-01"
"74486094789","2020-02-23T21:51:00","FM-15","7",,"ESE","1.5","mi","TEMP, PRECIP, SNOW",,,"PSY, SRG, SNOWBOARD",,,"FAA CWO",,,,,,,,,,,,,,,,,,,,,,,,,,,"30.12","30","39","0.00",,"-0.01","3","70","30.12","FEW:02 150","30.09","10.00","35","210",,"9",,,,,,,,,,,,,,,,,,,,,,,,,,,,,,,,,,,,,"MET10002/23/20 21:51:01 METAR KJFK 240251Z 21008KT 10SM FEW150 04/M01 A3012 RMK AO2 SLP200 T00391011 53004","FM-15","7",,,,,,,,,,,,,,,,,,,,,,,,,,,,"2009-05-01"
"74486094789","2020-02-23T22:00:00","FM-12","4",,"ESE","1.5","mi","TEMP, PRECIP, SNOW",,,"PSY, SRG, SNOWBOARD",,,"FAA CWO",,,,,,,,,,,,,,,,,,,,,,,,,,,,"30","39",,,"-0.01","3","70","30.12",,"30.09","9.94","35","210",,"9",,,,,,,,,,,,,,,,,,,,,,,,,,,,,,,,,,,,,"SYN06474486 32966 22108 10039 21011 30188 40200 53004 90251 555 92403=","FM-12","4",,,,,,,,,,,,,,,,,,,,,,,,,,,,"2009-05-01"
"74486094789","2020-02-23T22:51:00","FM-15","7",,"ESE","1.5","mi","TEMP, PRECIP, SNOW",,,"PSY, SRG, SNOWBOARD",,,"FAA CWO",,,,,,,,,,,,,,,,,,,,,,,,,,,"30.12","29","40","0.00",,,,"65","30.12","BKN:07 120","30.09","10.00","36","210",,"7",,,,,,,,,,,,,,,,,,,,,,,,,,,,,,,,,,,,,"MET09402/23/20 22:51:01 METAR KJFK 240351Z 21006KT 10SM BKN120 04/M02 A3012 RMK AO2 SLP200 T00441017","FM-15","7",,,,,,,,,,,,,,,,,,,,,,,,,,,,"2009-05-01"
"74486094789","2020-02-23T23:51:00","FM-15","7",,"ESE","1.5","mi","TEMP, PRECIP, SNOW",,,"PSY, SRG, SNOWBOARD",,,"FAA CWO",,,,,,,,,,,,,,,,,,,,,,,,,,,"30.11","28","39","0.00",,,,"65","30.11","BKN:07 110","30.09","10.00","35","190",,"7",,,,,,,,,,,,,,,,,,,,,,,,,,,,,,,,,,,,,"MET10402/23/20 23:51:01 METAR KJFK 240451Z 19006KT 10SM BKN110 04/M02 A3011 RMK AO2 SLP196 T00391022 401221011","FM-15","7",,,,,,,,,,,,,,,,,,,,,,,,,,,,"2009-05-01"
"74486094789","2020-02-23T23:59:00","SOD  ","6",,"ESE","1.5","mi","TEMP, PRECIP, SNOW",,,"PSY, SRG, SNOWBOARD",,,"FAA CWO",,,,"25","42","54","30.17","30.15","35","11.7","0","5.7","23","54","30","200","23","0.00","0","0.0","180","20",,,,,,,,,,,,,,,,,,,,,,,,,,,,,,,,,,,,,,,,,,,,,,,,,,,,,,,,,"SOD74324 HR PRECIPITATION (IN): 0.00 SNOW DEPTH (IN):0     24 HR SNOWFALL (IN):0.0  24 HR MAX TEMP (F): 5424 HR MIN TEMP (F): 30AVERAGE STATION PRESSURE(D):30.147 MINIMUM SEA LEVEL PRESSURE:30.10 TIME OF OCCURRENCE:1955 PEAK WIND SPEED (MPH): 23 PEAK WIND DIR (DEG):200 PEAK WIND TIME (LST):      FASTEST 2MIN SPEED (MPH): 20FASTEST 2MIN DIR (DEG):180 FASTEST 2MIN TIME (LST):     AVERAGE WIND SPEED (MPH):11.7 24 HR AVG TEMP (F): 42DEPART FROM NORMAL:  6  HEATING DEGREE DAYS: 23 COOLING DEGREE DAYS:  0 LATEST DAY MAX TEMP (0700-1900 LST): 54 LATEST NIGHT MIN TEMP(1900-0800 LST):30 HOURLY INCREMENTAL PRECIPITATION VALUES (IN):0.00 0.00 0.00 0.00 0.00 0.00 0.00 0.00 0.00 0.00 0.00 0.00 0.00 0.00 0.00 0.00 0.00 0.00 0.00 0.00 0.00 0.00 0.00 0.00","SOD  ","6",,,,,,,,,,,,,,,,,,,,,,,,,"0638","1739",,"2009-05-01"
"74486094789","2020-02-24T00:51:00","FM-15","7",,"ESE","1.5","mi","TEMP, PRECIP, SNOW",,,"PSY, SRG, SNOWBOARD",,,"FAA CWO",,,,,,,,,,,,,,,,,,,,,,,,,,,"30.11","30","38","0.00",,"+0.02","8","73","30.10","BKN:07 110","30.09","10.00","35","200",,"8",,,,,,,,,,,,,,,,,,,,,,,,,,,,,,,,,,,,,"MET11202/24/20 00:51:01 METAR KJFK 240551Z 20007KT 10SM BKN110 03/M01 A3011 RMK AO2 SLP194 T00331011 10056 20033 58006","FM-15","7",,,,,,,,,,,,,,,,,,,,,,,,,,,,"2009-05-01"
"74486094789","2020-02-24T01:00:00","FM-12","4",,"ESE","1.5","mi","TEMP, PRECIP, SNOW",,,"PSY, SRG, SNOWBOARD",,,"FAA CWO",,,,,,,,,,,,,,,,,,,,,,,,,,,,"30","38",,,"+0.02","8","73","30.10",,"30.08","9.94","35","200",,"8",,,,,,,,,,,,,,,,,,,,,,,,,,,,,,,,,,,,,"SYN08074486 32966 62007 10033 21011 30185 40194 58006 90551 333 10056 21010 555 92406=","FM-12","4",,,,,,,,,,,,,,,,,,,,,,,,,,,,"2009-05-01"
"74486094789","2020-02-24T01:51:00","FM-15","7",,"ESE","1.5","mi","TEMP, PRECIP, SNOW",,,"PSY, SRG, SNOWBOARD",,,"FAA CWO",,,,,,,,,,,,,,,,,,,,,,,,,,,"30.10","31","37","0.00",,,,"79","30.09","SCT:04 100","30.08","10.00","35","220",,"8",,,,,,,,,,,,,,,,,,,,,,,,,,,,,,,,,,,,,"MET09402/24/20 01:51:01 METAR KJFK 240651Z 22007KT 10SM SCT100 03/M01 A3010 RMK AO2 SLP191 T00281006","FM-15","7",,,,,,,,,,,,,,,,,,,,,,,,,,,,"2009-05-01"
"74486094789","2020-02-24T02:51:00","FM-15","7",,"ESE","1.5","mi","TEMP, PRECIP, SNOW",,,"PSY, SRG, SNOWBOARD",,,"FAA CWO",,,,,,,,,,,,,,,,,,,,,,,,,,,"30.09","33","38","0.00",,,,"83","30.09","BKN:07 100","30.06","10.00","36","230",,"6",,,,,,,,,,,,,,,,,,,,,,,,,,,,,,,,,,,,,"MET09302/24/20 02:51:01 METAR KJFK 240751Z 23005KT 10SM BKN100 03/01 A3009 RMK AO2 SLP189 T00330006","FM-15","7",,,,,,,,,,,,,,,,,,,,,,,,,,,,"2009-05-01"
"74486094789","2020-02-24T03:51:00","FM-15","7",,"ESE","1.5","mi","TEMP, PRECIP, SNOW",,,"PSY, SRG, SNOWBOARD",,,"FAA CWO",,,,,,,,,,,,,,,,,,,,,,,,,,,"30.07","32","36","0.00",,"+0.04","8","86","30.07","FEW:02 100","30.04","10.00","34","170",,"6",,,,,,,,,,,,,,,,,,,,,,,,,,,,,,,,,,,,,"MET09902/24/20 03:51:01 METAR KJFK 240851Z 17005KT 10SM FEW100 02/00 A3007 RMK AO2 SLP183 T00220000 58012","FM-15","7",,,,,,,,,,,,,,,,,,,,,,,,,,,,"2009-05-01"
"74486094789","2020-02-24T04:00:00","FM-12","4",,"ESE","1.5","mi","TEMP, PRECIP, SNOW",,,"PSY, SRG, SNOWBOARD",,,"FAA CWO",,,,,,,,,,,,,,,,,,,,,,,,,,,,"32","36",,,"+0.04","8","86","30.07",,"30.04","9.94","34","170",,"6",,,,,,,,,,,,,,,,,,,,,,,,,,,,,,,,,,,,,"SYN06474486 32966 21705 10022 20000 30172 40183 58012 90851 555 92409=","FM-12","4",,,,,,,,,,,,,,,,,,,,,,,,,,,,"2009-05-01"
"74486094789","2020-02-24T04:51:00","FM-15","7",,"ESE","1.5","mi","TEMP, PRECIP, SNOW",,,"PSY, SRG, SNOWBOARD",,,"FAA CWO",,,,,,,,,,,,,,,,,,,,,,,,,,,"30.08","33","35","0.00",,,,"93","30.07","CLR:00","30.06","10.00","34","170",,"5",,,,,,,,,,,,,,,,,,,,,,,,,,,,,,,,,,,,,"MET09002/24/20 04:51:01 METAR KJFK 240951Z 17004KT 10SM CLR 02/01 A3008 RMK AO2 SLP184 T00170006","FM-15","7",,,,,,,,,,,,,,,,,,,,,,,,,,,,"2009-05-01"
"74486094789","2020-02-24T05:51:00","FM-15","7",,"ESE","1.5","mi","TEMP, PRECIP, SNOW",,,"PSY, SRG, SNOWBOARD",,,"FAA CWO",,,,,,,,,,,,,,,,,,,,,,,,,,,"30.08","34","37","0.00",,,,"89","30.07","CLR:00","30.06","10.00","36","170",,"3",,,,,,,,,,,,,,,,,,,,,,,,,,,,,,,,,,,,,"MET09002/24/20 05:51:01 METAR KJFK 241051Z 17003KT 10SM CLR 03/01 A3008 RMK AO2 SLP184 T00280011","FM-15","7",,,,,,,,,,,,,,,,,,,,,,,,,,,,"2009-05-01"
"74486094789","2020-02-24T06:51:00","FM-15","7",,"ESE","1.5","mi","TEMP, PRECIP, SNOW",,,"PSY, SRG, SNOWBOARD",,,"FAA CWO",,,,,,,,,,,,,,,,,,,,,,,,,,,"30.07","35","37","0.00",,"-0.00","0","93","30.07","FEW:02 250","30.04","10.00","36","190",,"6",,,,,,,,,,,,,,,,,,,,,,,,,,,,,,,,,,,,,"MET11102/24/20 06:51:02 METAR KJFK 241151Z 19005KT 10SM FEW250 03/02 A3007 RMK AO2 SLP183 T00280017 10039 20011 50001","FM-15","7",,,,,,,,,,,,,,,,,,,,,,,,,,,,"2009-05-01"
"74486094789","2020-02-24T07:00:00","FM-12","4",,"ESE","1.5","mi","TEMP, PRECIP, SNOW",,,"PSY, SRG, SNOWBOARD",,,"FAA CWO",,,,,,,,,,,,,,,,,,,,,,,,,,,,"35","37",,,"0.00","9","93","30.07",,"30.04","9.94","36","190",,"6",,,,,,,,,,,,,,,,,,,,,,,,,,,,,,,,,,,,,"SYN08074486 32966 21905 10028 20017 30172 40183 50001 91151 333 10122 20011 555 92412=","FM-12","4",,,,,,,,,,,,,,,,,,,,,,,,,,,,"2009-05-01"
"74486094789","2020-02-24T07:51:00","FM-15","7",,"ESE","1.5","mi","TEMP, PRECIP, SNOW",,,"PSY, SRG, SNOWBOARD",,,"FAA CWO",,,,,,,,,,,,,,,,,,,,,,,,,,,"30.08","40","40","0.00",,,,"100","30.08","FEW:02 250","30.06","10.00","40","210",,"3",,,,,,,,,,,,,,,,,,,,,,,,,,,,,,,,,,,,,"MET09302/24/20 07:51:02 METAR KJFK 241251Z 21003KT 10SM FEW250 04/04 A3008 RMK AO2 SLP185 T00440044","FM-15","7",,,,,,,,,,,,,,,,,,,,,,,,,,,,"2009-05-01"
"74486094789","2020-02-24T08:51:00","FM-15","7",,"ESE","1.5","mi","TEMP, PRECIP, SNOW",,,"PSY, SRG, SNOWBOARD",,,"FAA CWO",,,,,,,,,,,,,,,,,,,,,,,,,,,"30.09","38","44","0.00",,,,"79","30.08","FEW:02 250","30.06","10.00","41","VRB",,"6",,,,,,,,,,,,,,,,,,,,,,,,,,,,,,,,,,,,,"MET09302/24/20 08:51:02 METAR KJFK 241351Z VRB05KT 10SM FEW250 07/03 A3009 RMK AO2 SLP187 T00670033","FM-15","7",,,,,,,,,,,,,,,,,,,,,,,,,,,,"2009-05-01"
"74486094789","2020-02-24T09:51:00","FM-15","7",,"ESE","1.5","mi","TEMP, PRECIP, SNOW",,,"PSY, SRG, SNOWBOARD",,,"FAA CWO",,,,,,,,,,,,,,,,,,,,,,,,,,,"30.08","38","46","0.00",,"-0.01","0","73","30.08","FEW:02 250","30.06","10.00","42","210",,"3",,,,,,,,,,,,,,,,,,,,,,,,,,,,,,,,,,,,,"MET09902/24/20 09:51:02 METAR KJFK 241451Z 21003KT 10SM FEW250 08/03 A3008 RMK AO2 SLP185 T00780033 50002","FM-15","7",,,,,,,,,,,,,,,,,,,,,,,,,,,,"2009-05-01"
"74486094789","2020-02-24T10:00:00","FM-12","4",,"ESE","1.5","mi","TEMP, PRECIP, SNOW",,,"PSY, SRG, SNOWBOARD",,,"FAA CWO",,,,,,,,,,,,,,,,,,,,,,,,,,,,"38","46",,,"0.01","9","73","30.08",,"30.05","9.94","42","210",,"3",,,,,,,,,,,,,,,,,,,,,,,,,,,,,,,,,,,,,"SYN06474486 32966 22103 10078 20033 30175 40185 50002 91451 555 92415=","FM-12","4",,,,,,,,,,,,,,,,,,,,,,,,,,,,"2009-05-01"
"74486094789","2020-02-24T10:51:00","FM-15","7",,"ESE","1.5","mi","TEMP, PRECIP, SNOW",,,"PSY, SRG, SNOWBOARD",,,"FAA CWO",,,,,,,,,,,,,,,,,,,,,,,,,,,"30.07","36","49","0.00",,,,"61","30.07","FEW:02 250","30.04","10.00","43","210",,"5",,,,,,,,,,,,,,,,,,,,,,,,,,,,,,,,,,,,,"MET09302/24/20 10:51:02 METAR KJFK 241551Z 21004KT 10SM FEW250 09/02 A3007 RMK AO2 SLP182 T00940022","FM-15","7",,,,,,,,,,,,,,,,,,,,,,,,,,,,"2009-05-01"
"74486094789","2020-02-24T11:51:00","FM-15","7",,"ESE","1.5","mi","TEMP, PRECIP, SNOW",,,"PSY, SRG, SNOWBOARD",,,"FAA CWO",,,,,,,,,,,,,,,,,,,,,,,,,,,"30.06","31","52","0.00",,,,"45","30.05","SCT:04 250","30.03","10.00","43","210",,"7",,,,,,,,,,,,,,,,,,,,,,,,,,,,,,,,,,,,,"MET09402/24/20 11:51:02 METAR KJFK 241651Z 21006KT 10SM SCT250 11/M01 A3006 RMK AO2 SLP177 T01111006","FM-15","7",,,,,,,,,,,,,,,,,,,,,,,,,,,,"2009-05-01"
"74486094789","2020-02-24T12:51:00","FM-15","7",,"ESE","1.5","mi","TEMP, PRECIP, SNOW",,,"PSY, SRG, SNOWBOARD",,,"FAA CWO",,,,,,,,,,,,,,,,,,,,,,,,,,,"30.04","31","52","0.00",,"+0.04","8","45","30.03","FEW:02 95 BKN:07 250","30.01","10.00","43","180",,"8",,,,,,,,,,,,,,,,,,,,,,,,,,,,,,,,,,,,,"MET11902/24/20 12:51:02 METAR KJFK 241751Z 18007KT 10SM FEW095 BKN250 11/M01 A3004 RMK AO2 SLP171 T01111006 10117 20022 58014","FM-15","7",,,,,,,,,,,,,,,,,,,,,,,,,,,,"2009-05-01"
"74486094789","2020-02-24T13:00:00","FM-12","4",,"ESE","1.5","mi","TEMP, PRECIP, SNOW",,,"PSY, SRG, SNOWBOARD",,,"FAA CWO",,,,,,,,,,,,,,,,,,,,,,,,,,,,"31","52",,,"+0.04","8","45","30.03",,"30.01","9.94","43","180",,"8",,,,,,,,,,,,,,,,,,,,,,,,,,,,,,,,,,,,,"SYN08074486 32966 61807 10111 21006 30161 40171 58014 91751 333 10117 20022 555 92418=","FM-12","4",,,,,,,,,,,,,,,,,,,,,,,,,,,,"2009-05-01"
"74486094789","2020-02-24T13:51:00","FM-15","7",,"ESE","1.5","mi","TEMP, PRECIP, SNOW",,,"PSY, SRG, SNOWBOARD",,,"FAA CWO",,,,,,,,,,,,,,,,,,,,,,,,,,,"30.02","34","52","0.00",,,,"50","30.02","FEW:02 95 FEW:02 150 BKN:07 250","30.00","10.00","44","170",,"10",,,,,,,,,,,,,,,,,,,,,,,,,,,,,,,,,,,,,"MET10702/24/20 13:51:02 METAR KJFK 241851Z 17009KT 10SM FEW095 FEW150 BKN250 11/01 A3002 RMK AO2 SLP165 T01110011","FM-15","7",,,,,,,,,,,,,,,,,,,,,,,,,,,,"2009-05-01"
"74486094789","2020-02-24T14:51:00","FM-15","7",,"ESE","1.5","mi","TEMP, PRECIP, SNOW",,,"PSY, SRG, SNOWBOARD",,,"FAA CWO",,,,,,,,,,,,,,,,,,,,,,,,,,,"30.01","36","51","0.00",,,,"56","30.01","FEW:02 60 BKN:07 95 BKN:07 250","29.98","10.00","44","160",,"8",,,,,,,,,,,,,,,,,,,,,,,,,,,,,,,,,,,,,"MET10702/24/20 14:51:02 METAR KJFK 241951Z 16007KT 10SM FEW060 BKN095 BKN250 11/02 A3001 RMK AO2 SLP161 T01060022","FM-15","7",,,,,,,,,,,,,,,,,,,,,,,,,,,,"2009-05-01"
"74486094789","2020-02-24T15:51:00","FM-15","7",,"ESE","1.5","mi","TEMP, PRECIP, SNOW",,,"PSY, SRG, SNOWBOARD",,,"FAA CWO",,,,,,,,,,,,,,,,,,,,,,,,,,,"29.99","39","48","0.00",,"+0.05","8","71","29.98","FEW:02 80 SCT:04 95 BKN:07 250","29.96","10.00","44","150",,"7",,,,,,,,,,,,,,,,,,,,,,,,,,,,,,,,,,,,,"MET11302/24/20 15:51:02 METAR KJFK 242051Z 15006KT 10SM FEW080 SCT095 BKN250 09/04 A2999 RMK AO2 SLP154 T00890039 58017","FM-15","7",,,,,,,,,,,,,,,,,,,,,,,,,,,,"2009-05-01"
"74486094789","2020-02-24T16:00:00","FM-12","4",,"ESE","1.5","mi","TEMP, PRECIP, SNOW",,,"PSY, SRG, SNOWBOARD",,,"FAA CWO",,,,,,,,,,,,,,,,,,,,,,,,,,,,"39","48",,,"+0.05","8","71","29.98","74","29.96","9.94","44","150",,"7",,,,,,,,,,,,,,,,,,,,,,,,,,,,,,,,,,,,,"SYN06474486 32866 61506 10089 20039 30144 40154 58017 92051 555 92421=","FM-12","4",,,,,,,,,,,,,,,,,,,,,,,,,,,,"2009-05-01"
"74486094789","2020-02-24T16:51:00","FM-15","7",,"ESE","1.5","mi","TEMP, PRECIP, SNOW",,,"PSY, SRG, SNOWBOARD",,,"FAA CWO",,,,,,,,,,,,,,,,,,,,,,,,,,,"29.97","38","47","0.00",,,,"71","29.97","SCT:04 95 BKN:07 250","29.95","10.00","43","150",,"7",,,,,,,,,,,,,,,,,,,,,,,,,,,,,,,,,,,,,"MET10002/24/20 16:51:02 METAR KJFK 242151Z 15006KT 10SM SCT095 BKN250 08/03 A2997 RMK AO2 SLP149 T00830033","FM-15","7",,,,,,,,,,,,,,,,,,,,,,,,,,,,"2009-05-01"
"74486094789","2020-02-24T17:51:00","FM-15","7",,"ESE","1.5","mi","TEMP, PRECIP, SNOW",,,"PSY, SRG, SNOWBOARD",,,"FAA CWO",,,,,,,,,,,,,,,,,,,,,,,,,,,"29.96","38","46","0.00",,,,"73","29.96","FEW:02 95 SCT:04 180 BKN:07 230","29.93","10.00","42","170",,"6",,,,,,,,,,,,,,,,,,,,,,,,,,,,,,,,,,,,,"MET10702/24/20 17:51:02 METAR KJFK 242251Z 17005KT 10SM FEW095 SCT180 BKN230 08/03 A2996 RMK AO2 SLP145 T00780033","FM-15","7",,,,,,,,,,,,,,,,,,,,,,,,,,,,"2009-05-01"
"74486094789","2020-02-24T18:51:00","FM-15","7",,"ESE","1.5","mi","TEMP, PRECIP, SNOW",,,"PSY, SRG, SNOWBOARD",,,"FAA CWO",,,,,,,,,,,,,,,,,,,,,,,,,,,"29.99","39","44","0.00",,"-0.01","3","83","29.99","FEW:02 100 BKN:07 180 BKN:07 230","29.96","10.00","42","220",,"5",,,,,,,,,,,,,,,,,,,,,,,,,,,,,,,,,,,,,"MET12502/24/20 18:51:02 METAR KJFK 242351Z 22004KT 10SM FEW100 BKN180 BKN230 07/04 A2999 RMK AO2 SLP156 T00670039 10122 20067 53002","FM-15","7",,,,,,,,,,,,,,,,,,,,,,,,,,,,"2009-05-01"
"74486094789","2020-02-24T19:00:00","FM-12","4",,"ESE","1.5","mi","TEMP, PRECIP, SNOW",,,"PSY, SRG, SNOWBOARD",,,"FAA CWO",,,,,,,,,,,,,,,,,,,,,,,,,,,,"39","44",,,"-0.01","3","83","29.99",,"29.96","9.94","42","220",,"5",,,,,,,,,,,,,,,,,,,,,,,,,,,,,,,,,,,,,"SYN08074486 32966 62204 10067 20039 30144 40156 53002 92351 333 10122 20011 555 92500=","FM-12","4",,,,,,,,,,,,,,,,,,,,,,,,,,,,"2009-05-01"
"74486094789","2020-02-24T19:51:00","FM-15","7",,"ESE","1.5","mi","TEMP, PRECIP, SNOW",,,"PSY, SRG, SNOWBOARD",,,"FAA CWO",,,,,,,,,,,,,,,,,,,,,,,,,,,"29.97","40","44","0.00",,,,"85","29.96","SCT:04 170 BKN:07 230","29.95","10.00","42","190",,"9",,,,,,,,,,,,,,,,,,,,,,,,,,,,,,,,,,,,,"MET10002/24/20 19:51:01 METAR KJFK 250051Z 19008KT 10SM SCT170 BKN230 07/04 A2997 RMK AO2 SLP147 T00670044","FM-15","7",,,,,,,,,,,,,,,,,,,,,,,,,,,,"2009-05-01"
"74486094789","2020-02-24T20:51:00","FM-15","7",,"ESE","1.5","mi","TEMP, PRECIP, SNOW",,,"PSY, SRG, SNOWBOARD",,,"FAA CWO",,,,,,,,,,,,,,,,,,,,,,,,,,,"29.96","42","44","0.00",,,,"93","29.96","BKN:07 110 BKN:07 190 OVC:08 230","29.93","10.00","43","180",,"6",,,,,,,,,,,,,,,,,,,,,,,,,,,,,,,,,,,,,"MET10702/24/20 20:51:01 METAR KJFK 250151Z 18005KT 10SM BKN110 BKN190 OVC230 07/06 A2996 RMK AO2 SLP144 T00670056","FM-15","7",,,,,,,,,,,,,,,,,,,,,,,,,,,,"2009-05-01"
"74486094789","2020-02-24T21:51:00","FM-15","7",,"ESE","1.5","mi","TEMP, PRECIP, SNOW",,,"PSY, SRG, SNOWBOARD",,,"FAA CWO",,,,,,,,,,,,,,,,,,,,,,,,,,,"29.97","42","45","0.00",,"+0.02","5","90","29.97","OVC:08 100","29.95","10.00","44","200",,"9",,,,,,,,,,,,,,,,,,,,,,,,,,,,,,,,,,,,,"MET09902/24/20 21:51:01 METAR KJFK 250251Z 20008KT 10SM OVC100 07/06 A2997 RMK AO2 SLP148 T00720056 55008","FM-15","7",,,,,,,,,,,,,,,,,,,,,,,,,,,,"2009-05-01"
"74486094789","2020-02-24T22:00:00","FM-12","4",,"ESE","1.5","mi","TEMP, PRECIP, SNOW",,,"PSY, SRG, SNOWBOARD",,,"FAA CWO",,,,,,,,,,,,,,,,,,,,,,,,,,,,"42","45",,,"+0.02","5","90","29.97",,"29.94","9.94","44","200",,"9",,,,,,,,,,,,,,,,,,,,,,,,,,,,,,,,,,,,,"SYN06474486 32966 82008 10072 20056 30138 40148 55008 90251 555 92503=","FM-12","4",,,,,,,,,,,,,,,,,,,,,,,,,,,,"2009-05-01"
"74486094789","2020-02-24T22:51:00","FM-15","7",,"ESE","1.5","mi","TEMP, PRECIP, SNOW",,,"PSY, SRG, SNOWBOARD",,,"FAA CWO",,,,,,,,,,,,,,,,,,,,,,,,,,,"29.96","41","45","0.00",,,,"86","29.95","OVC:08 100","29.93","10.00","43","200",,"8",,,,,,,,,,,,,,,,,,,,,,,,,,,,,,,,,,,,,"MET09302/24/20 22:51:01 METAR KJFK 250351Z 20007KT 10SM OVC100 07/05 A2996 RMK AO2 SLP143 T00720050","FM-15","7",,,,,,,,,,,,,,,,,,,,,,,,,,,,"2009-05-01"
"74486094789","2020-02-24T23:51:00","FM-15","7",,"ESE","1.5","mi","TEMP, PRECIP, SNOW",,,"PSY, SRG, SNOWBOARD",,,"FAA CWO",,,,,,,,,,,,,,,,,,,,,,,,,,,"29.95","41","44","0.00",,,,"89","29.94","OVC:08 100","29.93","10.00","43","180",,"8",,,,,,,,,,,,,,,,,,,,,,,,,,,,,,,,,,,,,"MET10302/24/20 23:51:01 METAR KJFK 250451Z 18007KT 10SM OVC100 07/05 A2995 RMK AO2 SLP140 T00670050 401220011","FM-15","7",,,,,,,,,,,,,,,,,,,,,,,,,,,,"2009-05-01"
"74486094789","2020-02-24T23:59:00","SOD  ","6",,"ESE","1.5","mi","TEMP, PRECIP, SNOW",,,"PSY, SRG, SNOWBOARD",,,"FAA CWO",,,,"36","44","77","30.03","30.01","41","6.5","0","7.5","21","54","34","190","16","0.00","0","0.0","190","14",,,,,,,,,,,,,,,,,,,,,,,,,,,,,,,,,,,,,,,,,,,,,,,,,,,,,,,,,"SOD74324 HR PRECIPITATION (IN): 0.00 SNOW DEPTH (IN):0     24 HR SNOWFALL (IN):0.0  24 HR MAX TEMP (F): 5424 HR MIN TEMP (F): 34AVERAGE STATION PRESSURE(D):30.008 MINIMUM SEA LEVEL PRESSURE:29.94 TIME OF OCCURRENCE:2359 PEAK WIND SPEED (MPH): 16 PEAK WIND DIR (DEG):190 PEAK WIND TIME (LST):      FASTEST 2MIN SPEED (MPH): 14FASTEST 2MIN DIR (DEG):190 FASTEST 2MIN TIME (LST):     AVERAGE WIND SPEED (MPH): 6.5 24 HR AVG TEMP (F): 44DEPART FROM NORMAL:  8  HEATING DEGREE DAYS: 21 COOLING DEGREE DAYS:  0 LATEST DAY MAX TEMP (0700-1900 LST): 54 LATEST NIGHT MIN TEMP(1900-0800 LST):34 HOURLY INCREMENTAL PRECIPITATION VALUES (IN):0.00 0.00 0.00 0.00 0.00 0.00 0.00 0.00 0.00 0.00 0.00 0.00 0.00 0.00 0.00 0.00 0.00 0.00 0.00 0.00 0.00 0.00 0.00 0.00","SOD  ","6",,,,,,,,,,,,,,,,,,,,,,,,,"0637","1740",,"2009-05-01"
"74486094789","2020-02-25T00:51:00","FM-15","7",,"ESE","1.5","mi","TEMP, PRECIP, SNOW",,,"PSY, SRG, SNOWBOARD",,,"FAA CWO",,,,,,,,,,,,,,,,,,,,,,,,,,,"29.93","41","43","0.00",,"+0.04","8","93","29.93","BKN:07 130 OVC:08 210","29.91","10.00","42","190",,"9",,,,,,,,,,,,,,,,,,,,,,,,,,,,,,,,,,,,,"MET11802/25/20 00:51:01 METAR KJFK 250551Z 19008KT 10SM BKN130 OVC210 06/05 A2993 RMK AO2 SLP135 T00610050 10072 20061 58013","FM-15","7",,,,,,,,,,,,,,,,,,,,,,,,,,,,"2009-05-01"
"74486094789","2020-02-25T01:00:00","FM-12","4",,"ESE","1.5","mi","TEMP, PRECIP, SNOW",,,"PSY, SRG, SNOWBOARD",,,"FAA CWO",,,,,,,,,,,,,,,,,,,,,,,,,,,,"41","43",,,"+0.04","8","93","29.93",,"29.90","9.94","42","190",,"9",,,,,,,,,,,,,,,,,,,,,,,,,,,,,,,,,,,,,"SYN08074486 32966 81908 10061 20050 30124 40135 58013 90551 333 10072 20011 555 92506=","FM-12","4",,,,,,,,,,,,,,,,,,,,,,,,,,,,"2009-05-01"
"74486094789","2020-02-25T01:51:00","FM-15","7",,"ESE","1.5","mi","TEMP, PRECIP, SNOW",,,"PSY, SRG, SNOWBOARD",,,"FAA CWO",,,,,,,,,,,,,,,,,,,,,,,,,,,"29.93","42","43","0.00",,,,"97","29.92","SCT:04 100 BKN:07 150 OVC:08 190","29.91","10.00","43","180",,"6",,,,,,,,,,,,,,,,,,,,,,,,,,,,,,,,,,,,,"MET10702/25/20 01:51:01 METAR KJFK 250651Z 18005KT 10SM SCT100 BKN150 OVC190 06/06 A2993 RMK AO2 SLP133 T00610056","FM-15","7",,,,,,,,,,,,,,,,,,,,,,,,,,,,"2009-05-01"
"74486094789","2020-02-25T02:51:00","FM-15","7",,"ESE","1.5","mi","TEMP, PRECIP, SNOW",,,"PSY, SRG, SNOWBOARD",,,"FAA CWO",,,,,,,,,,,,,,,,,,,,,,,,,,,"29.91","43","43","0.00",,,,"100","29.91","FEW:02 90 OVC:08 110","29.88","10.00","43","180",,"6",,,,,,,,,,,,,,,,,,,,,,,,,,,,,,,,,,,,,"MET10002/25/20 02:51:01 METAR KJFK 250751Z 18005KT 10SM FEW090 OVC110 06/06 A2991 RMK AO2 SLP129 T00610061","FM-15","7",,,,,,,,,,,,,,,,,,,,,,,,,,,,"2009-05-01"
"74486094789","2020-02-25T03:51:00","FM-15","7",,"ESE","1.5","mi","TEMP, PRECIP, SNOW",,,"PSY, SRG, SNOWBOARD",,,"FAA CWO",,,,,,,,,,,,,,,,,,,,,,,,,,,"29.90","42","43","0.00",,"+0.03","8","97","29.90","SCT:04 95 OVC:08 140","29.88","10.00","43","170",,"7",,,,,,,,,,,,,,,,,,,,,,,,,,,,,,,,,,,,,"MET10602/25/20 03:51:01 METAR KJFK 250851Z 17006KT 10SM SCT095 OVC140 06/06 A2990 RMK AO2 SLP126 T00610056 58009","FM-15","7",,,,,,,,,,,,,,,,,,,,,,,,,,,,"2009-05-01"
"74486094789","2020-02-25T04:00:00","FM-12","4",,"ESE","1.5","mi","TEMP, PRECIP, SNOW",,,"PSY, SRG, SNOWBOARD",,,"FAA CWO",,,,,,,,,,,,,,,,,,,,,,,,,,,,"42","43",,,"+0.03","8","97","29.90",,"29.87","9.94","43","170",,"7",,,,,,,,,,,,,,,,,,,,,,,,,,,,,,,,,,,,,"SYN06474486 32966 81706 10061 20056 30114 40126 58009 90851 555 92509=","FM-12","4",,,,,,,,,,,,,,,,,,,,,,,,,,,,"2009-05-01"
"74486094789","2020-02-25T04:51:00","FM-15","7",,"ESE","1.5","mi","TEMP, PRECIP, SNOW",,,"PSY, SRG, SNOWBOARD",,,"FAA CWO",,,,,,,,,,,,,,,,,,,,,,,,,,,"29.91","42","42","0.00",,,,"100","29.91","SCT:04 85 OVC:08 130","29.88","10.00","42","190",,"3",,,,,,,,,,,,,,,,,,,,,,,,,,,,,,,,,,,,,"MET10002/25/20 04:51:01 METAR KJFK 250951Z 19003KT 10SM SCT085 OVC130 06/06 A2991 RMK AO2 SLP127 T00560056","FM-15","7",,,,,,,,,,,,,,,,,,,,,,,,,,,,"2009-05-01"
"74486094789","2020-02-25T05:51:00","FM-15","7",,"ESE","1.5","mi","TEMP, PRECIP, SNOW",,,"PSY, SRG, SNOWBOARD",,,"FAA CWO",,,,,,,,,,,,,,,,,,,,,,,,,,,"29.89","43","44","0.00",,,,"96","29.89","OVC:08 110","29.87","10.00","44","180",,"3",,,,,,,,,,,,,,,,,,,,,,,,,,,,,,,,,,,,,"MET09302/25/20 05:51:01 METAR KJFK 251051Z 18003KT 10SM OVC110 07/06 A2989 RMK AO2 SLP122 T00670061","FM-15","7",,,,,,,,,,,,,,,,,,,,,,,,,,,,"2009-05-01"
"74486094789","2020-02-25T06:51:00","FM-15","7",,"ESE","1.5","mi","TEMP, PRECIP, SNOW",,,"PSY, SRG, SNOWBOARD",,,"FAA CWO",,,,,,,,,,,,,,,,,,,,,,,,,,,"29.91","42","43","0.00",,"-0.00","3","97","29.91","FEW:02 80 BKN:07 100 OVC:08 160","29.88","10.00","43","200",,"7",,,,,,,,,,,,,,,,,,,,,,,,,,,,,,,,,,,,,"MET12502/25/20 06:51:02 METAR KJFK 251151Z 20006KT 10SM FEW080 BKN100 OVC160 06/06 A2991 RMK AO2 SLP127 T00610056 10067 20056 53001","FM-15","7",,,,,,,,,,,,,,,,,,,,,,,,,,,,"2009-05-01"
"74486094789","2020-02-25T07:00:00","FM-12","4",,"ESE","1.5","mi","TEMP, PRECIP, SNOW",,,"PSY, SRG, SNOWBOARD",,,"FAA CWO",,,,,,,,,,,,,,,,,,,,,,,,,,,,"42","43",,,"-0.00","3","97","29.91","74","29.88","9.94","43","200",,"7",,,,,,,,,,,,,,,,,,,,,,,,,,,,,,,,,,,,,"SYN08074486 32866 82006 10061 20056 30117 40127 53001 91151 333 10122 20056 555 92512=","FM-12","4",,,,,,,,,,,,,,,,,,,,,,,,,,,,"2009-05-01"
"74486094789","2020-02-25T07:51:00","FM-15","7",,"ESE","1.5","mi","TEMP, PRECIP, SNOW",,,"PSY, SRG, SNOWBOARD",,,"FAA CWO",,,,,,,,,,,,,,,,,,,,,,,,,,,"29.90","44","46","0.00",,,,"93","29.89","SCT:04 80 BKN:07 120 OVC:08 160","29.88","10.00","45","160",,"5",,,,,,,,,,,,,,,,,,,,,,,,,,,,,,,,,,,,,"MET10702/25/20 07:51:02 METAR KJFK 251251Z 16004KT 10SM SCT080 BKN120 OVC160 08/07 A2990 RMK AO2 SLP123 T00780067","FM-15","7",,,,,,,,,,,,,,,,,,,,,,,,,,,,"2009-05-01"
"74486094789","2020-02-25T08:51:00","FM-15","7",,"ESE","1.5","mi","TEMP, PRECIP, SNOW",,,"PSY, SRG, SNOWBOARD",,,"FAA CWO",,,,,,,,,,,,,,,,,,,,,,,,,,,"29.90","44","46","0.00",,,,"93","29.90","BKN:07 85 OVC:08 140","29.88","10.00","45","200",,"6",,,,,,,,,,,,,,,,,,,,,,,,,,,,,,,,,,,,,"MET10002/25/20 08:51:02 METAR KJFK 251351Z 20005KT 10SM BKN085 OVC140 08/07 A2990 RMK AO2 SLP125 T00780067","FM-15","7",,,,,,,,,,,,,,,,,,,,,,,,,,,,"2009-05-01"
"74486094789","2020-02-25T09:51:00","FM-15","7",,"ESE","1.5","mi","TEMP, PRECIP, SNOW",,,"PSY, SRG, SNOWBOARD",,,"FAA CWO",,,,,,,,,,,,,,,,,,,,,,,,,,,"29.91","45","46","T",,"-0.01","3","96","29.91","BKN:07 65 OVC:08 140","29.88","10.00","46","190",,"7",,,,,,,,,,,,,,,,,,,,,,,,,,,,,,,,,,,,,"MET12702/25/20 09:51:02 METAR KJFK 251451Z 19006KT 10SM BKN065 OVC140 08/07 A2991 RMK AO2 RAB08E18 SLP129 P0000 60000 T00780072 53002","FM-15","7",,,,,,,,,,,,,,,,,,,,,,,,,,,,"2009-05-01"
"74486094789","2020-02-25T10:00:00","FM-12","4",,"ESE","1.5","mi","TEMP, PRECIP, SNOW",,,"PSY, SRG, SNOWBOARD",,,"FAA CWO",,,,,,,,,,,,,,,,,,,,,,,,,,,,"45","46",,,"-0.01","3","96","29.91","57","29.88","9.94","46","190",,"7",,,,,,,,,,,,,,,,,,,,,,,,,,,,,,,,,,,,,"SYN07074486 12766 81906 10078 20072 30117 40129 53002 69907 91451 555 92515=","FM-12","4",,,,,,,,,,,,,,,,,,,,,,,,,,,,"2009-05-01"
"74486094789","2020-02-25T10:51:00","FM-15","7",,"ESE","1.5","mi","TEMP, PRECIP, SNOW",,,"PSY, SRG, SNOWBOARD",,,"FAA CWO",,,,,,,,,,,,,,,,,,,,,,,,,,,"29.91","45","47","0.00",,,,"93","29.91","OVC:08 55","29.88","10.00","46","190",,"8",,,,,,,,,,,,,,,,,,,,,,,,,,,,,,,,,,,,,"MET09302/25/20 10:51:02 METAR KJFK 251551Z 19007KT 10SM OVC055 08/07 A2991 RMK AO2 SLP127 T00830072","FM-15","7",,,,,,,,,,,,,,,,,,,,,,,,,,,,"2009-05-01"
"74486094789","2020-02-25T11:51:00","FM-15","7",,"ESE","1.5","mi","TEMP, PRECIP, SNOW",,,"PSY, SRG, SNOWBOARD",,,"FAA CWO",,,,,,,,,,,,,,,,,,,,,,,,,,,"29.89","44","49","T",,,,"83","29.88","BKN:07 48 OVC:08 70","29.87","10.00","47","190",,"6",,,,,,,,,,,,,,,,,,,,,,,,,,,,,,,,,,,,,"MET10002/25/20 11:51:02 METAR KJFK 251651Z 19005KT 10SM BKN048 OVC070 09/07 A2989 RMK AO2 SLP120 T00940067","FM-15","7",,,,,,,,,,,,,,,,,,,,,,,,,,,,"2009-05-01"
"74486094789","2020-02-25T12:33:00","FM-16","7",,"ESE","1.5","mi","TEMP, PRECIP, SNOW",,,"PSY, SRG, SNOWBOARD",,,"FAA CWO",,,,,,,,,,,,,,,,,,,,,,,,,,,"29.87","46","47","0.02","RA:02 BR:1 |RA |RA",,,"97",,"FEW:02 16 BKN:07 43 OVC:08 70","29.85","5.00","47","180",,"3",,,,,,,,,,,,,,,,,,,,,,,,,,,,,,,,,,,,,"MET11902/25/20 12:33:02 SPECI KJFK 251733Z 18003KT 5SM RA BR FEW016 BKN043 OVC070 08/08 A2987 RMK AO2 RAB1656 P0002 T00830078","FM-16","7",,,,,,,,,,,,,,,,,,,,,,,,,,,,"2009-05-01"
"74486094789","2020-02-25T12:51:00","FM-15","7",,"ESE","1.5","mi","TEMP, PRECIP, SNOW",,,"PSY, SRG, SNOWBOARD",,,"FAA CWO",,,,,,,,,,,,,,,,,,,,,,,,,,,"29.87","46","47","0.04s","-RA:02 BR:1 |RA |RA","+0.04","8","97","29.87","FEW:02 16 BKN:07 41 OVC:08 85","29.85","5.00","47","200",,"5",,,,,,,,,,,,,,,,,,,,,,,,,,,,,,,,,,,,,"MET15102/25/20 12:51:02 METAR KJFK 251751Z 20004KT 5SM -RA BR FEW016 BKN041 OVC085 08/08 A2987 RMK AO2 RAB1656 SLP115 P0003 60003 T00830078 10094 20061 58013","FM-15","7",,,,,,,,,,,,,,,,,,,,,,,,,,,,"2009-05-01"
"74486094789","2020-02-25T13:00:00","FM-12","4",,"ESE","1.5","mi","TEMP, PRECIP, SNOW",,,"PSY, SRG, SNOWBOARD",,,"FAA CWO",,,,,,,,,,,,,,,,,,,,,,,,,,,,"46","47",,"||RA","+0.04","8","97","29.87","15","29.84","4.97","47","200",,"5",,,,,,,,,,,,,,,,,,,,,,,,,,,,,,,,,,,,,"SYN09874486 11458 82004 10083 20078 30104 40115 58013 69981 761// 91751 333 10094 20061 96010 555 92518=","FM-12","4",,,,,,,,,,,,,,,,,,,,,,,,,,,,"2009-05-01"
"74486094789","2020-02-25T13:14:00","FM-16","7",,"ESE","1.5","mi","TEMP, PRECIP, SNOW",,,"PSY, SRG, SNOWBOARD",,,"FAA CWO",,,,,,,,,,,,,,,,,,,,,,,,,,,"29.87","48","48","0.02","-RA:02 |RA |RA",,,"100",,"FEW:02 7 SCT:04 16 OVC:08 38","29.85","7.00","48","000",,"0",,,,,,,,,,,,,,,,,,,,,,,,,,,,,,,,,,,,,"MET10902/25/20 13:14:02 SPECI KJFK 251814Z 00000KT 7SM -RA FEW007 SCT016 OVC038 09/09 A2987 RMK AO2 P0002 T00890089","FM-16","7",,,,,,,,,,,,,,,,,,,,,,,,,,,,"2009-05-01"
"74486094789","2020-02-25T13:51:00","FM-15","7",,"ESE","1.5","mi","TEMP, PRECIP, SNOW",,,"PSY, SRG, SNOWBOARD",,,"FAA CWO",,,,,,,,,,,,,,,,,,,,,,,,,,,"29.86","47","47","0.01","-RA:02 BR:1 |RA |RA",,,"100","29.86","SCT:04 6 BKN:07 34 OVC:08 48","29.83","6.00","47","220",,"5",,,,,,,,,,,,,,,,,,,,,,,,,,,,,,,,,,,,,"MET11902/25/20 13:51:02 METAR KJFK 251851Z 22004KT 6SM -RA BR SCT006 BKN034 OVC048 08/08 A2986 RMK AO2 SLP111 P0002 T00830083","FM-15","7",,,,,,,,,,,,,,,,,,,,,,,,,,,,"2009-05-01"
"74486094789","2020-02-25T14:51:00","FM-15","7",,"ESE","1.5","mi","TEMP, PRECIP, SNOW",,,"PSY, SRG, SNOWBOARD",,,"FAA CWO",,,,,,,,,,,,,,,,,,,,,,,,,,,"29.84","47","48","0.02","-RA:02 BR:1 |RA |RA",,,"96","29.84","FEW:02 8 SCT:04 18 OVC:08 50","29.82","6.00","48","120",,"5",,,,,,,,,,,,,,,,,,,,,,,,,,,,,,,,,,,,,"MET11902/25/20 14:51:02 METAR KJFK 251951Z 12004KT 6SM -RA BR FEW008 SCT018 OVC050 09/08 A2984 RMK AO2 SLP105 P0001 T00890083","FM-15","7",,,,,,,,,,,,,,,,,,,,,,,,,,,,"2009-05-01"
"74486094789","2020-02-25T15:51:00","FM-15","7",,"ESE","1.5","mi","TEMP, PRECIP, SNOW",,,"PSY, SRG, SNOWBOARD",,,"FAA CWO",,,,,,,,,,,,,,,,,,,,,,,,,,,"29.85","46","47","0.03","-RA:02 BR:1 |RA |RA","+0.02","5","97","29.85","FEW:02 9 SCT:04 16 OVC:08 33","29.83","5.00","47","120",,"5",,,,,,,,,,,,,,,,,,,,,,,,,,,,,,,,,,,,,"MET13102/25/20 15:51:02 METAR KJFK 252051Z 12004KT 5SM -RA BR FEW009 SCT016 OVC033 08/08 A2985 RMK AO2 SLP107 P0003 60006 T00830078 55008","FM-15","7",,,,,,,,,,,,,,,,,,,,,,,,,,,,"2009-05-01"
"74486094789","2020-02-25T16:00:00","FM-12","4",,"ESE","1.5","mi","TEMP, PRECIP, SNOW",,,"PSY, SRG, SNOWBOARD",,,"FAA CWO",,,,,,,,,,,,,,,,,,,,,,,,,,,,"46","47",,"||RA","+0.02","5","97","29.85","8","29.82","4.97","47","120",,"5",,,,,,,,,,,,,,,,,,,,,,,,,,,,,,,,,,,,,"SYN08674486 11358 81204 10083 20078 30097 40107 55008 60027 761// 92051 333 96010 555 92521=","FM-12","4",,,,,,,,,,,,,,,,,,,,,,,,,,,,"2009-05-01"
"74486094789","2020-02-25T16:25:00","FM-16","7",,"ESE","1.5","mi","TEMP, PRECIP, SNOW",,,"PSY, SRG, SNOWBOARD",,,"FAA CWO",,,,,,,,,,,,,,,,,,,,,,,,,,,"29.85","46","47","0.01","BR:1 ||",,,"97",,"FEW:02 8 FEW:02 12 OVC:08 29","29.83","5.00","47","130",,"6",,,,,,,,,,,,,,,,,,,,,,,,,,,,,,,,,,,,,"MET11402/25/20 16:25:02 SPECI KJFK 252125Z 13005KT 5SM BR FEW008 FEW012 OVC029 08/08 A2985 RMK AO2 RAE14 P0001 T00830078","FM-16","7",,,,,,,,,,,,,,,,,,,,,,,,,,,,"2009-05-01"
"74486094789","2020-02-25T16:51:00","FM-15","7",,"ESE","1.5","mi","TEMP, PRECIP, SNOW",,,"PSY, SRG, SNOWBOARD",,,"FAA CWO",,,,,,,,,,,,,,,,,,,,,,,,,,,"29.86","46","47","0.01","-RA:02 BR:1 |RA |RA",,,"97","29.85","BKN:07 7 BKN:07 29 OVC:08 35","29.83","4.00","47","120",,"3",,,,,,,,,,,,,,,,,,,,,,,,,,,,,,,,,,,,,"MET12802/25/20 16:51:02 METAR KJFK 252151Z 12003KT 4SM -RA BR BKN007 BKN029 OVC035 08/08 A2986 RMK AO2 RAE14B30 SLP110 P0001 T00830078","FM-15","7",,,,,,,,,,,,,,,,,,,,,,,,,,,,"2009-05-01"
"74486094789","2020-02-25T17:22:00","FM-16","7",,"ESE","1.5","mi","TEMP, PRECIP, SNOW",,,"PSY, SRG, SNOWBOARD",,,"FAA CWO",,,,,,,,,,,,,,,,,,,,,,,,,,,"29.87","46","46","0.02","RA:02 BR:1 |RA |RA",,,"100",,"SCT:04 5 BKN:07 11 OVC:08 20","29.85","3.00","46","110",,"3",,,,,,,,,,,,,,,,,,,,,,,,,,,,,,,,,,,,,"MET12902/25/20 17:22:02 SPECI KJFK 252222Z 11003KT 3SM R04R/6000VP6000FT RA BR SCT005 BKN011 OVC020 08/08 A2987 RMK AO2 P0002 T00780078","FM-16","7",,,,,,,,,,,,,,,,,,,,,,,,,,,,"2009-05-01"
"74486094789","2020-02-25T17:51:00","FM-15","7",,"ESE","1.5","mi","TEMP, PRECIP, SNOW",,,"PSY, SRG, SNOWBOARD",,,"FAA CWO",,,,,,,,,,,,,,,,,,,,,,,,,,,"29.87","46","46","0.02","BR:1 ||",,,"100","29.87","BKN:07 7 BKN:07 11 OVC:08 26","29.85","3.00V","46","000",,"0",,,,,,,,,,,,,,,,,,,,,,,,,,,,,,,,,,,,,"MET14302/25/20 17:51:02 METAR KJFK 252251Z 00000KT 3SM BR BKN007 BKN011 OVC026 08/08 A2987 RMK AO2 SFC VIS 5 VIS 1 1/2 W RAE50 SLP115 P0003 T00780078","FM-15","7",,,,,,,,,,,,,,,,,,,,,,,,,,,,"2009-05-01"
"74486094789","2020-02-25T18:51:00","FM-15","7",,"ESE","1.5","mi","TEMP, PRECIP, SNOW",,,"PSY, SRG, SNOWBOARD",,,"FAA CWO",,,,,,,,,,,,,,,,,,,,,,,,,,,"29.89","46","46","0.04","-RA:02 BR:1 |RA |RA","-0.04","3","100","29.89","BKN:07 6 OVC:08 17","29.87","3.00","46","000",,"0",,,,,,,,,,,,,,,,,,,,,,,,,,,,,,,,,,,,,"MET14202/25/20 18:51:02 METAR KJFK 252351Z 00000KT 3SM -RA BR BKN006 OVC017 08/08 A2989 RMK AO2 RAB12 SLP122 P0003 60013 T00780078 10089 20078 53015","FM-15","7",,,,,,,,,,,,,,,,,,,,,,,,,,,,"2009-05-01"
"74486094789","2020-02-25T19:00:00","FM-12","4",,"ESE","1.5","mi","TEMP, PRECIP, SNOW",,,"PSY, SRG, SNOWBOARD",,,"FAA CWO",,,,,,,,,,,,,,,,,,,,,,,,,,,,"46","46",,"||RA","-0.04","3","100","29.89","5","29.86","2.98","46","000",,"0",,,,,,,,,,,,,,,,,,,,,,,,,,,,,,,,,,,,,"SYN09874486 11248 80000 10078 20078 30111 40122 53015 60031 761// 92351 333 10094 20056 96010 555 92600=","FM-12","4",,,,,,,,,,,,,,,,,,,,,,,,,,,,"2009-05-01"
"74486094789","2020-02-25T19:51:00","FM-15","7",,"ESE","1.5","mi","TEMP, PRECIP, SNOW",,,"PSY, SRG, SNOWBOARD",,,"FAA CWO",,,,,,,,,,,,,,,,,,,,,,,,,,,"29.89","46","46","0.01",,,,"100","29.89","BKN:07 8 BKN:07 20 OVC:08 36","29.87","3.00","46","060",,"5",,,,,,,,,,,,,,,,,,,,,,,,,,,,,,,,,,,,,"MET12802/25/20 19:51:01 METAR KJFK 260051Z 06004KT 3SM BKN008 BKN020 OVC036 08/08 A2989 RMK AO2 SFC VIS 7 RAE26 SLP121 P0002 T00780078","FM-15","7",,,,,,,,,,,,,,,,,,,,,,,,,,,,"2009-05-01"
"74486094789","2020-02-25T20:51:00","FM-15","7",,"ESE","1.5","mi","TEMP, PRECIP, SNOW",,,"PSY, SRG, SNOWBOARD",,,"FAA CWO",,,,,,,,,,,,,,,,,,,,,,,,,,,"29.89","46","46","0.01","BR:1 ||",,,"100","29.89","BKN:07 8 BKN:07 11 OVC:08 20","29.87","3.00","46","050",,"8",,,,,,,,,,,,,,,,,,,,,,,,,,,,,,,,,,,,,"MET14702/25/20 20:51:01 METAR KJFK 260151Z 05007KT 3SM BR BKN008 BKN011 OVC020 08/08 A2989 RMK AO2 SFC VIS 4 RAB13E39 SLP121 BKN008 V SCT P0001 T00780078","FM-15","7",,,,,,,,,,,,,,,,,,,,,,,,,,,,"2009-05-01"
"74486094789","2020-02-25T21:51:00","FM-15","7",,"ESE","1.5","mi","TEMP, PRECIP, SNOW",,,"PSY, SRG, SNOWBOARD",,,"FAA CWO",,,,,,,,,,,,,,,,,,,,,,,,,,,"29.89","46","46","0.00",,"+0.00","5","100","29.89","BKN:07 7 OVC:08 21","29.87","10.00","46","040",,"6",,,,,,,,,,,,,,,,,,,,,,,,,,,,,,,,,,,,,"MET11202/25/20 21:51:01 METAR KJFK 260251Z 04005KT 10SM BKN007 OVC021 08/08 A2989 RMK AO2 SLP122 60003 T00780078 55000","FM-15","7",,,,,,,,,,,,,,,,,,,,,,,,,,,,"2009-05-01"
"74486094789","2020-02-25T22:00:00","FM-12","4",,"ESE","1.5","mi","TEMP, PRECIP, SNOW",,,"PSY, SRG, SNOWBOARD",,,"FAA CWO",,,,,,,,,,,,,,,,,,,,,,,,,,,,"46","46",,,"+0.00","5","100","29.89","8","29.86","9.94","46","040",,"6",,,,,,,,,,,,,,,,,,,,,,,,,,,,,,,,,,,,,"SYN07074486 12366 80405 10078 20078 30111 40122 55000 69987 90251 555 92603=","FM-12","4",,,,,,,,,,,,,,,,,,,,,,,,,,,,"2009-05-01"
"74486094789","2020-02-25T22:51:00","FM-15","7",,"ESE","1.5","mi","TEMP, PRECIP, SNOW",,,"PSY, SRG, SNOWBOARD",,,"FAA CWO",,,,,,,,,,,,,,,,,,,,,,,,,,,"29.89","46","46","T","-DZ:01 BR:1 |DZ |DZ",,,"100","29.89","BKN:07 6 OVC:08 19","29.87","4.00","46","030",,"6",,,,,,,,,,,,,,,,,,,,,,,,,,,,,,,,,,,,,"MET11802/25/20 22:51:01 METAR KJFK 260351Z 03005KT 4SM -DZ BR BKN006 OVC019 08/08 A2989 RMK AO2 DZB31 SLP121 P0000 T00780078","FM-15","7",,,,,,,,,,,,,,,,,,,,,,,,,,,,"2009-05-01"
"74486094789","2020-02-25T23:51:00","FM-15","7",,"ESE","1.5","mi","TEMP, PRECIP, SNOW",,,"PSY, SRG, SNOWBOARD",,,"FAA CWO",,,,,,,,,,,,,,,,,,,,,,,,,,,"29.88","46","46","T","-DZ:01 BR:1 |DZ |DZ",,,"100","29.88","BKN:07 7 OVC:08 19","29.85","5.00","46","050",,"5",,,,,,,,,,,,,,,,,,,,,,,,,,,,,,,,,,,,,"MET12202/25/20 23:51:01 METAR KJFK 260451Z 05004KT 5SM -DZ BR BKN007 OVC019 08/08 A2988 RMK AO2 SLP118 P0000 T00780078 400940056","FM-15","7",,,,,,,,,,,,,,,,,,,,,,,,,,,,"2009-05-01"
"74486094789","2020-02-25T23:59:00","SOD  ","6",,"ESE","1.5","mi","TEMP, PRECIP, SNOW",,,"PSY, SRG, SNOWBOARD",,,"FAA CWO",,,,"45","46","97","29.89","29.86","45","5.1","0","9.2","19","49","42","180","13","0.19","0","0.0","190","12","RA DZ BR",,,,,,,,,,,,,,,,,,,,,,,,,,,,,,,,,,,,,,,,,,,,,,,,,,,,,,,,"SOD78324 HR PRECIPITATION (IN): 0.19 SNOW DEPTH (IN):0     24 HR SNOWFALL (IN):0.0  WEATHER(CODE):1  24 HR MAX TEMP (F): 4924 HR MIN TEMP (F): 42AVERAGE STATION PRESSURE(D):29.862 MINIMUM SEA LEVEL PRESSURE:29.84 TIME OF OCCURRENCE:1546 PEAK WIND SPEED (MPH): 13 PEAK WIND DIR (DEG):180 PEAK WIND TIME (LST):      FASTEST 2MIN SPEED (MPH): 12FASTEST 2MIN DIR (DEG):190 FASTEST 2MIN TIME (LST):     AVERAGE WIND SPEED (MPH): 5.1 24 HR AVG TEMP (F): 46DEPART FROM NORMAL:  9  SKY COVER SR-SS (TENTHS): 1HEATING DEGREE DAYS: 19 COOLING DEGREE DAYS:  0 LATEST DAY MAX TEMP (0700-1900 LST): 49 LATEST NIGHT MIN TEMP(1900-0800 LST):42 HOURLY INCREMENTAL PRECIPITATION VALUES (IN):0.00 0.00 0.00 0.00 0.00 0.00 0.00 0.00 0.00T     0.00T     0.04 0.01 0.02 0.03 0.01 0.02 0.04 0.01 0.01 0.00T    T","SOD  ","6",,,,,,,,,,,,,,,,,,,,,,,,,"0635","1742",,"2009-05-01"
"74486094789","2020-02-26T00:51:00","FM-15","7",,"ESE","1.5","mi","TEMP, PRECIP, SNOW",,,"PSY, SRG, SNOWBOARD",,,"FAA CWO",,,,,,,,,,,,,,,,,,,,,,,,,,,"29.89","46","46","T","-DZ:01 BR:1 |DZ |DZ","-0.00","3","100","29.89","OVC:08 7","29.87","5.00","46","360",,"6",,,,,,,,,,,,,,,,,,,,,,,,,,,,,,,,,,,,,"MET12902/26/20 00:51:01 METAR KJFK 260551Z 36005KT 5SM -DZ BR OVC007 08/08 A2989 RMK AO2 SLP123 P0000 60003 T00780078 10083 20078 53001","FM-15","7",,,,,,,,,,,,,,,,,,,,,,,,,,,,"2009-05-01"
"74486094789","2020-02-26T01:00:00","FM-12","4",,"ESE","1.5","mi","TEMP, PRECIP, SNOW",,,"PSY, SRG, SNOWBOARD",,,"FAA CWO",,,,,,,,,,,,,,,,,,,,,,,,,,,,"46","46",,"||DZ","-0.00","3","100","29.89","8","29.86","4.97","46","360",,"6",,,,,,,,,,,,,,,,,,,,,,,,,,,,,,,,,,,,,"SYN09874486 11358 83605 10078 20078 30111 40123 53001 69981 751// 90551 333 10083 20056 96010 555 92606=","FM-12","4",,,,,,,,,,,,,,,,,,,,,,,,,,,,"2009-05-01"
"74486094789","2020-02-26T01:51:00","FM-15","7",,"ESE","1.5","mi","TEMP, PRECIP, SNOW",,,"PSY, SRG, SNOWBOARD",,,"FAA CWO",,,,,,,,,,,,,,,,,,,,,,,,,,,"29.90","46","46","T","-DZ:01 BR:1 |DZ |DZ",,,"100","29.90","OVC:08 7","29.88","5.00","46","360",,"5",,,,,,,,,,,,,,,,,,,,,,,,,,,,,,,,,,,,,"MET10502/26/20 01:51:01 METAR KJFK 260651Z 36004KT 5SM -DZ BR OVC007 08/08 A2990 RMK AO2 SLP125 P0000 T00780078","FM-15","7",,,,,,,,,,,,,,,,,,,,,,,,,,,,"2009-05-01"
"74486094789","2020-02-26T02:51:00","FM-15","7",,"ESE","1.5","mi","TEMP, PRECIP, SNOW",,,"PSY, SRG, SNOWBOARD",,,"FAA CWO",,,,,,,,,,,,,,,,,,,,,,,,,,,"29.90","46","46","T",,,,"100","29.89","OVC:08 6","29.88","8.00","46","020",,"6",,,,,,,,,,,,,,,,,,,,,,,,,,,,,,,,,,,,,"MET10402/26/20 02:51:01 METAR KJFK 260751Z 02005KT 8SM OVC006 08/08 A2990 RMK AO2 DZE39 SLP123 P0000 T00780078","FM-15","7",,,,,,,,,,,,,,,,,,,,,,,,,,,,"2009-05-01"
"74486094789","2020-02-26T03:51:00","FM-15","7",,"ESE","1.5","mi","TEMP, PRECIP, SNOW",,,"PSY, SRG, SNOWBOARD",,,"FAA CWO",,,,,,,,,,,,,,,,,,,,,,,,,,,"29.91","46","46","T","-DZ:01 BR:1 |DZ |DZ","-0.02","3","100","29.91","OVC:08 6","29.88","4.00","46","000",,"0",,,,,,,,,,,,,,,,,,,,,,,,,,,,,,,,,,,,,"MET12302/26/20 03:51:01 METAR KJFK 260851Z 00000KT 4SM -DZ BR OVC006 08/08 A2991 RMK AO2 DZB47 SLP129 P0000 60000 T00780078 53006","FM-15","7",,,,,,,,,,,,,,,,,,,,,,,,,,,,"2009-05-01"
"74486094789","2020-02-26T04:00:00","FM-12","4",,"ESE","1.5","mi","TEMP, PRECIP, SNOW",,,"PSY, SRG, SNOWBOARD",,,"FAA CWO",,,,,,,,,,,,,,,,,,,,,,,,,,,,"46","46",,"||DZ","-0.02","3","100","29.91","5","29.88","3.73","46","000",,"0",,,,,,,,,,,,,,,,,,,,,,,,,,,,,,,,,,,,,"SYN08674486 11256 80000 10078 20078 30117 40129 53006 69907 751// 90851 333 96010 555 92609=","FM-12","4",,,,,,,,,,,,,,,,,,,,,,,,,,,,"2009-05-01"
"74486094789","2020-02-26T04:51:00","FM-15","7",,"ESE","1.5","mi","TEMP, PRECIP, SNOW",,,"PSY, SRG, SNOWBOARD",,,"FAA CWO",,,,,,,,,,,,,,,,,,,,,,,,,,,"29.90","46","46","0.01","-DZ:01 BR:1 |DZ |DZ",,,"100","29.90","OVC:08 6","29.88","4.00","46","360",,"6",,,,,,,,,,,,,,,,,,,,,,,,,,,,,,,,,,,,,"MET10502/26/20 04:51:01 METAR KJFK 260951Z 36005KT 4SM -DZ BR OVC006 08/08 A2990 RMK AO2 SLP126 P0001 T00780078","FM-15","7",,,,,,,,,,,,,,,,,,,,,,,,,,,,"2009-05-01"
"74486094789","2020-02-26T05:40:00","FM-16","7",,"ESE","1.5","mi","TEMP, PRECIP, SNOW",,,"PSY, SRG, SNOWBOARD",,,"FAA CWO",,,,,,,,,,,,,,,,,,,,,,,,,,,"29.91","45","45","T","BR:1 ||",,,"100",,"OVC:08 4","29.88","3.00","45","020",,"5",,,,,,,,,,,,,,,,,,,,,,,,,,,,,,,,,,,,,"MET11002/26/20 05:40:01 SPECI KJFK 261040Z 02004KT 3SM BR OVC004 07/07 A2991 RMK AO2 SFC VIS 5 DZE39 P0000 T00720072","FM-16","7",,,,,,,,,,,,,,,,,,,,,,,,,,,,"2009-05-01"
"74486094789","2020-02-26T05:51:00","FM-15","7",,"ESE","1.5","mi","TEMP, PRECIP, SNOW",,,"PSY, SRG, SNOWBOARD",,,"FAA CWO",,,,,,,,,,,,,,,,,,,,,,,,,,,"29.91","45","45","T","BR:1 ||",,,"100","29.91","OVC:08 4","29.88","3.00","45","020",,"6",,,,,,,,,,,,,,,,,,,,,,,,,,,,,,,,,,,,,"MET11702/26/20 05:51:01 METAR KJFK 261051Z 02005KT 3SM BR OVC004 07/07 A2991 RMK AO2 SFC VIS 5 DZE39 SLP127 P0000 T00720072","FM-15","7",,,,,,,,,,,,,,,,,,,,,,,,,,,,"2009-05-01"
"74486094789","2020-02-26T06:31:00","FM-16","7",,"ESE","1.5","mi","TEMP, PRECIP, SNOW",,,"PSY, SRG, SNOWBOARD",,,"FAA CWO",,,,,,,,,,,,,,,,,,,,,,,,,,,"29.91","45","45",,"BR:1 ||",,,"100",,"BKN:07 6 OVC:08 10","29.88","3.00","45","020",,"8",,,,,,,,,,,,,,,,,,,,,,,,,,,,,,,,,,,,,"MET10502/26/20 06:31:01 SPECI KJFK 261131Z 02007KT 3SM BR BKN006 OVC010 07/07 A2991 RMK AO2 SFC VIS 6 T00720072","FM-16","7",,,,,,,,,,,,,,,,,,,,,,,,,,,,"2009-05-01"
"74486094789","2020-02-26T06:51:00","FM-15","7",,"ESE","1.5","mi","TEMP, PRECIP, SNOW",,,"PSY, SRG, SNOWBOARD",,,"FAA CWO",,,,,,,,,,,,,,,,,,,,,,,,,,,"29.92","45","45","0.00","BR:1 ||","-0.01","3","100","29.92","FEW:02 4 OVC:08 9","29.90","3.00","45","040",,"6",,,,,,,,,,,,,,,,,,,,,,,,,,,,,,,,,,,,,"MET15402/26/20 06:51:01 METAR KJFK 261151Z 04005KT 3SM BR FEW004 OVC009 07/07 A2992 RMK AO2 SFC VIS 6 SLP131 CIG 007V011 60001 70020 T00720072 10078 20072 53002","FM-15","7",,,,,,,,,,,,,,,,,,,,,,,,,,,,"2009-05-01"
"74486094789","2020-02-26T07:00:00","FM-12","4",,"ESE","1.5","mi","TEMP, PRECIP, SNOW",,,"PSY, SRG, SNOWBOARD",,,"FAA CWO",,,,,,,,,,,,,,,,,,,,,,,,,,,,"45","45",,,"-0.01","3","100","29.92","5","29.89","2.98","45","040",,"6",,,,,,,,,,,,,,,,,,,,,,,,,,,,,,,,,,,,,"SYN09874486 11248 80405 10072 20072 30121 40131 53002 69931 710// 91151 333 10094 20072 70051 555 92612=","FM-12","4",,,,,,,,,,,,,,,,,,,,,,,,,,,,"2009-05-01"
"74486094789","2020-02-26T07:51:00","FM-15","7",,"ESE","1.5","mi","TEMP, PRECIP, SNOW",,,"PSY, SRG, SNOWBOARD",,,"FAA CWO",,,,,,,,,,,,,,,,,,,,,,,,,,,"29.95","46","46","0.00","BR:1 ||",,,"100","29.95","OVC:08 5","29.93","3.00","46","050",,"3",,,,,,,,,,,,,,,,,,,,,,,,,,,,,,,,,,,,,"MET10502/26/20 07:51:02 METAR KJFK 261251Z 05003KT 3SM BR OVC005 08/08 A2995 RMK AO2 SFC VIS 5 SLP142 T00780078","FM-15","7",,,,,,,,,,,,,,,,,,,,,,,,,,,,"2009-05-01"
"74486094789","2020-02-26T08:06:00","FM-16","7",,"ESE","1.5","mi","TEMP, PRECIP, SNOW",,,"PSY, SRG, SNOWBOARD",,,"FAA CWO",,,,,,,,,,,,,,,,,,,,,,,,,,,"29.96","46","46","T","-DZ:01 BR:1 |DZ |DZ",,,"100",,"OVC:08 4","29.93","2.50","46","070",,"3",,,,,,,,,,,,,,,,,,,,,,,,,,,,,,,,,,,,,"MET10802/26/20 08:06:02 SPECI KJFK 261306Z 07003KT 2 1/2SM -DZ BR OVC004 08/08 A2996 RMK AO2 DZB04 P0000 T00780078","FM-16","7",,,,,,,,,,,,,,,,,,,,,,,,,,,,"2009-05-01"
"74486094789","2020-02-26T08:51:00","FM-15","7",,"ESE","1.5","mi","TEMP, PRECIP, SNOW",,,"PSY, SRG, SNOWBOARD",,,"FAA CWO",,,,,,,,,,,,,,,,,,,,,,,,,,,"29.96","47","47","T","-DZ:01 BR:1 |DZ |DZ",,,"100","29.96","OVC:08 5","29.93","2.50","47","090",,"11",,,,,,,,,,,,,,,,,,,,,,,,,,,,,,,,,,,,,"MET13702/26/20 08:51:02 METAR KJFK 261351Z 09010KT 2 1/2SM -DZ BR OVC005 08/08 A2996 RMK AO2 SFC VIS 4 DZB04 SLP146 CIG 004V006 P0000 T00830083","FM-15","7",,,,,,,,,,,,,,,,,,,,,,,,,,,,"2009-05-01"
"74486094789","2020-02-26T09:51:00","FM-15","7",,"ESE","1.5","mi","TEMP, PRECIP, SNOW",,,"PSY, SRG, SNOWBOARD",,,"FAA CWO",,,,,,,,,,,,,,,,,,,,,,,,,,,"29.97","47","47","T","-DZ:01 BR:1 |DZ |DZ","-0.04","1","100","29.96","BKN:07 7 OVC:08 15","29.95","2.50","47","080",,"15",,,,,,,,,,,,,,,,,,,,,,,,,,,,,,,,,,,,,"MET13802/26/20 09:51:01 METAR KJFK 261451Z 08013KT 2 1/2SM -DZ BR BKN007 OVC015 08/08 A2997 RMK AO2 SFC VIS 3 SLP146 P0000 60000 T00830083 51015","FM-15","7",,,,,,,,,,,,,,,,,,,,,,,,,,,,"2009-05-01"
"74486094789","2020-02-26T10:00:00","FM-12","4",,"ESE","1.5","mi","TEMP, PRECIP, SNOW",,,"PSY, SRG, SNOWBOARD",,,"FAA CWO",,,,,,,,,,,,,,,,,,,,,,,,,,,,"47","47",,"||DZ","-0.04","1","100","29.96","8","29.94","2.49","47","080",,"15",,,,,,,,,,,,,,,,,,,,,,,,,,,,,,,,,,,,,"SYN08674486 11340 80813 10083 20083 30138 40146 51015 69907 751// 91451 333 96010 555 92615=","FM-12","4",,,,,,,,,,,,,,,,,,,,,,,,,,,,"2009-05-01"
"74486094789","2020-02-26T10:51:00","FM-15","7",,"ESE","1.5","mi","TEMP, PRECIP, SNOW",,,"PSY, SRG, SNOWBOARD",,,"FAA CWO",,,,,,,,,,,,,,,,,,,,,,,,,,,"29.98","47","47","T","-DZ:01 BR:1 |DZ |DZ",,,"100","29.97","BKN:07 8 OVC:08 14","29.96","4.00","47","090",,"11",,,,,,,,,,,,,,,,,,,,,,,,,,,,,,,,,,,,,"MET11202/26/20 10:51:01 METAR KJFK 261551Z 09010KT 4SM -DZ BR BKN008 OVC014 08/08 A2998 RMK AO2 SLP150 P0000 T00830083","FM-15","7",,,,,,,,,,,,,,,,,,,,,,,,,,,,"2009-05-01"
"74486094789","2020-02-26T11:51:00","FM-15","7",,"ESE","1.5","mi","TEMP, PRECIP, SNOW",,,"PSY, SRG, SNOWBOARD",,,"FAA CWO",,,,,,,,,,,,,,,,,,,,,,,,,,,"29.97","47","48","T","-DZ:01 BR:1 |DZ |DZ",,,"96","29.97","OVC:08 8","29.95","5.00","48","090",,"9",,,,,,,,,,,,,,,,,,,,,,,,,,,,,,,,,,,,,"MET11402/26/20 11:51:01 METAR KJFK 261651Z 09008KT 5SM -DZ BR OVC008 09/08 A2997 RMK AO2 DZE23B47 SLP148 P0000 T00890083","FM-15","7",,,,,,,,,,,,,,,,,,,,,,,,,,,,"2009-05-01"
"74486094789","2020-02-26T12:51:00","FM-15","7",,"ESE","1.5","mi","TEMP, PRECIP, SNOW",,,"PSY, SRG, SNOWBOARD",,,"FAA CWO",,,,,,,,,,,,,,,,,,,,,,,,,,,"29.92","47","48","T",,"+0.05","8","96","29.91","OVC:08 9","29.90","10.00","48","080",,"11",,,,,,,,,,,,,,,,,,,,,,,,,,,,,,,,,,,,,"MET12902/26/20 12:51:02 METAR KJFK 261751Z 08010KT 10SM OVC009 09/08 A2992 RMK AO2 DZE09 SLP130 P0000 60000 T00890083 10089 20072 58016","FM-15","7",,,,,,,,,,,,,,,,,,,,,,,,,,,,"2009-05-01"
"74486094789","2020-02-26T13:00:00","FM-12","4",,"ESE","1.5","mi","TEMP, PRECIP, SNOW",,,"PSY, SRG, SNOWBOARD",,,"FAA CWO",,,,,,,,,,,,,,,,,,,,,,,,,,,,"47","48",,,"+0.05","8","96","29.91","8","29.89","9.94","48","080",,"11",,,,,,,,,,,,,,,,,,,,,,,,,,,,,,,,,,,,,"SYN08674486 12366 80810 10089 20083 30121 40130 58016 69901 91751 333 10089 20072 555 92618=","FM-12","4",,,,,,,,,,,,,,,,,,,,,,,,,,,,"2009-05-01"
"74486094789","2020-02-26T13:10:00","FM-16","7",,"ESE","1.5","mi","TEMP, PRECIP, SNOW",,,"PSY, SRG, SNOWBOARD",,,"FAA CWO",,,,,,,,,,,,,,,,,,,,,,,,,,,"29.92","46","48",,,,,"93",,"OVC:08 10","29.90","10.00","47","090",,"15",,,,,,,,,,,,,,,,,,,,,,,,,,,,,,,,,,,,,"MET08602/26/20 13:10:02 SPECI KJFK 261810Z 09013KT 10SM OVC010 09/08 A2992 RMK AO2 T00890078","FM-16","7",,,,,,,,,,,,,,,,,,,,,,,,,,,,"2009-05-01"
"74486094789","2020-02-26T13:51:00","FM-15","7",,"ESE","1.5","mi","TEMP, PRECIP, SNOW",,,"PSY, SRG, SNOWBOARD",,,"FAA CWO",,,,,,,,,,,,,,,,,,,,,,,,,,,"29.91","45","47","0.00",,,,"93","29.91","OVC:08 10","29.88","10.00","46","100",,"13",,,,,,,,,,,,,,,,,,,,,,,,,,,,,,,,,,,,,"MET09302/26/20 13:51:02 METAR KJFK 261851Z 10011KT 10SM OVC010 08/07 A2991 RMK AO2 SLP129 T00830072","FM-15","7",,,,,,,,,,,,,,,,,,,,,,,,,,,,"2009-05-01"
"74486094789","2020-02-26T14:51:00","FM-15","7",,"ESE","1.5","mi","TEMP, PRECIP, SNOW",,,"PSY, SRG, SNOWBOARD",,,"FAA CWO",,,,,,,,,,,,,,,,,,,,,,,,,,,"29.91","44","47","0.00",,,,"90","29.90","OVC:08 12","29.88","10.00","46","100",,"10",,,,,,,,,,,,,,,,,,,,,,,,,,,,,,,,,,,,,"MET09302/26/20 14:51:02 METAR KJFK 261951Z 10009KT 10SM OVC012 08/07 A2991 RMK AO2 SLP126 T00830067","FM-15","7",,,,,,,,,,,,,,,,,,,,,,,,,,,,"2009-05-01"
"74486094789","2020-02-26T15:29:00","FM-16","7",,"ESE","1.5","mi","TEMP, PRECIP, SNOW",,,"PSY, SRG, SNOWBOARD",,,"FAA CWO",,,,,,,,,,,,,,,,,,,,,,,,,,,"29.90","45","47",,,,,"93",,"OVC:08 15","29.88","10.00","46","110",,"10",,,,,,,,,,,,,,,,,,,,,,,,,,,,,,,,,,,,,"MET08602/26/20 15:29:02 SPECI KJFK 262029Z 11009KT 10SM OVC015 08/07 A2990 RMK AO2 T00830072","FM-16","7",,,,,,,,,,,,,,,,,,,,,,,,,,,,"2009-05-01"
"74486094789","2020-02-26T15:51:00","FM-15","7",,"ESE","1.5","mi","TEMP, PRECIP, SNOW",,,"PSY, SRG, SNOWBOARD",,,"FAA CWO",,,,,,,,,,,,,,,,,,,,,,,,,,,"29.89","44","47","0.00",,"+0.02","8","90","29.89","FEW:02 10 BKN:07 19 OVC:08 24","29.87","10.00","46","100",,"15",,,,,,,,,,,,,,,,,,,,,,,,,,,,,,,,,,,,,"MET11302/26/20 15:51:02 METAR KJFK 262051Z 10013KT 10SM FEW010 BKN019 OVC024 08/07 A2989 RMK AO2 SLP123 T00830067 58008","FM-15","7",,,,,,,,,,,,,,,,,,,,,,,,,,,,"2009-05-01"
"74486094789","2020-02-26T16:00:00","FM-12","4",,"ESE","1.5","mi","TEMP, PRECIP, SNOW",,,"PSY, SRG, SNOWBOARD",,,"FAA CWO",,,,,,,,,,,,,,,,,,,,,,,,,,,,"44","47",,,"+0.02","8","90","29.89","15","29.86","9.94","46","100",,"15",,,,,,,,,,,,,,,,,,,,,,,,,,,,,,,,,,,,,"SYN06474486 32466 81013 10083 20067 30111 40123 58008 92051 555 92621=","FM-12","4",,,,,,,,,,,,,,,,,,,,,,,,,,,,"2009-05-01"
"74486094789","2020-02-26T16:35:00","FM-16","7",,"ESE","1.5","mi","TEMP, PRECIP, SNOW",,,"PSY, SRG, SNOWBOARD",,,"FAA CWO",,,,,,,,,,,,,,,,,,,,,,,,,,,"29.89","44","46",,,,,"93",,"BKN:07 9 OVC:08 18","29.87","10.00","45","090",,"10",,,,,,,,,,,,,,,,,,,,,,,,,,,,,,,,,,,,,"MET09302/26/20 16:35:02 SPECI KJFK 262135Z 09009KT 10SM BKN009 OVC018 08/07 A2989 RMK AO2 T00780067","FM-16","7",,,,,,,,,,,,,,,,,,,,,,,,,,,,"2009-05-01"
"74486094789","2020-02-26T16:51:00","FM-15","7",,"ESE","1.5","mi","TEMP, PRECIP, SNOW",,,"PSY, SRG, SNOWBOARD",,,"FAA CWO",,,,,,,,,,,,,,,,,,,,,,,,,,,"29.88","44","46","0.00",,,,"93","29.88","BKN:07 9 OVC:08 18","29.85","10.00","45","100","21","14",,,,,,,,,,,,,,,,,,,,,,,,,,,,,,,,,,,,,"MET10302/26/20 16:51:02 METAR KJFK 262151Z 10012G18KT 10SM BKN009 OVC018 08/07 A2988 RMK AO2 SLP119 T00780067","FM-15","7",,,,,,,,,,,,,,,,,,,,,,,,,,,,"2009-05-01"
"74486094789","2020-02-26T17:51:00","FM-15","7",,"ESE","1.5","mi","TEMP, PRECIP, SNOW",,,"PSY, SRG, SNOWBOARD",,,"FAA CWO",,,,,,,,,,,,,,,,,,,,,,,,,,,"29.86","44","45","0.00",,,,"97","29.85","SCT:04 8 OVC:08 15","29.83","10.00","45","080",,"11",,,,,,,,,,,,,,,,,,,,,,,,,,,,,,,,,,,,,"MET10002/26/20 17:51:02 METAR KJFK 262251Z 08010KT 10SM SCT008 OVC015 07/07 A2986 RMK AO2 SLP110 T00720067","FM-15","7",,,,,,,,,,,,,,,,,,,,,,,,,,,,"2009-05-01"
"74486094789","2020-02-26T18:17:00","FM-16","7",,"ESE","1.5","mi","TEMP, PRECIP, SNOW",,,"PSY, SRG, SNOWBOARD",,,"FAA CWO",,,,,,,,,,,,,,,,,,,,,,,,,,,"29.85","44","45",,,,,"97",,"BKN:07 8 OVC:08 15","29.83","10.00","45","080",,"11",,,,,,,,,,,,,,,,,,,,,,,,,,,,,,,,,,,,,"MET09302/26/20 18:17:02 SPECI KJFK 262317Z 08010KT 10SM BKN008 OVC015 07/07 A2985 RMK AO2 T00720067","FM-16","7",,,,,,,,,,,,,,,,,,,,,,,,,,,,"2009-05-01"
"74486094789","2020-02-26T18:51:00","FM-15","7",,"ESE","1.5","mi","TEMP, PRECIP, SNOW",,,"PSY, SRG, SNOWBOARD",,,"FAA CWO",,,,,,,,,,,,,,,,,,,,,,,,,,,"29.85","44","45","0.00",,"+0.05","8","97","29.84","BKN:07 9 OVC:08 14","29.83","10.00","45","080",,"13",,,,,,,,,,,,,,,,,,,,,,,,,,,,,,,,,,,,,"MET11802/26/20 18:51:02 METAR KJFK 262351Z 08011KT 10SM BKN009 OVC014 07/07 A2985 RMK AO2 SLP106 T00720067 10089 20072 58017","FM-15","7",,,,,,,,,,,,,,,,,,,,,,,,,,,,"2009-05-01"
"74486094789","2020-02-26T19:00:00","FM-12","4",,"ESE","1.5","mi","TEMP, PRECIP, SNOW",,,"PSY, SRG, SNOWBOARD",,,"FAA CWO",,,,,,,,,,,,,,,,,,,,,,,,,,,,"44","45",,,"+0.05","8","97","29.84","8","29.82","9.94","45","080",,"13",,,,,,,,,,,,,,,,,,,,,,,,,,,,,,,,,,,,,"SYN08074486 32366 80811 10072 20067 30097 40106 58017 92351 333 10089 20072 555 92700=","FM-12","4",,,,,,,,,,,,,,,,,,,,,,,,,,,,"2009-05-01"
"74486094789","2020-02-26T19:51:00","FM-15","7",,"ESE","1.5","mi","TEMP, PRECIP, SNOW",,,"PSY, SRG, SNOWBOARD",,,"FAA CWO",,,,,,,,,,,,,,,,,,,,,,,,,,,"29.83","43","45","0.00",,,,"93","29.82","BKN:07 9 OVC:08 15","29.80","10.00","44","080",,"14",,,,,,,,,,,,,,,,,,,,,,,,,,,,,,,,,,,,,"MET10002/26/20 19:51:01 METAR KJFK 270051Z 08012KT 10SM BKN009 OVC015 07/06 A2983 RMK AO2 SLP099 T00720061","FM-15","7",,,,,,,,,,,,,,,,,,,,,,,,,,,,"2009-05-01"
"74486094789","2020-02-26T20:51:00","FM-15","7",,"ESE","1.5","mi","TEMP, PRECIP, SNOW",,,"PSY, SRG, SNOWBOARD",,,"FAA CWO",,,,,,,,,,,,,,,,,,,,,,,,,,,"29.80","44","44","T","-DZ:01 BR:1 |DZ |DZ",,,"100","29.80","OVC:08 5","29.78","4.00","44","090",,"13",,,,,,,,,,,,,,,,,,,,,,,,,,,,,,,,,,,,,"MET11102/26/20 20:51:01 METAR KJFK 270151Z 09011KT 4SM -DZ BR OVC005 07/07 A2980 RMK AO2 DZB48 SLP090 P0000 T00670067","FM-15","7",,,,,,,,,,,,,,,,,,,,,,,,,,,,"2009-05-01"
"74486094789","2020-02-26T21:51:00","FM-15","7",,"ESE","1.5","mi","TEMP, PRECIP, SNOW",,,"PSY, SRG, SNOWBOARD",,,"FAA CWO",,,,,,,,,,,,,,,,,,,,,,,,,,,"29.75","44","44","T","-DZ:01 BR:1 |DZ |DZ","+0.10","8","100","29.75","OVC:08 4","29.72","3.00","44","080",,"18",,,,,,,,,,,,,,,,,,,,,,,,,,,,,,,,,,,,,"MET11702/26/20 21:51:01 METAR KJFK 270251Z 08016KT 3SM -DZ BR OVC004 07/07 A2975 RMK AO2 SLP073 P0000 60000 T00670067 58033","FM-15","7",,,,,,,,,,,,,,,,,,,,,,,,,,,,"2009-05-01"
"74486094789","2020-02-26T22:00:00","FM-12","4",,"ESE","1.5","mi","TEMP, PRECIP, SNOW",,,"PSY, SRG, SNOWBOARD",,,"FAA CWO",,,,,,,,,,,,,,,,,,,,,,,,,,,,"44","44",,"||DZ","+0.10","8","100","29.75","5","29.72","2.98","44","080",,"18",,,,,,,,,,,,,,,,,,,,,,,,,,,,,,,,,,,,,"SYN08674486 11248 80816 10067 20067 30063 40073 58033 69907 751// 90251 333 96010 555 92703=","FM-12","4",,,,,,,,,,,,,,,,,,,,,,,,,,,,"2009-05-01"
"74486094789","2020-02-26T22:51:00","FM-15","7",,"ESE","1.5","mi","TEMP, PRECIP, SNOW",,,"PSY, SRG, SNOWBOARD",,,"FAA CWO",,,,,,,,,,,,,,,,,,,,,,,,,,,"29.68","44","44","T","-DZ:01 BR:1 |DZ |DZ",,,"100","29.68","OVC:08 4","29.65","2.00","44","090","31","21",,,,,,,,,,,,,,,,,,,,,,,,,,,,,,,,,,,,,"MET14302/26/20 22:51:01 METAR KJFK 270351Z 09018G27KT 2SM -DZ BR OVC004 07/07 A2968 RMK AO2 PK WND 09027/0344 SFC VIS 4 PRESFR SLP051 P0000 T00670067","FM-15","7",,,,,,,,,,,,,,,,,,,,,,,,,,,,"2009-05-01"
"74486094789","2020-02-26T23:51:00","FM-15","7",,"ESE","1.5","mi","TEMP, PRECIP, SNOW",,,"PSY, SRG, SNOWBOARD",,,"FAA CWO",,,,,,,,,,,,,,,,,,,,,,,,,,,"29.63","43","43","0.01","-RA:02 BR:1 |RA |RA",,,"100","29.62","OVC:08 4","29.61","2.00","43","080","29","21",,,,,,,,,,,,,,,,,,,,,,,,,,,,,,,,,,,,,"MET16402/26/20 23:51:01 METAR KJFK 270451Z 08018G25KT 2SM -RA BR OVC004 06/06 A2963 RMK AO2 PK WND 09028/0407 SFC VIS 4 DZE11RAB38 PRESFR SLP032 P0000 T00610061 400890061","FM-15","7",,,,,,,,,,,,,,,,,,,,,,,,,,,,"2009-05-01"
"74486094789","2020-02-26T23:59:00","SOD  ","6",,"ESE","1.5","mi","TEMP, PRECIP, SNOW",,,"PSY, SRG, SNOWBOARD",,,"FAA CWO",,,,"45","46","98","29.87","29.86","46","10.7","0","9.0","19","48","43","090","32","0.02","0","0.0","090","25","RA DZ BR",,,,,,,,,,,,,,,,,,,,,,,,,,,,,,,,,,,,,,,,,,,,,,,,,,,,,,,,"SOD78724 HR PRECIPITATION (IN): 0.02 SNOW DEPTH (IN):0     24 HR SNOWFALL (IN):0.0  WEATHER(CODE):1  24 HR MAX TEMP (F): 4824 HR MIN TEMP (F): 43AVERAGE STATION PRESSURE(D):29.860 MINIMUM SEA LEVEL PRESSURE:29.62 TIME OF OCCURRENCE:2359 PEAK WIND SPEED (MPH): 32 PEAK WIND DIR (DEG): 90 PEAK WIND TIME (LST):      FASTEST 2MIN SPEED (MPH): 25FASTEST 2MIN DIR (DEG): 90 FASTEST 2MIN TIME (LST):     AVERAGE WIND SPEED (MPH):10.7 24 HR AVG TEMP (F): 46DEPART FROM NORMAL:  9  SKY COVER SR-SS (TENTHS): 1HEATING DEGREE DAYS: 19 COOLING DEGREE DAYS:  0 LATEST DAY MAX TEMP (0700-1900 LST): 48 LATEST NIGHT MIN TEMP(1900-0800 LST):45 HOURLY INCREMENTAL PRECIPITATION VALUES (IN):    T    T    T     0.01T     0.00 0.00T    T    T    T    T     0.00 0.00 0.00 0.00 0.00 0.00 0.00T    T    T     0.01","SOD  ","6",,,,,,,,,,,,,,,,,,,,,,,,,"0634","1743",,"2009-05-01"
"74486094789","2020-02-27T00:49:00","FM-16","7",,"ESE","1.5","mi","TEMP, PRECIP, SNOW",,,"PSY, SRG, SNOWBOARD",,,"FAA CWO",,,,,,,,,,,,,,,,,,,,,,,,,,,"29.53","45","45","0.19","+RA:02 BR:1 |RA |RA",,,"100",,"OVC:08 7","29.51","5.00","45","090",,"24",,,,,,,,,,,,,,,,,,,,,,,,,,,,,,,,,,,,,"MET11802/27/20 00:49:01 SPECI KJFK 270549Z 09021KT 5SM +RA BR OVC007 07/07 A2953 RMK AO2 PK WND 07027/0518 LTG DSNT SW P0019","FM-16","7",,,,,,,,,,,,,,,,,,,,,,,,,,,,"2009-05-01"
"74486094789","2020-02-27T00:51:00","FM-15","7",,"ESE","1.5","mi","TEMP, PRECIP, SNOW",,,"PSY, SRG, SNOWBOARD",,,"FAA CWO",,,,,,,,,,,,,,,,,,,,,,,,,,,"29.53","44","44","0.24s","RA:02 BR:1 |RA |RA","+0.22","8","100","29.52","OVC:08 7","29.51","5.00","44","080","32","25",,,,,,,,,,,,,,,,,,,,,,,,,,,,,,,,,,,,,"MET16802/27/20 00:51:01 METAR KJFK 270551Z 08022G28KT 5SM RA BR OVC007 07/07 A2953 RMK AO2 PK WND 09028/0550 LTG DSNT SW PRESFR SLP998 P0020 60020 T00670067 10072 20061 58075","FM-15","7",,,,,,,,,,,,,,,,,,,,,,,,,,,,"2009-05-01"
"74486094789","2020-02-27T01:00:00","FM-12","4",,"ESE","1.5","mi","TEMP, PRECIP, SNOW",,,"PSY, SRG, SNOWBOARD",,,"FAA CWO",,,,,,,,,,,,,,,,,,,,,,,,,,,,"44","44",,"||RA","+0.22","8","100","29.52","8","29.50","4.97","44","080",,"25",,,,,,,,,,,,,,,,,,,,,,,,,,,,,,,,,,,,,"SYN10474486 11358 80822 10067 20067 39989 49998 58075 60051 763// 90551 333 10078 20061 91028 96010 555 92706=","FM-12","4",,,,,,,,,,,,,,,,,,,,,,,,,,,,"2009-05-01"
"74486094789","2020-02-27T01:37:00","FM-16","7",,"ESE","1.5","mi","TEMP, PRECIP, SNOW",,,"PSY, SRG, SNOWBOARD",,,"FAA CWO",,,,,,,,,,,,,,,,,,,,,,,,,,,"29.49","45","45","0.58","+RA:02 BR:1 |RA |RA",,,"100",,"FEW:02 8 OVC:08 23","29.47","3.00","45","080","30","21",,,,,,,,,,,,,,,,,,,,,,,,,,,,,,,,,,,,,"MET14402/27/20 01:37:01 SPECI KJFK 270637Z 08018G26KT 3SM R04R/5500VP6000FT +RA BR FEW008 OVC023 07/07 A2949 RMK AO2 PK WND 09034/0623 P0058 T00720072","FM-16","7",,,,,,,,,,,,,,,,,,,,,,,,,,,,"2009-05-01"
"74486094789","2020-02-27T01:51:00","FM-15","7",,"ESE","1.5","mi","TEMP, PRECIP, SNOW",,,"PSY, SRG, SNOWBOARD",,,"FAA CWO",,,,,,,,,,,,,,,,,,,,,,,,,,,"29.47","45","45","0.66","RA:02 BR:1 |RA |RA",,,"100","29.47","SCT:04 8 BKN:07 23 OVC:08 42","29.44","5.00","45","090","25","18",,,,,,,,,,,,,,,,,,,,,,,,,,,,,,,,,,,,,"MET13902/27/20 01:51:01 METAR KJFK 270651Z 09016G22KT 5SM RA BR SCT008 BKN023 OVC042 07/07 A2947 RMK AO2 PK WND 09034/0623 SLP980 P0067 T00720072","FM-15","7",,,,,,,,,,,,,,,,,,,,,,,,,,,,"2009-05-01"
"74486094789","2020-02-27T02:38:00","FM-16","7",,"ESE","1.5","mi","TEMP, PRECIP, SNOW",,,"PSY, SRG, SNOWBOARD",,,"FAA CWO",,,,,,,,,,,,,,,,,,,,,,,,,,,"29.40","45","45","0.06","-RA:02 |RA |RA",,,"100",,"BKN:07 12 OVC:08 23","29.38","7.00","45","080","26","17",,,,,,,,,,,,,,,,,,,,,,,,,,,,,,,,,,,,,"MET13002/27/20 02:38:01 SPECI KJFK 270738Z 08015G23KT 7SM -RA BKN012 OVC023 07/07 A2940 RMK AO2 PK WND 08027/0712 PRESFR P0006 T00720072","FM-16","7",,,,,,,,,,,,,,,,,,,,,,,,,,,,"2009-05-01"
"74486094789","2020-02-27T02:51:00","FM-15","7",,"ESE","1.5","mi","TEMP, PRECIP, SNOW",,,"PSY, SRG, SNOWBOARD",,,"FAA CWO",,,,,,,,,,,,,,,,,,,,,,,,,,,"29.39","45","45","0.02",,,,"100","29.39","BKN:07 12 OVC:08 23","29.36","10.00","45","090","29","17",,,,,,,,,,,,,,,,,,,,,,,,,,,,,,,,,,,,,"MET13302/27/20 02:51:01 METAR KJFK 270751Z 09015G25KT 10SM BKN012 OVC023 07/07 A2939 RMK AO2 PK WND 08027/0712 RAE48 SLP953 P0006 T00720072","FM-15","7",,,,,,,,,,,,,,,,,,,,,,,,,,,,"2009-05-01"
"74486094789","2020-02-27T03:18:00","FM-16","7",,"ESE","1.5","mi","TEMP, PRECIP, SNOW",,,"PSY, SRG, SNOWBOARD",,,"FAA CWO",,,,,,,,,,,,,,,,,,,,,,,,,,,"29.35","46","46","T","-RA:02 |RA |RA",,,"100",,"OVC:08 5","29.33","7.00","46","100","28","13",,,,,,,,,,,,,,,,,,,,,,,,,,,,,,,,,,,,,"MET11302/27/20 03:18:01 SPECI KJFK 270818Z 10011G24KT 7SM -RA OVC005 08/08 A2935 RMK AO2 RAB0756 PRESFR P0000 T00780078","FM-16","7",,,,,,,,,,,,,,,,,,,,,,,,,,,,"2009-05-01"
"74486094789","2020-02-27T03:47:00","FM-16","7",,"ESE","1.5","mi","TEMP, PRECIP, SNOW",,,"PSY, SRG, SNOWBOARD",,,"FAA CWO",,,,,,,,,,,,,,,,,,,,,,,,,,,"29.33","46","46","0.02","-RA:02 BR:1 |RA |RA",,,"100",,"OVC:08 4","29.31","1.00","46","080",,"9",,,,,,,,,,,,,,,,,,,,,,,,,,,,,,,,,,,,,"MET11902/27/20 03:47:01 SPECI KJFK 270847Z 08008KT 1SM R04R/P6000FT -RA BR OVC004 08/08 A2933 RMK AO2 SFC VIS 6 RAB0756 P0002","FM-16","7",,,,,,,,,,,,,,,,,,,,,,,,,,,,"2009-05-01"
"74486094789","2020-02-27T03:51:00","FM-15","7",,"ESE","1.5","mi","TEMP, PRECIP, SNOW",,,"PSY, SRG, SNOWBOARD",,,"FAA CWO",,,,,,,,,,,,,,,,,,,,,,,,,,,"29.32s","47","47","0.03","RA:02 BR:1 |RA |RA","+0.21","8","100","29.32","OVC:08 4","29.30","1.00","47","080",,"7",,,,,,,,,,,,,,,,,,,,,,,,,,,,,,,,,,,,,"MET15402/27/20 03:51:01 METAR KJFK 270851Z 08006KT 1SM R04R/P6000FT RA BR OVC004 08/08 A2932 RMK AO2 SFC VIS 5 RAB0756 PRESFR SLP929 P0003 60076 T00830083 58070","FM-15","7",,,,,,,,,,,,,,,,,,,,,,,,,,,,"2009-05-01"
"74486094789","2020-02-27T04:00:00","FM-12","4",,"ESE","1.5","mi","TEMP, PRECIP, SNOW",,,"PSY, SRG, SNOWBOARD",,,"FAA CWO",,,,,,,,,,,,,,,,,,,,,,,,,,,,"47","47",,"||RA","+0.21","8","100","29.32","5","29.29s","0.99","47","080",,"7",,,,,,,,,,,,,,,,,,,,,,,,,,,,,,,,,,,,,"SYN08674486 11216 80806 10083 20083 39918 49929 58070 60197 763// 90851 333 96010 555 92709=","FM-12","4",,,,,,,,,,,,,,,,,,,,,,,,,,,,"2009-05-01"
"74486094789","2020-02-27T04:51:00","FM-15","7",,"ESE","1.5","mi","TEMP, PRECIP, SNOW",,,"PSY, SRG, SNOWBOARD",,,"FAA CWO",,,,,,,,,,,,,,,,,,,,,,,,,,,"29.32s","47","47","0.04","-RA:02 BR:1 |RA |RA",,,"100","29.31s","OVC:08 4","29.30s","1.00","47","220",,"13",,,,,,,,,,,,,,,,,,,,,,,,,,,,,,,,,,,,,"MET13302/27/20 04:51:01 METAR KJFK 270951Z 22011KT 1SM R04R/6000VP6000FT -RA BR OVC004 08/08 A2932 RMK AO2 SFC VIS 4 SLP927 P0004 T00830083","FM-15","7",,,,,,,,,,,,,,,,,,,,,,,,,,,,"2009-05-01"
"74486094789","2020-02-27T05:28:00","FM-16","7",,"ESE","1.5","mi","TEMP, PRECIP, SNOW",,,"PSY, SRG, SNOWBOARD",,,"FAA CWO",,,,,,,,,,,,,,,,,,,,,,,,,,,"29.32","44","44","0.01","-RA:02 |RA |RA",,,"100",,"BKN:07 4 OVC:08 70","29.30","7.00","44","260","38","29",,,,,,,,,,,,,,,,,,,,,,,,,,,,,,,,,,,,,"MET12302/27/20 05:28:01 SPECI KJFK 271028Z 26025G33KT 7SM -RA BKN004 OVC070 07/07 A2932 RMK AO2 PK WND 26033/1027 P0001 T00670067","FM-16","7",,,,,,,,,,,,,,,,,,,,,,,,,,,,"2009-05-01"
"74486094789","2020-02-27T05:32:00","FM-16","7",,"ESE","1.5","mi","TEMP, PRECIP, SNOW",,,"PSY, SRG, SNOWBOARD",,,"FAA CWO",,,,,,,,,,,,,,,,,,,,,,,,,,,"29.33","45","45","0.01","-RA:02 |RA |RA",,,"100",,"BKN:07 6 OVC:08 70","29.31","8.00","45","280","38","24",,,,,,,,,,,,,,,,,,,,,,,,,,,,,,,,,,,,,"MET12302/27/20 05:32:01 SPECI KJFK 271032Z 28021G33KT 8SM -RA BKN006 OVC070 07/07 A2933 RMK AO2 PK WND 26033/1027 P0001 T00720072","FM-16","7",,,,,,,,,,,,,,,,,,,,,,,,,,,,"2009-05-01"
"74486094789","2020-02-27T05:51:00","FM-15","7",,"ESE","1.5","mi","TEMP, PRECIP, SNOW",,,"PSY, SRG, SNOWBOARD",,,"FAA CWO",,,,,,,,,,,,,,,,,,,,,,,,,,,"29.33","44","44","0.01","-RA:02 |RA |RA",,,"100","29.33","BKN:07 8 BKN:07 23 OVC:08 70","29.31","7.00","44","270","30","21",,,,,,,,,,,,,,,,,,,,,,,,,,,,,,,,,,,,,"MET13702/27/20 05:51:01 METAR KJFK 271051Z 27018G26KT 7SM -RA BKN008 BKN023 OVC070 07/07 A2933 RMK AO2 PK WND 26033/1027 SLP932 P0001 T00670067","FM-15","7",,,,,,,,,,,,,,,,,,,,,,,,,,,,"2009-05-01"
"74486094789","2020-02-27T06:22:00","FM-16","7",,"ESE","1.5","mi","TEMP, PRECIP, SNOW",,,"PSY, SRG, SNOWBOARD",,,"FAA CWO",,,,,,,,,,,,,,,,,,,,,,,,,,,"29.35","42","43","T",,,,"97",,"FEW:02 7 BKN:07 17 BKN:07 70","29.33","10.00","43","250","34","22",,,,,,,,,,,,,,,,,,,,,,,,,,,,,,,,,,,,,"MET13502/27/20 06:22:01 SPECI KJFK 271122Z 25019G30KT 10SM FEW007 BKN017 BKN070 06/06 A2935 RMK AO2 PK WND 25030/1114 RAE1053 P0000 T00610056","FM-16","7",,,,,,,,,,,,,,,,,,,,,,,,,,,,"2009-05-01"
"74486094789","2020-02-27T06:51:00","FM-15","7",,"ESE","1.5","mi","TEMP, PRECIP, SNOW",,,"PSY, SRG, SNOWBOARD",,,"FAA CWO",,,,,,,,,,,,,,,,,,,,,,,,,,,"29.38","39","43","0.00",,"-0.06","3","86","29.38","BKN:07 17 BKN:07 44 BKN:07 70","29.36","10.00","41","260","38","30",,,,,,,,,,,,,,,,,,,,,,,,,,,,,,,,,,,,,"MET17202/27/20 06:51:01 METAR KJFK 271151Z 26026G33KT 10SM BKN017 BKN044 BKN070 06/04 A2938 RMK AO2 PK WND 25033/1151 RAE1053 SLP949 P0000 60081 70101 T00610039 10089 20061 53020","FM-15","7",,,,,,,,,,,,,,,,,,,,,,,,,,,,"2009-05-01"
"74486094789","2020-02-27T07:00:00","FM-12","4",,"ESE","1.5","mi","TEMP, PRECIP, SNOW",,,"PSY, SRG, SNOWBOARD",,,"FAA CWO",,,,,,,,,,,,,,,,,,,,,,,,,,,,"39","43",,,"-0.06","3","86","29.38","15","29.35","9.94","41","260",,"30",,,,,,,,,,,,,,,,,,,,,,,,,,,,,,,,,,,,,"SYN09874486 12466 62626 10061 20039 39938 49949 53020 60211 91151 333 10089 20061 70257 91033 555 92712=","FM-12","4",,,,,,,,,,,,,,,,,,,,,,,,,,,,"2009-05-01"
"74486094789","2020-02-27T07:51:00","FM-15","7",,"ESE","1.5","mi","TEMP, PRECIP, SNOW",,,"PSY, SRG, SNOWBOARD",,,"FAA CWO",,,,,,,,,,,,,,,,,,,,,,,,,,,"29.43","38","42","T",,,,"85","29.43","BKN:07 22 BKN:07 60","29.41","10.00","40","250","44","33",,,,,,,,,,,,,,,,,,,,,,,,,,,,,,,,,,,,,"MET12102/27/20 07:51:01 METAR KJFK 271251Z 25029G38KT 10SM BKN022 BKN060 06/03 A2943 RMK AO2 PK WND 26038/1244 SLP967 T00560033","FM-15","7",,,,,,,,,,,,,,,,,,,,,,,,,,,,"2009-05-01"
"74486094789","2020-02-27T08:15:00","FM-16","7",,"ESE","1.5","mi","TEMP, PRECIP, SNOW",,,"PSY, SRG, SNOWBOARD",,,"FAA CWO",,,,,,,,,,,,,,,,,,,,,,,,,,,"29.45","34","42","T",,,,"73",,"FEW:02 24 BKN:07 33 BKN:07 55","29.43","10.00","39","280","37","28",,,,,,,,,,,,,,,,,,,,,,,,,,,,,,,,,,,,,"MET13802/27/20 08:15:01 SPECI KJFK 271315Z 28024G32KT 10SM FEW024 BKN033 BKN055 06/01 A2945 RMK AO2 PK WND 27038/1258 RAB1253E03 P0000 T00560011","FM-16","7",,,,,,,,,,,,,,,,,,,,,,,,,,,,"2009-05-01"
"74486094789","2020-02-27T08:51:00","FM-15","7",,"ESE","1.5","mi","TEMP, PRECIP, SNOW",,,"PSY, SRG, SNOWBOARD",,,"FAA CWO",,,,,,,,,,,,,,,,,,,,,,,,,,,"29.47","31","42","T",,,,"65","29.47","FEW:02 25 BKN:07 32 BKN:07 55","29.44","10.00","37","270","40","30",,,,,,,,,,,,,,,,,,,,,,,,,,,,,,,,,,,,,"MET14602/27/20 08:51:01 METAR KJFK 271351Z 27026G35KT 10SM FEW025 BKN032 BKN055 06/M01 A2947 RMK AO2 PK WND 27039/1335 RAB1253E03 SLP980 P0000 T00561006","FM-15","7",,,,,,,,,,,,,,,,,,,,,,,,,,,,"2009-05-01"
"74486094789","2020-02-27T09:51:00","FM-15","7",,"ESE","1.5","mi","TEMP, PRECIP, SNOW",,,"PSY, SRG, SNOWBOARD",,,"FAA CWO",,,,,,,,,,,,,,,,,,,,,,,,,,,"29.49","28","42","0.00",,"-0.11","1","58","29.49","BKN:07 36","29.47","10.00","36","280","47","32",,,,,,,,,,,,,,,,,,,,,,,,,,,,,,,,,,,,,"MET12702/27/20 09:51:01 METAR KJFK 271451Z 28028G41KT 10SM BKN036 06/M02 A2949 RMK AO2 PK WND 27041/1440 SLP985 60000 T00561022 51037","FM-15","7",,,,,,,,,,,,,,,,,,,,,,,,,,,,"2009-05-01"
"74486094789","2020-02-27T10:00:00","FM-12","4",,"ESE","1.5","mi","TEMP, PRECIP, SNOW",,,"PSY, SRG, SNOWBOARD",,,"FAA CWO",,,,,,,,,,,,,,,,,,,,,,,,,,,,"28","42",,,"-0.11","1","58","29.49","41","29.46","9.94","36","280",,"32",,,,,,,,,,,,,,,,,,,,,,,,,,,,,,,,,,,,,"SYN08074486 12666 62828 10056 21022 39975 49985 51037 69907 91451 333 91041 555 92715=","FM-12","4",,,,,,,,,,,,,,,,,,,,,,,,,,,,"2009-05-01"
"74486094789","2020-02-27T10:51:00","FM-15","7",,"ESE","1.5","mi","TEMP, PRECIP, SNOW",,,"PSY, SRG, SNOWBOARD",,,"FAA CWO",,,,,,,,,,,,,,,,,,,,,,,,,,,"29.52","25","41","0.00",,,,"53","29.51","BKN:07 39 BKN:07 75","29.49","10.00","35","280","45","32",,,,,,,,,,,,,,,,,,,,,,,,,,,,,,,,,,,,,"MET12202/27/20 10:51:01 METAR KJFK 271551Z 28028G39KT 10SM BKN039 BKN075 05/M04 A2952 RMK AO2 PK WND 27040/1533 SLP994 T00501039","FM-15","7",,,,,,,,,,,,,,,,,,,,,,,,,,,,"2009-05-01"
"74486094789","2020-02-27T11:51:00","FM-15","7",,"ESE","1.5","mi","TEMP, PRECIP, SNOW",,,"PSY, SRG, SNOWBOARD",,,"FAA CWO",,,,,,,,,,,,,,,,,,,,,,,,,,,"29.54","25","42","0.00",,,,"51","29.54","SCT:04 46","29.52","10.00","35","270","46","36",,,,,,,,,,,,,,,,,,,,,,,,,,,,,,,,,,,,,"MET11502/27/20 11:51:01 METAR KJFK 271651Z 27031G40KT 10SM SCT046 06/M04 A2954 RMK AO2 PK WND 28045/1602 SLP003 T00561039","FM-15","7",,,,,,,,,,,,,,,,,,,,,,,,,,,,"2009-05-01"
"74486094789","2020-02-27T12:51:00","FM-15","7",,"ESE","1.5","mi","TEMP, PRECIP, SNOW",,,"PSY, SRG, SNOWBOARD",,,"FAA CWO",,,,,,,,,,,,,,,,,,,,,,,,,,,"29.56","21","41","0.00",,"-0.07","1","45","29.56","SCT:04 49","29.54","10.00","34","290","44","36",,,,,,,,,,,,,,,,,,,,,,,,,,,,,,,,,,,,,"MET13902/27/20 12:51:02 METAR KJFK 271751Z 29031G38KT 10SM SCT049 05/M06 A2956 RMK AO2 PK WND 29044/1739 SLP009 60000 T00501061 10067 20044 51024","FM-15","7",,,,,,,,,,,,,,,,,,,,,,,,,,,,"2009-05-01"
"74486094789","2020-02-27T13:00:00","FM-12","4",,"ESE","1.5","mi","TEMP, PRECIP, SNOW",,,"PSY, SRG, SNOWBOARD",,,"FAA CWO",,,,,,,,,,,,,,,,,,,,,,,,,,,,"21","41",,,"-0.07","1","45","29.56","41","29.53","9.94","34","290",,"36",,,,,,,,,,,,,,,,,,,,,,,,,,,,,,,,,,,,,"SYN09274486 12666 42931 10050 21061 39999 40009 51024 69901 91751 333 10089 20044 91038 555 92718=","FM-12","4",,,,,,,,,,,,,,,,,,,,,,,,,,,,"2009-05-01"
"74486094789","2020-02-27T13:51:00","FM-15","7",,"ESE","1.5","mi","TEMP, PRECIP, SNOW",,,"PSY, SRG, SNOWBOARD",,,"FAA CWO",,,,,,,,,,,,,,,,,,,,,,,,,,,"29.58","20","42","0.00",,,,"41","29.58","BKN:07 50","29.56","10.00","34","270","45","33",,,,,,,,,,,,,,,,,,,,,,,,,,,,,,,,,,,,,"MET12502/27/20 13:51:02 METAR KJFK 271851Z 27029G39KT 10SM BKN050 06/M07 A2958 RMK AO2 PK WND 26040/1800 SLP018 BKN V SCT T00561067","FM-15","7",,,,,,,,,,,,,,,,,,,,,,,,,,,,"2009-05-01"
"74486094789","2020-02-27T14:51:00","FM-15","7",,"ESE","1.5","mi","TEMP, PRECIP, SNOW",,,"PSY, SRG, SNOWBOARD",,,"FAA CWO",,,,,,,,,,,,,,,,,,,,,,,,,,,"29.59","19","43","0.00",,,,"38","29.59","SCT:04 55","29.57","10.00","34","270","41","33",,,,,,,,,,,,,,,,,,,,,,,,,,,,,,,,,,,,,"MET11502/27/20 14:51:02 METAR KJFK 271951Z 27029G36KT 10SM SCT055 06/M07 A2959 RMK AO2 PK WND 27039/1907 SLP020 T00611072","FM-15","7",,,,,,,,,,,,,,,,,,,,,,,,,,,,"2009-05-01"
"74486094789","2020-02-27T15:51:00","FM-15","7",,"ESE","1.5","mi","TEMP, PRECIP, SNOW",,,"PSY, SRG, SNOWBOARD",,,"FAA CWO",,,,,,,,,,,,,,,,,,,,,,,,,,,"29.62","18","41","0.00",,"-0.06","3","39","29.62","FEW:02 55","29.59","10.00","33","260","43","29",,,,,,,,,,,,,,,,,,,,,,,,,,,,,,,,,,,,,"MET12102/27/20 15:51:02 METAR KJFK 272051Z 26025G37KT 10SM FEW055 05/M08 A2962 RMK AO2 PK WND 26038/2040 SLP030 T00501078 53021","FM-15","7",,,,,,,,,,,,,,,,,,,,,,,,,,,,"2009-05-01"
"74486094789","2020-02-27T16:00:00","FM-12","4",,"ESE","1.5","mi","TEMP, PRECIP, SNOW",,,"PSY, SRG, SNOWBOARD",,,"FAA CWO",,,,,,,,,,,,,,,,,,,,,,,,,,,,"18","41",,,"-0.06","3","39","29.62","57","29.59","9.94","33","260",,"29",,,,,,,,,,,,,,,,,,,,,,,,,,,,,,,,,,,,,"SYN07474486 32766 22625 10050 21078 30019 40030 53021 92051 333 91037 555 92721=","FM-12","4",,,,,,,,,,,,,,,,,,,,,,,,,,,,"2009-05-01"
"74486094789","2020-02-27T16:51:00","FM-15","7",,"ESE","1.5","mi","TEMP, PRECIP, SNOW",,,"PSY, SRG, SNOWBOARD",,,"FAA CWO",,,,,,,,,,,,,,,,,,,,,,,,,,,"29.66","16","40","0.00",,,,"38","29.65","FEW:02 60","29.64","10.00","32","280","44","30",,,,,,,,,,,,,,,,,,,,,,,,,,,,,,,,,,,,,"MET11502/27/20 16:51:02 METAR KJFK 272151Z 28026G38KT 10SM FEW060 04/M09 A2966 RMK AO2 PK WND 27039/2056 SLP042 T00441089","FM-15","7",,,,,,,,,,,,,,,,,,,,,,,,,,,,"2009-05-01"
"74486094789","2020-02-27T17:51:00","FM-15","7",,"ESE","1.5","mi","TEMP, PRECIP, SNOW",,,"PSY, SRG, SNOWBOARD",,,"FAA CWO",,,,,,,,,,,,,,,,,,,,,,,,,,,"29.72","15","37","0.00",,,,"41","29.72","SCT:04 60","29.70","10.00","30","280","47","38",,,,,,,,,,,,,,,,,,,,,,,,,,,,,,,,,,,,,"MET10602/27/20 17:51:02 METAR KJFK 272251Z 28033G41KT 10SM SCT060 03/M09 A2972 RMK AO2 PRESRR SLP064 T00281094 $","FM-15","7",,,,,,,,,,,,,,,,,,,,,,,,,,,,"2009-05-01"
"74486094789","2020-02-27T18:51:00","FM-15","7",,"ESE","1.5","mi","TEMP, PRECIP, SNOW",,,"PSY, SRG, SNOWBOARD",,,"FAA CWO",,,,,,,,,,,,,,,,,,,,,,,,,,,"29.76","14","35","0.00",,"-0.14","3","42","29.76","BKN:07 60","29.74","10.00","28","280","39","32",,,,,,,,,,,,,,,,,,,,,,,,,,,,,,,,,,,,,"MET10502/27/20 18:51:02 METAR KJFK 272351Z 28028G34KT 10SM BKN060 02/M10 A2976 RMK AO2 SLP078 T00171100 53048 $","FM-15","7",,,,,,,,,,,,,,,,,,,,,,,,,,,,"2009-05-01"
"74486094789","2020-02-27T19:00:00","FM-12","4",,"ESE","1.5","mi","TEMP, PRECIP, SNOW",,,"PSY, SRG, SNOWBOARD",,,"FAA CWO",,,,,,,,,,,,,,,,,,,,,,,,,,,,"14","35",,,"-0.14","3","42","29.76","57","29.73","9.94","28","280",,"32",,,,,,,,,,,,,,,,,,,,,,,,,,,,,,,,,,,,,"SYN07474486 32766 62828 10017 21100 30067 40078 53048 92351 333 91034 555 92800=","FM-12","4",,,,,,,,,,,,,,,,,,,,,,,,,,,,"2009-05-01"
"74486094789","2020-02-27T19:51:00","FM-15","7",,"ESE","1.5","mi","TEMP, PRECIP, SNOW",,,"PSY, SRG, SNOWBOARD",,,"FAA CWO",,,,,,,,,,,,,,,,,,,,,,,,,,,"29.79","10","34","0.00",,,,"37","29.79","SCT:04 60","29.77","10.00","27","280","49","36",,,,,,,,,,,,,,,,,,,,,,,,,,,,,,,,,,,,,"MET09902/27/20 19:51:01 METAR KJFK 280051Z 28031G43KT 10SM SCT060 01/M12 A2979 RMK AO2 SLP088 T00111122 $","FM-15","7",,,,,,,,,,,,,,,,,,,,,,,,,,,,"2009-05-01"
"74486094789","2020-02-27T20:51:00","FM-15","7",,"ESE","1.5","mi","TEMP, PRECIP, SNOW",,,"PSY, SRG, SNOWBOARD",,,"FAA CWO",,,,,,,,,,,,,,,,,,,,,,,,,,,"29.82","11","33","0.00",,,,"40","29.82","SCT:04 60","29.80","10.00","26","280","38","26",,,,,,,,,,,,,,,,,,,,,,,,,,,,,,,,,,,,,"MET09902/27/20 20:51:01 METAR KJFK 280151Z 28023G33KT 10SM SCT060 01/M12 A2982 RMK AO2 SLP098 T00061117 $","FM-15","7",,,,,,,,,,,,,,,,,,,,,,,,,,,,"2009-05-01"
"74486094789","2020-02-27T21:51:00","FM-15","7",,"ESE","1.5","mi","TEMP, PRECIP, SNOW",,,"PSY, SRG, SNOWBOARD",,,"FAA CWO",,,,,,,,,,,,,,,,,,,,,,,,,,,"29.83","14","33","0.00",,"-0.06","1","45","29.83","FEW:02 60","29.80","10.00","27","270","36","22",,,,,,,,,,,,,,,,,,,,,,,,,,,,,,,,,,,,,"MET10502/27/20 21:51:01 METAR KJFK 280251Z 27019G31KT 10SM FEW060 01/M10 A2983 RMK AO2 SLP100 T00061100 51022 $","FM-15","7",,,,,,,,,,,,,,,,,,,,,,,,,,,,"2009-05-01"
"74486094789","2020-02-27T22:00:00","FM-12","4",,"ESE","1.5","mi","TEMP, PRECIP, SNOW",,,"PSY, SRG, SNOWBOARD",,,"FAA CWO",,,,,,,,,,,,,,,,,,,,,,,,,,,,"14","33",,,"-0.06","1","45","29.83","57","29.80","9.94","27","270",,"22",,,,,,,,,,,,,,,,,,,,,,,,,,,,,,,,,,,,,"SYN07474486 32766 22719 10006 21100 30090 40100 51022 90251 333 91031 555 92803=","FM-12","4",,,,,,,,,,,,,,,,,,,,,,,,,,,,"2009-05-01"
"74486094789","2020-02-27T22:51:00","FM-15","7",,"ESE","1.5","mi","TEMP, PRECIP, SNOW",,,"PSY, SRG, SNOWBOARD",,,"FAA CWO",,,,,,,,,,,,,,,,,,,,,,,,,,,"29.84","16","32","0.00",,,,"52","29.84","SCT:04 60","29.82","10.00","27","260","38","26",,,,,,,,,,,,,,,,,,,,,,,,,,,,,,,,,,,,,"MET11702/27/20 22:51:02 METAR KJFK 280351Z 26023G33KT 10SM SCT060 00/M09 A2984 RMK AO2 PK WND 27033/0348 SLP104 T00001089 $","FM-15","7",,,,,,,,,,,,,,,,,,,,,,,,,,,,"2009-05-01"
"74486094789","2020-02-27T23:51:00","FM-15","7",,"ESE","1.5","mi","TEMP, PRECIP, SNOW",,,"PSY, SRG, SNOWBOARD",,,"FAA CWO",,,,,,,,,,,,,,,,,,,,,,,,,,,"29.84","13","31","0.00",,,,"47","29.84","FEW:02 55","29.82","10.00","25","270","39","28",,,,,,,,,,,,,,,,,,,,,,,,,,,,,,,,,,,,,"MET12802/27/20 23:51:02 METAR KJFK 280451Z 27024G34KT 10SM FEW055 M01/M11 A2984 RMK AO2 PK WND 27034/0444 SLP106 T10061106 400891006 $","FM-15","7",,,,,,,,,,,,,,,,,,,,,,,,,,,,"2009-05-01"
"74486094789","2020-02-27T23:59:00","SOD  ","6",,"ESE","1.5","mi","TEMP, PRECIP, SNOW",,,"PSY, SRG, SNOWBOARD",,,"FAA CWO",,,,"27","40","61","29.57","29.50","36","27.6","0","2.8","25","48","31","280","52","1.00","0","0.0","280","41","RA BR",,,,,,,,,,,,,,,,,,,,,,,,,,,,,,,,,,,,,,,,,,,,,,,,,,,,,,,,"SOD76024 HR PRECIPITATION (IN): 1.00 SNOW DEPTH (IN):0     24 HR SNOWFALL (IN):0.0  WEATHER(CODE):1  24 HR MAX TEMP (F): 4824 HR MIN TEMP (F): 31AVERAGE STATION PRESSURE(D):29.502 MINIMUM SEA LEVEL PRESSURE:29.29 TIME OF OCCURRENCE:0507 PEAK WIND SPEED (MPH): 52 PEAK WIND DIR (DEG):280 PEAK WIND TIME (LST):      FASTEST 2MIN SPEED (MPH): 41FASTEST 2MIN DIR (DEG):280 FASTEST 2MIN TIME (LST):     AVERAGE WIND SPEED (MPH):27.6 24 HR AVG TEMP (F): 40DEPART FROM NORMAL:  3  HEATING DEGREE DAYS: 25 COOLING DEGREE DAYS:  0 LATEST DAY MAX TEMP (0700-1900 LST): 44 LATEST NIGHT MIN TEMP(1900-0800 LST):41 HOURLY INCREMENTAL PRECIPITATION VALUES (IN):0.24 0.66 0.02 0.03 0.04 0.01 0.00T    T     0.00 0.00 0.00 0.00 0.00 0.00 0.00 0.00 0.00 0.00 0.00 0.00 0.00 0.00 0.00","SOD  ","6",,,,,,,,,,,,,,,,,,,,,,,,,"0632","1744",,"2009-05-01"
"74486094789","2020-02-28T00:51:00","FM-15","7",,"ESE","1.5","mi","TEMP, PRECIP, SNOW",,,"PSY, SRG, SNOWBOARD",,,"FAA CWO",,,,,,,,,,,,,,,,,,,,,,,,,,,"29.85","15","31","0.00",,"-0.02","1","52","29.85","FEW:02 55","29.83","10.00","26","260","32","26",,,,,,,,,,,,,,,,,,,,,,,,,,,,,,,,,,,,,"MET12402/28/20 00:51:02 METAR KJFK 280551Z 26023G28KT 10SM FEW055 M01/M09 A2985 RMK AO2 PK WND 27033/0512 SLP108 T10061094 51008 $","FM-15","7",,,,,,,,,,,,,,,,,,,,,,,,,,,,"2009-05-01"
"74486094789","2020-02-28T01:00:00","FM-12","4",,"ESE","1.5","mi","TEMP, PRECIP, SNOW",,,"PSY, SRG, SNOWBOARD",,,"FAA CWO",,,,,,,,,,,,,,,,,,,,,,,,,,,,"15","31",,,"-0.02","1","52","29.85","57","29.82","9.94","26","260",,"26",,,,,,,,,,,,,,,,,,,,,,,,,,,,,,,,,,,,,"SYN07474486 32766 22623 11006 21094 30097 40108 51008 90551 333 91028 555 92806=","FM-12","4",,,,,,,,,,,,,,,,,,,,,,,,,,,,"2009-05-01"
"74486094789","2020-02-28T01:51:00","FM-15","7",,"ESE","1.5","mi","TEMP, PRECIP, SNOW",,,"PSY, SRG, SNOWBOARD",,,"FAA CWO",,,,,,,,,,,,,,,,,,,,,,,,,,,"29.85","15","31","0.00",,,,"52","29.85","SCT:04 60","29.83","10.00","26","250",,"21",,,,,,,,,,,,,,,,,,,,,,,,,,,,,,,,,,,,,"MET11502/28/20 01:51:02 METAR KJFK 280651Z 25018KT 10SM SCT060 M01/M09 A2985 RMK AO2 PK WND 25027/0622 SLP107 T10061094 $","FM-15","7",,,,,,,,,,,,,,,,,,,,,,,,,,,,"2009-05-01"
"74486094789","2020-02-28T02:51:00","FM-15","7",,"ESE","1.5","mi","TEMP, PRECIP, SNOW",,,"PSY, SRG, SNOWBOARD",,,"FAA CWO",,,,,,,,,,,,,,,,,,,,,,,,,,,"29.85","15","31","0.00",,,,"52","29.84","SCT:04 55","29.83","10.00","26","250","36","26",,,,,,,,,,,,,,,,,,,,,,,,,,,,,,,,,,,,,"MET11802/28/20 02:51:02 METAR KJFK 280751Z 25023G31KT 10SM SCT055 M01/M09 A2985 RMK AO2 PK WND 26031/0742 SLP106 T10061094 $","FM-15","7",,,,,,,,,,,,,,,,,,,,,,,,,,,,"2009-05-01"
"74486094789","2020-02-28T03:51:00","FM-15","7",,"ESE","1.5","mi","TEMP, PRECIP, SNOW",,,"PSY, SRG, SNOWBOARD",,,"FAA CWO",,,,,,,,,,,,,,,,,,,,,,,,,,,"29.85","15","31","0.00",,"+0.00","5","52","29.85","SCT:04 50","29.83","10.00","26","260","38","30",,,,,,,,,,,,,,,,,,,,,,,,,,,,,,,,,,,,,"MET12402/28/20 03:51:02 METAR KJFK 280851Z 26026G33KT 10SM SCT050 M01/M09 A2985 RMK AO2 PK WND 26033/0851 SLP107 T10061094 55001 $","FM-15","7",,,,,,,,,,,,,,,,,,,,,,,,,,,,"2009-05-01"
"74486094789","2020-02-28T04:00:00","FM-12","4",,"ESE","1.5","mi","TEMP, PRECIP, SNOW",,,"PSY, SRG, SNOWBOARD",,,"FAA CWO",,,,,,,,,,,,,,,,,,,,,,,,,,,,"15","31",,,"+0.00","5","52","29.85","57","29.82","9.94","26","260",,"30",,,,,,,,,,,,,,,,,,,,,,,,,,,,,,,,,,,,,"SYN07474486 32766 42626 11006 21094 30097 40107 55001 90851 333 91033 555 92809=","FM-12","4",,,,,,,,,,,,,,,,,,,,,,,,,,,,"2009-05-01"
"74486094789","2020-02-28T04:51:00","FM-15","7",,"ESE","1.5","mi","TEMP, PRECIP, SNOW",,,"PSY, SRG, SNOWBOARD",,,"FAA CWO",,,,,,,,,,,,,,,,,,,,,,,,,,,"29.86","13","30","0.00",,,,"49","29.85","FEW:02 55","29.83","10.00","25","250","32","23",,,,,,,,,,,,,,,,,,,,,,,,,,,,,,,,,,,,,"MET11802/28/20 04:51:02 METAR KJFK 280951Z 25020G28KT 10SM FEW055 M01/M11 A2986 RMK AO2 PK WND 27035/0908 SLP110 T10111106 $","FM-15","7",,,,,,,,,,,,,,,,,,,,,,,,,,,,"2009-05-01"
"74486094789","2020-02-28T05:51:00","FM-15","7",,"ESE","1.5","mi","TEMP, PRECIP, SNOW",,,"PSY, SRG, SNOWBOARD",,,"FAA CWO",,,,,,,,,,,,,,,,,,,,,,,,,,,"29.88","12","30","0.00",,,,"47","29.88","FEW:02 55","29.85","10.00","25","270","33","22",,,,,,,,,,,,,,,,,,,,,,,,,,,,,,,,,,,,,"MET11802/28/20 05:51:02 METAR KJFK 281051Z 27019G29KT 10SM FEW055 M01/M11 A2988 RMK AO2 PK WND 27029/1045 SLP117 T10111111 $","FM-15","7",,,,,,,,,,,,,,,,,,,,,,,,,,,,"2009-05-01"
"74486094789","2020-02-28T06:51:00","FM-15","7",,"ESE","1.5","mi","TEMP, PRECIP, SNOW",,,"PSY, SRG, SNOWBOARD",,,"FAA CWO",,,,,,,,,,,,,,,,,,,,,,,,,,,"29.89","13","30","0.00",,"-0.04","3","49","29.89","FEW:02 55 FEW:02 180 SCT:04 250","29.87","10.00","25","250","30","21",,,,,,,,,,,,,,,,,,,,,,,,,,,,,,,,,,,,,"MET15002/28/20 06:51:02 METAR KJFK 281151Z 25018G26KT 10SM FEW055 FEW180 SCT250 M01/M11 A2989 RMK AO2 PK WND 26027/1055 SLP122 T10111106 11006 21017 53015 $","FM-15","7",,,,,,,,,,,,,,,,,,,,,,,,,,,,"2009-05-01"
"74486094789","2020-02-28T07:00:00","FM-12","4",,"ESE","1.5","mi","TEMP, PRECIP, SNOW",,,"PSY, SRG, SNOWBOARD",,,"FAA CWO",,,,,,,,,,,,,,,,,,,,,,,,,,,,"13","30",,,"-0.04","3","49","29.89","57","29.86","9.94","25","250",,"21",,,,,,,,,,,,,,,,,,,,,,,,,,,,,,,,,,,,,"SYN08074486 32766 42518 11011 21106 30111 40122 53015 91151 333 10089 91026 555 92812=","FM-12","4",,,,,,,,,,,,,,,,,,,,,,,,,,,,"2009-05-01"
"74486094789","2020-02-28T07:51:00","FM-15","7",,"ESE","1.5","mi","TEMP, PRECIP, SNOW",,,"PSY, SRG, SNOWBOARD",,,"FAA CWO",,,,,,,,,,,,,,,,,,,,,,,,,,,"29.91","14","31","0.00",,,,"49","29.91","FEW:02 55 FEW:02 180 BKN:07 250","29.88","10.00","26","260","29","22",,,,,,,,,,,,,,,,,,,,,,,,,,,,,,,,,,,,,"MET13202/28/20 07:51:02 METAR KJFK 281251Z 26019G25KT 10SM FEW055 FEW180 BKN250 M01/M10 A2991 RMK AO2 PK WND 26030/1231 SLP128 T10061100 $","FM-15","7",,,,,,,,,,,,,,,,,,,,,,,,,,,,"2009-05-01"
"74486094789","2020-02-28T08:51:00","FM-15","7",,"ESE","1.5","mi","TEMP, PRECIP, SNOW",,,"PSY, SRG, SNOWBOARD",,,"FAA CWO",,,,,,,,,,,,,,,,,,,,,,,,,,,"29.90","13","33","0.00",,,,"43","29.90","FEW:02 55 BKN:07 250","29.88","10.00","27","270","32","24",,,,,,,,,,,,,,,,,,,,,,,,,,,,,,,,,,,,,"MET12402/28/20 08:51:02 METAR KJFK 281351Z 27021G28KT 10SM FEW055 BKN250 01/M11 A2990 RMK AO2 PK WND 25032/1321 SLP125 T00061106 $","FM-15","7",,,,,,,,,,,,,,,,,,,,,,,,,,,,"2009-05-01"
"74486094789","2020-02-28T09:51:00","FM-15","7",,"ESE","1.5","mi","TEMP, PRECIP, SNOW",,,"PSY, SRG, SNOWBOARD",,,"FAA CWO",,,,,,,,,,,,,,,,,,,,,,,,,,,"29.89","13","34","0.00",,"+0.00","8","42","29.89","FEW:02 55 BKN:07 250","29.87","10.00","27","260","36","26",,,,,,,,,,,,,,,,,,,,,,,,,,,,,,,,,,,,,"MET13002/28/20 09:51:02 METAR KJFK 281451Z 26023G31KT 10SM FEW055 BKN250 01/M11 A2989 RMK AO2 PK WND 26031/1441 SLP121 T00111106 58001 $","FM-15","7",,,,,,,,,,,,,,,,,,,,,,,,,,,,"2009-05-01"
"74486094789","2020-02-28T10:00:00","FM-12","4",,"ESE","1.5","mi","TEMP, PRECIP, SNOW",,,"PSY, SRG, SNOWBOARD",,,"FAA CWO",,,,,,,,,,,,,,,,,,,,,,,,,,,,"13","34",,,"+0.00","8","42","29.89","57","29.86","9.94","27","260",,"26",,,,,,,,,,,,,,,,,,,,,,,,,,,,,,,,,,,,,"SYN07474486 32766 62623 10011 21106 30111 40121 58001 91451 333 91031 555 92815=","FM-12","4",,,,,,,,,,,,,,,,,,,,,,,,,,,,"2009-05-01"
"74486094789","2020-02-28T10:51:00","FM-15","7",,"ESE","1.5","mi","TEMP, PRECIP, SNOW",,,"PSY, SRG, SNOWBOARD",,,"FAA CWO",,,,,,,,,,,,,,,,,,,,,,,,,,,"29.87","15","36","0.00",,,,"42","29.87","FEW:02 55 BKN:07 250","29.85","10.00","29","250","40","26",,,,,,,,,,,,,,,,,,,,,,,,,,,,,,,,,,,,,"MET12402/28/20 10:51:02 METAR KJFK 281551Z 25023G35KT 10SM FEW055 BKN250 02/M09 A2987 RMK AO2 PK WND 26035/1546 SLP115 T00221094 $","FM-15","7",,,,,,,,,,,,,,,,,,,,,,,,,,,,"2009-05-01"
"74486094789","2020-02-28T11:51:00","FM-15","7",,"ESE","1.5","mi","TEMP, PRECIP, SNOW",,,"PSY, SRG, SNOWBOARD",,,"FAA CWO",,,,,,,,,,,,,,,,,,,,,,,,,,,"29.85","18","39","0.00",,,,"43","29.85","SCT:04 55 BKN:07 250","29.83","10.00","32","250","36","31",,,,,,,,,,,,,,,,,,,,,,,,,,,,,,,,,,,,,"MET12402/28/20 11:51:02 METAR KJFK 281651Z 25027G31KT 10SM SCT055 BKN250 04/M08 A2985 RMK AO2 PK WND 26033/1556 SLP107 T00391078 $","FM-15","7",,,,,,,,,,,,,,,,,,,,,,,,,,,,"2009-05-01"
"74486094789","2020-02-28T12:51:00","FM-15","7",,"ESE","1.5","mi","TEMP, PRECIP, SNOW",,,"PSY, SRG, SNOWBOARD",,,"FAA CWO",,,,,,,,,,,,,,,,,,,,,,,,,,,"29.83","17","41","0.00",,"+0.06","8","38","29.83","SCT:04 55 BKN:07 250","29.80","10.00","33","260","32","24",,,,,,,,,,,,,,,,,,,,,,,,,,,,,,,,,,,,,"MET14202/28/20 12:51:02 METAR KJFK 281751Z 26021G28KT 10SM SCT055 BKN250 05/M08 A2983 RMK AO2 PK WND 24033/1727 SLP100 T00501083 10050 21011 58021 $","FM-15","7",,,,,,,,,,,,,,,,,,,,,,,,,,,,"2009-05-01"
"74486094789","2020-02-28T13:00:00","FM-12","4",,"ESE","1.5","mi","TEMP, PRECIP, SNOW",,,"PSY, SRG, SNOWBOARD",,,"FAA CWO",,,,,,,,,,,,,,,,,,,,,,,,,,,,"17","41",,,"+0.06","8","38","29.83","57","29.80","9.94","33","260",,"24",,,,,,,,,,,,,,,,,,,,,,,,,,,,,,,,,,,,,"SYN08074486 32766 62621 10050 21083 30090 40100 58021 91751 333 10050 91028 555 92818=","FM-12","4",,,,,,,,,,,,,,,,,,,,,,,,,,,,"2009-05-01"
"74486094789","2020-02-28T13:51:00","FM-15","7",,"ESE","1.5","mi","TEMP, PRECIP, SNOW",,,"PSY, SRG, SNOWBOARD",,,"FAA CWO",,,,,,,,,,,,,,,,,,,,,,,,,,,"29.81","18","40","0.00",,,,"41","29.80","SCT:04 60 SCT:04 250","29.78","10.00","32","250","29","23",,,,,,,,,,,,,,,,,,,,,,,,,,,,,,,,,,,,,"MET13902/28/20 13:51:02 METAR KJFK 281851Z 25020G25KT 10SM SCT060 SCT250 04/M08 A2981 RMK AO2 PK WND 26029/1815 SLP092 VIRGA SE AND W T00441078 $","FM-15","7",,,,,,,,,,,,,,,,,,,,,,,,,,,,"2009-05-01"
"74486094789","2020-02-28T14:51:00","FM-15","7",,"ESE","1.5","mi","TEMP, PRECIP, SNOW",,,"PSY, SRG, SNOWBOARD",,,"FAA CWO",,,,,,,,,,,,,,,,,,,,,,,,,,,"29.80","17","40","0.00",,,,"40","29.80","BKN:07 60","29.78","10.00","32","250","36","29",,,,,,,,,,,,,,,,,,,,,,,,,,,,,,,,,,,,,"MET12602/28/20 14:51:02 METAR KJFK 281951Z 25025G31KT 10SM BKN060 04/M08 A2980 RMK AO2 PK WND 24037/1925 SLP090 VIRGA E-SW T00441083","FM-15","7",,,,,,,,,,,,,,,,,,,,,,,,,,,,"2009-05-01"
"74486094789","2020-02-28T15:51:00","FM-15","7",,"ESE","1.5","mi","TEMP, PRECIP, SNOW",,,"PSY, SRG, SNOWBOARD",,,"FAA CWO",,,,,,,,,,,,,,,,,,,,,,,,,,,"29.80","17","40","0.00",,"+0.03","6","40","29.80","BKN:07 70","29.78","10.00","32","250","34","24",,,,,,,,,,,,,,,,,,,,,,,,,,,,,,,,,,,,,"MET13302/28/20 15:51:02 METAR KJFK 282051Z 25021G30KT 10SM BKN070 04/M08 A2980 RMK AO2 PK WND 24032/2037 SLP090 VIRGA NE-SE T00441083 56009","FM-15","7",,,,,,,,,,,,,,,,,,,,,,,,,,,,"2009-05-01"
"74486094789","2020-02-28T16:00:00","FM-12","4",,"ESE","1.5","mi","TEMP, PRECIP, SNOW",,,"PSY, SRG, SNOWBOARD",,,"FAA CWO",,,,,,,,,,,,,,,,,,,,,,,,,,,,"17","40",,,"+0.03","6","40","29.80","74","29.77","9.94","32","250",,"24",,,,,,,,,,,,,,,,,,,,,,,,,,,,,,,,,,,,,"SYN07474486 32866 62521 10044 21083 30080 40090 56009 92051 333 91030 555 92821=","FM-12","4",,,,,,,,,,,,,,,,,,,,,,,,,,,,"2009-05-01"
"74486094789","2020-02-28T16:51:00","FM-15","7",,"ESE","1.5","mi","TEMP, PRECIP, SNOW",,,"PSY, SRG, SNOWBOARD",,,"FAA CWO",,,,,,,,,,,,,,,,,,,,,,,,,,,"29.80","17","40","0.00",,,,"40","29.80","SCT:04 70","29.78","10.00","32","250","30","21",,,,,,,,,,,,,,,,,,,,,,,,,,,,,,,,,,,,,"MET12702/28/20 16:51:02 METAR KJFK 282151Z 25018G26KT 10SM SCT070 04/M08 A2980 RMK AO2 PK WND 26028/2125 SLP091 VIRGA NE-SE T00441083","FM-15","7",,,,,,,,,,,,,,,,,,,,,,,,,,,,"2009-05-01"
"74486094789","2020-02-28T17:51:00","FM-15","7",,"ESE","1.5","mi","TEMP, PRECIP, SNOW",,,"PSY, SRG, SNOWBOARD",,,"FAA CWO",,,,,,,,,,,,,,,,,,,,,,,,,,,"29.82","19","39","0.00",,,,"45","29.81","SCT:04 70","29.80","10.00","32","250",,"20",,,,,,,,,,,,,,,,,,,,,,,,,,,,,,,,,,,,,"MET12402/28/20 17:51:02 METAR KJFK 282251Z 25017KT 10SM SCT070 04/M07 A2982 RMK AO2 PK WND 24028/2202 SLP096 VIRGA SE-SW T00391072","FM-15","7",,,,,,,,,,,,,,,,,,,,,,,,,,,,"2009-05-01"
"74486094789","2020-02-28T18:51:00","FM-15","4",,"ESE","1.5","mi","TEMP, PRECIP, SNOW",,,"PSY, SRG, SNOWBOARD",,,"FAA CWO",,,,,,,,,,,,,,,,,,,,,,,,,,,"29.83","17","39",,,,,"41","29.83",,,"10.00",,"260","23","16",,,,,,,,,,,,,,,,,,,,,,,,,,,,,,,,,,,,,"MET105METAR KJFK 282351Z 26014G20KT 10SM FEW080 BKN100 04/M08 A2983 RMK AO2 SLP100 T00391083 10056 20033 53009=","FM-15","4",,,,,,,,,,,,,,,,,,,,,,,,,,,,"2009-05-01"
"74486094789","2020-02-28T19:00:00","FM-12","4",,"ESE","1.5","mi","TEMP, PRECIP, SNOW",,,"PSY, SRG, SNOWBOARD",,,"FAA CWO",,,,,,,,,,,,,,,,,,,,,,,,,,,,"17","39",,,"-0.03","3","41","29.83","74","29.80","9.94","31","260",,"16",,,,,,,,,,,,,,,,,,,,,,,,,,,,,,,,,,,,,"SYN08674486 32866 62614 10039 21083 30090 40100 53009 92351 333 10056 21016 91020 555 92900=","FM-12","4",,,,,,,,,,,,,,,,,,,,,,,,,,,,"2009-05-01"
"74486094789","2020-02-28T19:51:00","FM-15","7",,"ESE","1.5","mi","TEMP, PRECIP, SNOW",,,"PSY, SRG, SNOWBOARD",,,"FAA CWO",,,,,,,,,,,,,,,,,,,,,,,,,,,"29.83","20","39","0.00",,,,"46","29.83","SCT:04 60 BKN:07 75 BKN:07 100","29.80","10.00","32","250",,"10",,,,,,,,,,,,,,,,,,,,,,,,,,,,,,,,,,,,,"MET11902/28/20 19:51:01 METAR KJFK 290051Z 25009KT 10SM SCT060 BKN075 BKN100 04/M07 A2983 RMK AO2 SLP102 VIRGA SE-S T00391067","FM-15","7",,,,,,,,,,,,,,,,,,,,,,,,,,,,"2009-05-01"
"74486094789","2020-02-28T20:51:00","FM-15","7",,"ESE","1.5","mi","TEMP, PRECIP, SNOW",,,"PSY, SRG, SNOWBOARD",,,"FAA CWO",,,,,,,,,,,,,,,,,,,,,,,,,,,"29.84","19","38","0.00",,,,"46","29.84","SCT:04 70 SCT:04 100","29.82","10.00","31","260",,"13",,,,,,,,,,,,,,,,,,,,,,,,,,,,,,,,,,,,,"MET10102/28/20 20:51:01 METAR KJFK 290151Z 26011KT 10SM SCT070 SCT100 03/M07 A2984 RMK AO2 SLP104 T00331072","FM-15","7",,,,,,,,,,,,,,,,,,,,,,,,,,,,"2009-05-01"
"74486094789","2020-02-28T21:51:00","FM-15","7",,"ESE","1.5","mi","TEMP, PRECIP, SNOW",,,"PSY, SRG, SNOWBOARD",,,"FAA CWO",,,,,,,,,,,,,,,,,,,,,,,,,,,"29.86","11","37","0.00",,"-0.03","3","34","29.85","SCT:04 70 SCT:04 90","29.83","10.00","29","290",,"14",,,,,,,,,,,,,,,,,,,,,,,,,,,,,,,,,,,,,"MET10702/28/20 21:51:01 METAR KJFK 290251Z 29012KT 10SM SCT070 SCT090 03/M12 A2986 RMK AO2 SLP109 T00281117 53010","FM-15","7",,,,,,,,,,,,,,,,,,,,,,,,,,,,"2009-05-01"
"74486094789","2020-02-28T22:00:00","FM-12","4",,"ESE","1.5","mi","TEMP, PRECIP, SNOW",,,"PSY, SRG, SNOWBOARD",,,"FAA CWO",,,,,,,,,,,,,,,,,,,,,,,,,,,,"11","37",,,"-0.03","3","34","29.85","74","29.83","9.94","29","290",,"14",,,,,,,,,,,,,,,,,,,,,,,,,,,,,,,,,,,,,"SYN06474486 32866 42912 10028 21117 30100 40109 53010 90251 555 92903=","FM-12","4",,,,,,,,,,,,,,,,,,,,,,,,,,,,"2009-05-01"
"74486094789","2020-02-28T22:51:00","FM-15","7",,"ESE","1.5","mi","TEMP, PRECIP, SNOW",,,"PSY, SRG, SNOWBOARD",,,"FAA CWO",,,,,,,,,,,,,,,,,,,,,,,,,,,"29.86","11","36","0.00",,,,"35","29.85","SCT:04 65 BKN:07 85","29.83","10.00","28","280",,"14",,,,,,,,,,,,,,,,,,,,,,,,,,,,,,,,,,,,,"MET10102/28/20 22:51:01 METAR KJFK 290351Z 28012KT 10SM SCT065 BKN085 02/M12 A2986 RMK AO2 SLP110 T00221117","FM-15","7",,,,,,,,,,,,,,,,,,,,,,,,,,,,"2009-05-01"
"74486094789","2020-02-28T23:51:00","FM-15","7",,"ESE","1.5","mi","TEMP, PRECIP, SNOW",,,"PSY, SRG, SNOWBOARD",,,"FAA CWO",,,,,,,,,,,,,,,,,,,,,,,,,,,"29.86","13","35","0.00",,,,"40","29.86","BKN:07 65 BKN:07 85","29.83","10.00","28","270",,"16",,,,,,,,,,,,,,,,,,,,,,,,,,,,,,,,,,,,,"MET11102/28/20 23:51:02 METAR KJFK 290451Z 27014KT 10SM BKN065 BKN085 02/M11 A2986 RMK AO2 SLP111 T00171106 400561017","FM-15","7",,,,,,,,,,,,,,,,,,,,,,,,,,,,"2009-05-01"
"74486094789","2020-02-28T23:59:00","SOD  ","6",,"ESE","1.5","mi","TEMP, PRECIP, SNOW",,,"PSY, SRG, SNOWBOARD",,,"FAA CWO",,,,"16","36","44","29.85","29.83","29","21.8","0","-1.4","29","42","29","240","42","0.00","0","0.0","260","33",,,,,,,,,,,,,,,,,,,,,,,,,,,,,,,,,,,,,,,,,,,,,,,,,,,,,,,,,"SOD70324 HR PRECIPITATION (IN): 0.00 SNOW DEPTH (IN):0     24 HR SNOWFALL (IN):0.0  24 HR MAX TEMP (F): 4224 HR MIN TEMP (F): 29AVERAGE STATION PRESSURE(D):29.826 MINIMUM SEA LEVEL PRESSURE:29.79 TIME OF OCCURRENCE:1622 PEAK WIND SPEED (MPH): 42 PEAK WIND DIR (DEG):240 PEAK WIND TIME (LST):      FASTEST 2MIN SPEED (MPH): 33FASTEST 2MIN DIR (DEG):260 FASTEST 2MIN TIME (LST):     AVERAGE WIND SPEED (MPH):21.8 24 HR AVG TEMP (F): 36DEPART FROM NORMAL: -1  HEATING DEGREE DAYS: 29 COOLING DEGREE DAYS:  0 LATEST DAY MAX TEMP (0700-1900 LST): 42 HOURLY INCREMENTAL PRECIPITATION VALUES (IN):0.00 0.00 0.00 0.00 0.00 0.00 0.00 0.00 0.00 0.00 0.00 0.00 0.00 0.00 0.00 0.00 0.00 0.00 0.00 0.00 0.00 0.00 0.00 0.00","SOD  ","6",,,,,,,,,,,,,,,,,,,,,,,,,"0631","1745",,"2009-05-01"
"74486094789","2020-02-29T00:51:00","FM-15","7",,"ESE","1.5","mi","TEMP, PRECIP, SNOW",,,"PSY, SRG, SNOWBOARD",,,"FAA CWO",,,,,,,,,,,,,,,,,,,,,,,,,,,"29.86","11","33","0.00",,"-0.01","1","40","29.86","SCT:04 65 BKN:07 80","29.83","10.00","26","290","23","17",,,,,,,,,,,,,,,,,,,,,,,,,,,,,,,,,,,,,"MET14002/29/20 00:51:02 METAR KJFK 290551Z 29015G20KT 10SM SCT065 BKN080 01/M12 A2986 RMK AO2 PK WND 27026/0533 SLP111 T00061117 10039 20006 51002","FM-15","7",,,,,,,,,,,,,,,,,,,,,,,,,,,,"2009-05-01"
"74486094789","2020-02-29T01:00:00","FM-12","4",,"ESE","1.5","mi","TEMP, PRECIP, SNOW",,,"PSY, SRG, SNOWBOARD",,,"FAA CWO",,,,,,,,,,,,,,,,,,,,,,,,,,,,"11","33",,,"-0.01","1","40","29.86","57","29.83","9.94","26","290",,"17",,,,,,,,,,,,,,,,,,,,,,,,,,,,,,,,,,,,,"SYN08674486 32766 62915 10006 21117 30100 40111 51002 90551 333 10039 21016 91020 555 92906=","FM-12","4",,,,,,,,,,,,,,,,,,,,,,,,,,,,"2009-05-01"
"74486094789","2020-02-29T01:51:00","FM-15","7",,"ESE","1.5","mi","TEMP, PRECIP, SNOW",,,"PSY, SRG, SNOWBOARD",,,"FAA CWO",,,,,,,,,,,,,,,,,,,,,,,,,,,"29.86","9","32","0.00",,,,"38","29.85","FEW:02 65 SCT:04 80","29.83","10.00","25","290",,"14",,,,,,,,,,,,,,,,,,,,,,,,,,,,,,,,,,,,,"MET11902/29/20 01:51:02 METAR KJFK 290651Z 29012KT 10SM FEW065 SCT080 00/M13 A2986 RMK AO2 PK WND 30029/0626 SLP110 T00001128","FM-15","7",,,,,,,,,,,,,,,,,,,,,,,,,,,,"2009-05-01"
"74486094789","2020-02-29T02:51:00","FM-15","7",,"ESE","1.5","mi","TEMP, PRECIP, SNOW",,,"PSY, SRG, SNOWBOARD",,,"FAA CWO",,,,,,,,,,,,,,,,,,,,,,,,,,,"29.85","9","30","0.00",,,,"41","29.84","FEW:02 65 FEW:02 80","29.83","10.00","24","290",,"13",,,,,,,,,,,,,,,,,,,,,,,,,,,,,,,,,,,,,"MET10202/29/20 02:51:02 METAR KJFK 290751Z 29011KT 10SM FEW065 FEW080 M01/M13 A2985 RMK AO2 SLP106 T10111128","FM-15","7",,,,,,,,,,,,,,,,,,,,,,,,,,,,"2009-05-01"
"74486094789","2020-02-29T03:51:00","FM-15","7",,"ESE","1.5","mi","TEMP, PRECIP, SNOW",,,"PSY, SRG, SNOWBOARD",,,"FAA CWO",,,,,,,,,,,,,,,,,,,,,,,,,,,"29.84","8","30","0.00",,"+0.01","7","39","29.84","FEW:02 65 FEW:02 80","29.82","10.00","24","280","24","17",,,,,,,,,,,,,,,,,,,,,,,,,,,,,,,,,,,,,"MET11102/29/20 03:51:02 METAR KJFK 290851Z 28015G21KT 10SM FEW065 FEW080 M01/M13 A2984 RMK AO2 SLP105 T10111133 57005","FM-15","7",,,,,,,,,,,,,,,,,,,,,,,,,,,,"2009-05-01"
"74486094789","2020-02-29T04:00:00","FM-12","4",,"ESE","1.5","mi","TEMP, PRECIP, SNOW",,,"PSY, SRG, SNOWBOARD",,,"FAA CWO",,,,,,,,,,,,,,,,,,,,,,,,,,,,"8","30",,,"+0.01","7","39","29.84","57","29.81","9.94","24","280",,"17",,,,,,,,,,,,,,,,,,,,,,,,,,,,,,,,,,,,,"SYN07474486 32766 22815 11011 21133 30094 40105 57005 90851 333 91021 555 92909=","FM-12","4",,,,,,,,,,,,,,,,,,,,,,,,,,,,"2009-05-01"
"74486094789","2020-02-29T04:51:00","FM-15","7",,"ESE","1.5","mi","TEMP, PRECIP, SNOW",,,"PSY, SRG, SNOWBOARD",,,"FAA CWO",,,,,,,,,,,,,,,,,,,,,,,,,,,"29.86","10","29","0.00",,,,"45","29.85","FEW:02 75","29.83","10.00","23","280",,"14",,,,,,,,,,,,,,,,,,,,,,,,,,,,,,,,,,,,,"MET09502/29/20 04:51:02 METAR KJFK 290951Z 28012KT 10SM FEW075 M02/M12 A2986 RMK AO2 SLP110 T10171122","FM-15","7",,,,,,,,,,,,,,,,,,,,,,,,,,,,"2009-05-01"
"74486094789","2020-02-29T05:51:00","FM-15","7",,"ESE","1.5","mi","TEMP, PRECIP, SNOW",,,"PSY, SRG, SNOWBOARD",,,"FAA CWO",,,,,,,,,,,,,,,,,,,,,,,,,,,"29.86","11","29","0.00",,,,"47","29.86","FEW:02 75","29.83","10.00","24","280",,"10",,,,,,,,,,,,,,,,,,,,,,,,,,,,,,,,,,,,,"MET09502/29/20 05:51:02 METAR KJFK 291051Z 28009KT 10SM FEW075 M02/M12 A2986 RMK AO2 SLP112 T10171117","FM-15","7",,,,,,,,,,,,,,,,,,,,,,,,,,,,"2009-05-01"
"74486094789","2020-02-29T06:51:00","FM-15","7",,"ESE","1.5","mi","TEMP, PRECIP, SNOW",,,"PSY, SRG, SNOWBOARD",,,"FAA CWO",,,,,,,,,,,,,,,,,,,,,,,,,,,"29.87","12","29","0.00",,"-0.03","1","49","29.87","FEW:02 70 FEW:02 120 BKN:07 250","29.85","10.00","24","280","22","18",,,,,,,,,,,,,,,,,,,,,,,,,,,,,,,,,,,,,"MET13002/29/20 06:51:02 METAR KJFK 291151Z 28016G19KT 10SM FEW070 FEW120 BKN250 M02/M11 A2987 RMK AO2 SLP115 T10171111 10006 21022 51009","FM-15","7",,,,,,,,,,,,,,,,,,,,,,,,,,,,"2009-05-01"
"74486094789","2020-02-29T07:00:00","FM-12","4",,"ESE","1.5","mi","TEMP, PRECIP, SNOW",,,"PSY, SRG, SNOWBOARD",,,"FAA CWO",,,,,,,,,,,,,,,,,,,,,,,,,,,,"12","29",,,"-0.03","1","49","29.87","74","29.84","9.94","24","280",,"18",,,,,,,,,,,,,,,,,,,,,,,,,,,,,,,,,,,,,"SYN08674486 32866 62816 11017 21111 30104 40115 51009 91151 333 10056 21022 91019 555 92912=","FM-12","4",,,,,,,,,,,,,,,,,,,,,,,,,,,,"2009-05-01"
"74486094789","2020-02-29T07:51:00","FM-15","7",,"ESE","1.5","mi","TEMP, PRECIP, SNOW",,,"PSY, SRG, SNOWBOARD",,,"FAA CWO",,,,,,,,,,,,,,,,,,,,,,,,,,,"29.88","12","30","0.00",,,,"47","29.88","FEW:02 45 SCT:04 180 BKN:07 250","29.85","10.00","25","280",,"15",,,,,,,,,,,,,,,,,,,,,,,,,,,,,,,,,,,,,"MET10902/29/20 07:51:02 METAR KJFK 291251Z 28013KT 10SM FEW045 SCT180 BKN250 M01/M11 A2988 RMK AO2 SLP118 T10111111","FM-15","7",,,,,,,,,,,,,,,,,,,,,,,,,,,,"2009-05-01"
"74486094789","2020-02-29T08:51:00","FM-15","7",,"ESE","1.5","mi","TEMP, PRECIP, SNOW",,,"PSY, SRG, SNOWBOARD",,,"FAA CWO",,,,,,,,,,,,,,,,,,,,,,,,,,,"29.88","12","32","0.00",,,,"43","29.88","FEW:02 45 SCT:04 120 BKN:07 250","29.85","10.00","26","280","25","15",,,,,,,,,,,,,,,,,,,,,,,,,,,,,,,,,,,,,"MET11102/29/20 08:51:02 METAR KJFK 291351Z 28013G22KT 10SM FEW045 SCT120 BKN250 00/M11 A2988 RMK AO2 SLP119 T00001111","FM-15","7",,,,,,,,,,,,,,,,,,,,,,,,,,,,"2009-05-01"
"74486094789","2020-02-29T09:51:00","FM-15","7",,"ESE","1.5","mi","TEMP, PRECIP, SNOW",,,"PSY, SRG, SNOWBOARD",,,"FAA CWO",,,,,,,,,,,,,,,,,,,,,,,,,,,"29.88","13","34","0.00",,"-0.00","0","42","29.87","FEW:02 50 FEW:02 120 SCT:04 250","29.85","10.00","27","270","23","16",,,,,,,,,,,,,,,,,,,,,,,,,,,,,,,,,,,,,"MET11702/29/20 09:51:02 METAR KJFK 291451Z 27014G20KT 10SM FEW050 FEW120 SCT250 01/M11 A2988 RMK AO2 SLP116 T00111106 50001","FM-15","7",,,,,,,,,,,,,,,,,,,,,,,,,,,,"2009-05-01"
"74486094789","2020-02-29T10:00:00","FM-12","4",,"ESE","1.5","mi","TEMP, PRECIP, SNOW",,,"PSY, SRG, SNOWBOARD",,,"FAA CWO",,,,,,,,,,,,,,,,,,,,,,,,,,,,"13","34",,,"0.00","9","42","29.87","57","29.85","9.94","27","270",,"16",,,,,,,,,,,,,,,,,,,,,,,,,,,,,,,,,,,,,"SYN07474486 32766 42714 10011 21106 30107 40116 50001 91451 333 91020 555 92915=","FM-12","4",,,,,,,,,,,,,,,,,,,,,,,,,,,,"2009-05-01"
"74486094789","2020-02-29T10:51:00","FM-15","7",,"ESE","1.5","mi","TEMP, PRECIP, SNOW",,,"PSY, SRG, SNOWBOARD",,,"FAA CWO",,,,,,,,,,,,,,,,,,,,,,,,,,,"29.87","11","35","0.00",,,,"37","29.87","BKN:07 55 BKN:07 110 BKN:07 250","29.85","10.00","28","280","29","20",,,,,,,,,,,,,,,,,,,,,,,,,,,,,,,,,,,,,"MET11102/29/20 10:51:02 METAR KJFK 291551Z 28017G25KT 10SM BKN055 BKN110 BKN250 02/M12 A2987 RMK AO2 SLP114 T00171117","FM-15","7",,,,,,,,,,,,,,,,,,,,,,,,,,,,"2009-05-01"
"74486094789","2020-02-29T11:51:00","FM-15","7",,"ESE","1.5","mi","TEMP, PRECIP, SNOW",,,"PSY, SRG, SNOWBOARD",,,"FAA CWO",,,,,,,,,,,,,,,,,,,,,,,,,,,"29.86","11","36","0.00",,,,"35","29.86","BKN:07 60 BKN:07 250","29.83","10.00","28","290","25","16",,,,,,,,,,,,,,,,,,,,,,,,,,,,,,,,,,,,,"MET10402/29/20 11:51:02 METAR KJFK 291651Z 29014G22KT 10SM BKN060 BKN250 02/M12 A2986 RMK AO2 SLP112 T00221117","FM-15","7",,,,,,,,,,,,,,,,,,,,,,,,,,,,"2009-05-01"
"74486094789","2020-02-29T12:51:00","FM-15","7",,"ESE","1.5","mi","TEMP, PRECIP, SNOW",,,"PSY, SRG, SNOWBOARD",,,"FAA CWO",,,,,,,,,,,,,,,,,,,,,,,,,,,"29.85","11","34","0.00",,"+0.02","8","38","29.85","BKN:07 60","29.83","10.00","27","280","29","13",,,,,,,,,,,,,,,,,,,,,,,,,,,,,,,,,,,,,"MET12702/29/20 12:51:02 METAR KJFK 291751Z 28011G25KT 10SM BKN060 01/M12 A2985 RMK AO2 SLP108 VIRGA ALQDS T00111117 10028 21017 58008","FM-15","7",,,,,,,,,,,,,,,,,,,,,,,,,,,,"2009-05-01"
"74486094789","2020-02-29T13:00:00","FM-12","4",,"ESE","1.5","mi","TEMP, PRECIP, SNOW",,,"PSY, SRG, SNOWBOARD",,,"FAA CWO",,,,,,,,,,,,,,,,,,,,,,,,,,,,"11","34",,,"+0.02","8","38","29.85","57","29.82","9.94","27","280",,"13",,,,,,,,,,,,,,,,,,,,,,,,,,,,,,,,,,,,,"SYN08674486 32766 62811 10011 21117 30097 40108 58008 91751 333 10028 21017 91025 555 92918=","FM-12","4",,,,,,,,,,,,,,,,,,,,,,,,,,,,"2009-05-01"
"74486094789","2020-02-29T13:51:00","FM-15","7",,"ESE","1.5","mi","TEMP, PRECIP, SNOW",,,"PSY, SRG, SNOWBOARD",,,"FAA CWO",,,,,,,,,,,,,,,,,,,,,,,,,,,"29.85","10","36","0.00",,,,"34","29.85","BKN:07 65","29.83","10.00","28","290","25","20",,,,,,,,,,,,,,,,,,,,,,,,,,,,,,,,,,,,,"MET12702/29/20 13:51:02 METAR KJFK 291851Z 29017G22KT 10SM BKN065 02/M12 A2985 RMK AO2 PK WND 27026/1817 SLP107 VIRGA ALQDS T00221122","FM-15","7",,,,,,,,,,,,,,,,,,,,,,,,,,,,"2009-05-01"
"74486094789","2020-02-29T14:51:00","FM-15","7",,"ESE","1.5","mi","TEMP, PRECIP, SNOW",,,"PSY, SRG, SNOWBOARD",,,"FAA CWO",,,,,,,,,,,,,,,,,,,,,,,,,,,"29.86","11","34","T",,,,"38","29.86","BKN:07 65 BKN:07 80","29.83","10.00","27","280","31","25",,,,,,,,,,,,,,,,,,,,,,,,,,,,,,,,,,,,,"MET14902/29/20 14:51:02 METAR KJFK 291951Z 28022G27KT 10SM BKN065 BKN080 01/M12 A2986 RMK AO2 PK WND 29027/1950 SNB16E25 SLP112 VIRGA ALQDS P0000 T00111117","FM-15","7",,,,,,,,,,,,,,,,,,,,,,,,,,,,"2009-05-01"
"74486094789","2020-02-29T15:51:00","FM-15","7",,"ESE","1.5","mi","TEMP, PRECIP, SNOW",,,"PSY, SRG, SNOWBOARD",,,"FAA CWO",,,,,,,,,,,,,,,,,,,,,,,,,,,"29.89","12","34","0.00",,"-0.04","3","40","29.88","FEW:02 46 BKN:07 60 BKN:07 80","29.87","10.00","27","290","33","21",,,,,,,,,,,,,,,,,,,,,,,,,,,,,,,,,,,,,"MET15302/29/20 15:51:02 METAR KJFK 292051Z 29018G29KT 10SM FEW046 BKN060 BKN080 01/M11 A2989 RMK AO2 PK WND 27029/2047 SLP120 VIRGA ALQDS 60000 T00111111 53012","FM-15","7",,,,,,,,,,,,,,,,,,,,,,,,,,,,"2009-05-01"
"74486094789","2020-02-29T16:00:00","FM-12","4",,"ESE","1.5","mi","TEMP, PRECIP, SNOW",,,"PSY, SRG, SNOWBOARD",,,"FAA CWO",,,,,,,,,,,,,,,,,,,,,,,,,,,,"12","34",,,"-0.04","3","40","29.88","41","29.86","9.94","27","290",,"21",,,,,,,,,,,,,,,,,,,,,,,,,,,,,,,,,,,,,"SYN08074486 12666 62918 10011 21111 30111 40120 53012 69907 92051 333 91029 555 92921=","FM-12","4",,,,,,,,,,,,,,,,,,,,,,,,,,,,"2009-05-01"
"74486094789","2020-02-29T16:51:00","FM-15","7",,"ESE","1.5","mi","TEMP, PRECIP, SNOW",,,"PSY, SRG, SNOWBOARD",,,"FAA CWO",,,,,,,,,,,,,,,,,,,,,,,,,,,"29.91","8","32","0.00",,,,"36","29.91","FEW:02 50 SCT:04 60 BKN:07 70","29.88","10.00","25","290","34","22",,,,,,,,,,,,,,,,,,,,,,,,,,,,,,,,,,,,,"MET14102/29/20 16:51:02 METAR KJFK 292151Z 29019G30KT 10SM FEW050 SCT060 BKN070 00/M13 A2991 RMK AO2 PK WND 30030/2147 SLP129 VIRGA ALQDS T00001133","FM-15","7",,,,,,,,,,,,,,,,,,,,,,,,,,,,"2009-05-01"
"74486094789","2020-02-29T17:51:00","FM-15","4",,"ESE","1.5","mi","TEMP, PRECIP, SNOW",,,"PSY, SRG, SNOWBOARD",,,"FAA CWO",,,,,,,,,,,,,,,,,,,,,,,,,,,"29.95","6","30",,,,,"36","29.95",,,"10.00",,"300","31","22",,,,,,,,,,,,,,,,,,,,,,,,,,,,,,,,,,,,,"MET099METAR KJFK 292251Z 30019G27KT 10SM FEW065 M01/M14 A2995 RMK AO2 PK WND 29032/2201 SLP142 T10111144=","FM-15","4",,,,,,,,,,,,,,,,,,,,,,,,,,,,"2009-05-01"
"74486094789","2020-02-29T18:51:00","FM-15","4",,"ESE","1.5","mi","TEMP, PRECIP, SNOW",,,"PSY, SRG, SNOWBOARD",,,"FAA CWO",,,,,,,,,,,,,,,,,,,,,,,,,,,"29.99","6","29",,,,,"38","29.99",,,"10.00",,"310","34","21",,,,,,,,,,,,,,,,,,,,,,,,,,,,,,,,,,,,,"MET123METAR KJFK 292351Z 31018G30KT 10SM FEW065 M02/M14 A2999 RMK AO2 PK WND 32030/2342 SLP156 60000 T10171144 10028 21017 53036=","FM-15","4",,,,,,,,,,,,,,,,,,,,,,,,,,,,"2009-05-01"
"74486094789","2020-02-29T19:00:00","FM-12","4",,"ESE","1.5","mi","TEMP, PRECIP, SNOW",,,"PSY, SRG, SNOWBOARD",,,"FAA CWO",,,,,,,,,,,,,,,,,,,,,,,,,,,,"6","29",,,"-0.11","3","38","29.99","57","29.96","9.94","23","310",,"21",,,,,,,,,,,,,,,,,,,,,,,,,,,,,,,,,,,,,"SYN09274486 12766 23118 11017 21144 30144 40156 53036 69901 92351 333 10028 21017 91030 555 90100=","FM-12","4",,,,,,,,,,,,,,,,,,,,,,,,,,,,"2009-05-01"
"74486094789","2020-02-29T19:51:00","FM-15","4",,"ESE","1.5","mi","TEMP, PRECIP, SNOW",,,"PSY, SRG, SNOWBOARD",,,"FAA CWO",,,,,,,,,,,,,,,,,,,,,,,,,,,"30.01","7","28",,,,,"41","30.01",,,"10.00",,"320","29","21",,,,,,,,,,,,,,,,,,,,,,,,,,,,,,,,,,,,,"MET099METAR KJFK 010051Z 32018G25KT 10SM FEW065 M02/M14 A3001 RMK AO2 PK WND 31033/0013 SLP162 T10221139=","FM-15","4",,,,,,,,,,,,,,,,,,,,,,,,,,,,"2009-05-01"
"74486094789","2020-02-29T20:51:00","FM-15","4",,"ESE","1.5","mi","TEMP, PRECIP, SNOW",,,"PSY, SRG, SNOWBOARD",,,"FAA CWO",,,,,,,,,,,,,,,,,,,,,,,,,,,"30.03","8","27",,,,,"45","30.03",,,"10.00",,"320",,"21",,,,,,,,,,,,,,,,,,,,,,,,,,,,,,,,,,,,,"MET096METAR KJFK 010151Z 32018KT 10SM FEW060 M03/M13 A3003 RMK AO2 PK WND 33029/0103 SLP169 T10281133=","FM-15","4",,,,,,,,,,,,,,,,,,,,,,,,,,,,"2009-05-01"
"74486094789","2020-02-29T21:51:00","FM-15","4",,"ESE","1.5","mi","TEMP, PRECIP, SNOW",,,"PSY, SRG, SNOWBOARD",,,"FAA CWO",,,,,,,,,,,,,,,,,,,,,,,,,,,"30.05","8","27",,,,,"45","30.04",,,"10.00",,"320",,"20",,,,,,,,,,,,,,,,,,,,,,,,,,,,,,,,,,,,,"MET106METAR KJFK 010251Z COR 32017KT 10SM FEW055 M03/M13 A3005 RMK AO2 PK WND 31027/0225 SLP174 T10281133 51018=","FM-15","4",,,,,,,,,,,,,,,,,,,,,,,,,,,,"2009-05-01"
"74486094789","2020-02-29T22:00:00","FM-12","4",,"ESE","1.5","mi","TEMP, PRECIP, SNOW",,,"PSY, SRG, SNOWBOARD",,,"FAA CWO",,,,,,,,,,,,,,,,,,,,,,,,,,,,"8","27",,,"-0.05","1","45","30.04","57","30.02","9.94","22","320",,"20",,,,,,,,,,,,,,,,,,,,,,,,,,,,,,,,,,,,,"SYN06474486 32766 23217 11028 21133 30165 40174 51018 90251 555 90103=","FM-12","4",,,,,,,,,,,,,,,,,,,,,,,,,,,,"2009-05-01"
"74486094789","2020-02-29T22:51:00","FM-15","4",,"ESE","1.5","mi","TEMP, PRECIP, SNOW",,,"PSY, SRG, SNOWBOARD",,,"FAA CWO",,,,,,,,,,,,,,,,,,,,,,,,,,,"30.06","8","27",,,,,"45","30.05",,,"10.00",,"330","32","25",,,,,,,,,,,,,,,,,,,,,,,,,,,,,,,,,,,,,"MET099METAR KJFK 010351Z 33022G28KT 10SM FEW055 M03/M13 A3006 RMK AO2 PK WND 33028/0349 SLP177 T10281133=","FM-15","4",,,,,,,,,,,,,,,,,,,,,,,,,,,,"2009-05-01"
"74486094789","2020-02-29T23:51:00","FM-15","4",,"ESE","1.5","mi","TEMP, PRECIP, SNOW",,,"PSY, SRG, SNOWBOARD",,,"FAA CWO",,,,,,,,,,,,,,,,,,,,,,,,,,,"30.06","8","26",,,,,"46","30.06",,,"10.00",,"310","34","23",,,,,,,,,,,,,,,,,,,,,,,,,,,,,,,,,,,,,"MET109METAR KJFK 010451Z 31020G30KT 10SM FEW055 M03/M13 A3006 RMK AO2 PK WND 31031/0434 SLP178 T10331133 400281033=","FM-15","4",,,,,,,,,,,,,,,,,,,,,,,,,,,,"2009-05-01"
"74486094789","2020-02-29T23:59:00","SOD  ","6",,"ESE","1.5","mi","TEMP, PRECIP, SNOW",,,"PSY, SRG, SNOWBOARD",,,"FAA CWO",,,,,"32","40",,,,"18.2","0","-5.5","33","37","26","310","38","T","0","T","310","29",,,,,,,,,,,,,,,,,,,,,,,,,,,,,,,,,,,,,,,,,,,,,,,,,,,,,,,,,"SOD70824 HR PRECIPITATION (IN):    T SNOW DEPTH (IN):0     24 HR SNOWFALL (IN):T    24 HR MAX TEMP (F): 3724 HR MIN TEMP (F): 26MINIMUM SEA LEVEL PRESSURE:29.84 TIME OF OCCURRENCE:1350 PEAK WIND SPEED (MPH): 38 PEAK WIND DIR (DEG):310 PEAK WIND TIME (LST):      FASTEST 2MIN SPEED (MPH): 29FASTEST 2MIN DIR (DEG):310 FASTEST 2MIN TIME (LST):     AVERAGE WIND SPEED (MPH):18.2 24 HR AVG TEMP (F): 32DEPART FROM NORMAL: -6  HEATING DEGREE DAYS: 33 COOLING DEGREE DAYS:  0 LATEST DAY MAX TEMP (0700-1900 LST): 37 LATEST NIGHT MIN TEMP(1900-0800 LST):28 HOURLY INCREMENTAL PRECIPITATION VALUES (IN):0.00 0.00 0.00 0.00 0.00 0.00 0.00 0.00 0.00 0.00 0.00 0.00 0.00 0.00T     0.00 0.00 0.00 0.00 0.00 0.00 0.00 0.00 0.00","SOD  ","6",,,,,,,,,,,,,,,,,,,,,,,,,"0629","1746",,"2009-05-01"
"74486094789","2020-02-29T23:59:00","SOM  ","6","11.9","ESE","1.5","mi","TEMP, PRECIP, SNOW",,,"PSY, SRG, SNOWBOARD",,,"FAA CWO","0","0","0",,,,,,,,,,,,,,,,,,,,,"3248","743",,,,,,,,,,,,,,,,,,,"12","8","13","0","0","1","4.4","0","-98","4.4","4.4",,,"1.01","26-27","0",,"T","29-29","30.68","15","0851","46.2","39.3","28.85","07","1151","32.5","30.03","30.00",,"T",,"0","841",,"SOM  ","6",,,,,,,,,,,,,,,,,,,,,,,,,,,,"2009-05-01"
